[{"city":"\u00c1belov\u00e1","zip":"985 13"},{"city":"Abovce","zip":"980 44"},{"city":"Abrah\u00e1m","zip":"925 45"},{"city":"Abrah\u00e1movce","zip":"059 72"},{"city":"Abrah\u00e1movce","zip":"086 41"},{"city":"Abramov\u00e1","zip":"038 22"},{"city":"Abranovce","zip":"082 52"},{"city":"Adamovsk\u00e9 Kochanovce","zip":"913 05"},{"city":"Adidovce","zip":"067 32"},{"city":"Alb\u00ednov","zip":"078 01"},{"city":"Alek\u0161ince","zip":"951 22"},{"city":"Alexandrov Dvor","zip":"951 34"},{"city":"Al\u017ebetin Dvor","zip":"900 42"},{"city":"Amadeho Kra\u010dany","zip":"930 03"},{"city":"A\u0148ala","zip":"946 51"},{"city":"A\u0148alsk\u00e9 Z\u00e1hrady","zip":"946 51"},{"city":"Anda\u010d","zip":"951 42"},{"city":"Andovce","zip":"941 23"},{"city":"Andrejov\u00e1","zip":"086 37"},{"city":"Andrejovka","zip":"065 43"},{"city":"Arad","zip":"943 42"},{"city":"Ardanovce","zip":"956 06"},{"city":"Ardovo","zip":"049 55"},{"city":"Arma","zip":"935 41"},{"city":"Arnutovce","zip":"053 13"},{"city":"B\u00e1b","zip":"951 34"},{"city":"Babie","zip":"094 31"},{"city":"Bab\u00edn","zip":"029 52"},{"city":"Babin Potok","zip":"082 67"},{"city":"Babin\u00e1","zip":"962 61"},{"city":"Babindol","zip":"951 53"},{"city":"Babinec","zip":"980 26"},{"city":"Babi\u0161e","zip":"013 54"},{"city":"Babkov","zip":"013 11"},{"city":"Babulicov Vrch","zip":"916 13"},{"city":"Bac\u00fach","zip":"976 64"},{"city":"Bac\u00farov","zip":"962 61"},{"city":"B\u00e1\u010d","zip":"930 30"},{"city":"Ba\u010dala","zip":"951 15"},{"city":"Ba\u010dka","zip":"076 84"},{"city":"Ba\u010dkov","zip":"076 61"},{"city":"Ba\u010dkov\u00edk","zip":"044 45"},{"city":"B\u00e1\u010dovce","zip":"962 68"},{"city":"Ba\u010fan","zip":"969 01"},{"city":"B\u00e1dice","zip":"951 46"},{"city":"Bad\u00edn","zip":"976 32"},{"city":"B\u00e1ho\u0148","zip":"900 84"},{"city":"Bajany","zip":"072 54"},{"city":"Baj\u010d","zip":"946 54"},{"city":"Bajerov","zip":"082 41"},{"city":"Bajerovce","zip":"082 73"},{"city":"Bajka","zip":"935 51"},{"city":"Bajtava","zip":"943 65"},{"city":"Baka","zip":"930 04"},{"city":"Bakta","zip":"979 01"},{"city":"Bal\u00e1\u017ee","zip":"976 11"},{"city":"Baldovce","zip":"053 04"},{"city":"Balog nad Ip\u013eom","zip":"991 11"},{"city":"Balo\u0148","zip":"930 08"},{"city":"Balvany","zip":"946 01"},{"city":"Ba\u0148a","zip":"091 01"},{"city":"Ba\u0148a Lucia","zip":"044 25"},{"city":"Banka","zip":"921 01"},{"city":"Banky","zip":"969 01"},{"city":"Banky","zip":"972 25"},{"city":"B\u00e1nov","zip":"941 01"},{"city":"B\u00e1novce nad Bebravou","zip":"957 01"},{"city":"B\u00e1novce nad Bebravou","zip":"957 04"},{"city":"B\u00e1novce nad Ondavou","zip":"072 04"},{"city":"Bansk\u00e1","zip":"972 48"},{"city":"Bansk\u00e1 Bel\u00e1","zip":"966 15"},{"city":"Bansk\u00e1 Bystrica","zip":"974 01"},{"city":"Bansk\u00e1 Bystrica","zip":"974 11"},{"city":"Bansk\u00e1 Bystrica","zip":"974 05"},{"city":"Bansk\u00e1 Bystrica","zip":"974 04"},{"city":"Bansk\u00e1 Bystrica","zip":"974 09"},{"city":"Bansk\u00e1 Bystrica","zip":"976 34"},{"city":"Bansk\u00e1 Hodru\u0161a","zip":"966 63"},{"city":"Bansk\u00e1 \u0160tiavnica","zip":"969 01"},{"city":"Bansk\u00e9","zip":"094 12"},{"city":"Bansk\u00fd Studenec","zip":"969 01"},{"city":"Bara","zip":"076 32"},{"city":"Barca","zip":"982 51"},{"city":"Bardejov","zip":"085 01"},{"city":"Bardejovsk\u00e1 Nov\u00e1 Ves","zip":"085 01"},{"city":"Bardejovsk\u00e1 Z\u00e1bava","zip":"085 01"},{"city":"Bardejovsk\u00e9 K\u00fapele","zip":"086 31"},{"city":"Bardo\u0148ovo","zip":"941 49"},{"city":"Barto\u0161ova Leh\u00f4tka","zip":"967 01"},{"city":"Barto\u0161ovce","zip":"086 42"},{"city":"Ba\u0161ka","zip":"040 16"},{"city":"Ba\u0161kovce","zip":"067 23"},{"city":"Ba\u0161kovce","zip":"073 01"},{"city":"Ba\u0161ovce","zip":"922 01"},{"city":"Ba\u0161t\u00edn","zip":"956 18"},{"city":"Batizovce","zip":"059 35"},{"city":"B\u00e1tka","zip":"980 21"},{"city":"B\u00e1torov\u00e1","zip":"991 26"},{"city":"B\u00e1torove Kosihy","zip":"946 34"},{"city":"B\u00e1tovce","zip":"935 03"},{"city":"Beckov","zip":"916 38"},{"city":"Beckovsk\u00e1 Vieska","zip":"916 31"},{"city":"Be\u010dov","zip":"974 01"},{"city":"Beharovce","zip":"053 05"},{"city":"Behynce","zip":"982 01"},{"city":"Behynce","zip":"956 07"},{"city":"Becherov","zip":"086 35"},{"city":"Beketfa","zip":"930 34"},{"city":"Bel\u00e1","zip":"013 05"},{"city":"Bel\u00e1","zip":"943 53"},{"city":"Bel\u00e1 nad Cirochou","zip":"067 81"},{"city":"Beladice","zip":"951 75"},{"city":"Bel\u00e1 - Dulice","zip":"038 11"},{"city":"Belejov","zip":"018 03"},{"city":"Belejovce","zip":"089 01"},{"city":"Belek","zip":"941 48"},{"city":"Bel\u00edn","zip":"980 01"},{"city":"Belina","zip":"986 01"},{"city":"Belince","zip":"956 12"},{"city":"Bellova Ves","zip":"930 52"},{"city":"Belove\u017ea","zip":"086 14"},{"city":"Beluj","zip":"969 01"},{"city":"Belu\u0161a","zip":"018 61"},{"city":"Bel\u017ea","zip":"044 58"},{"city":"Be\u0148adikov\u00e1","zip":"032 04"},{"city":"Be\u0148adikovce","zip":"090 42"},{"city":"Be\u0148adovo","zip":"029 63"},{"city":"Be\u0148atina","zip":"072 64"},{"city":"Beniakovce","zip":"044 42"},{"city":"Benice","zip":"038 42"},{"city":"Benkova Pot\u00f4\u0148","zip":"930 36"},{"city":"Benkovce","zip":"094 02"},{"city":"Be\u0148ov","zip":"014 01"},{"city":"Be\u0148ova Lehota","zip":"026 01"},{"city":"Be\u0148u\u0161","zip":"976 64"},{"city":"Bern\u00e1tovce","zip":"044 13"},{"city":"Bernol\u00e1kovo","zip":"900 27"},{"city":"Bertotovce","zip":"082 35"},{"city":"Besn\u00e9","zip":"018 02"},{"city":"Be\u0161a","zip":"935 36"},{"city":"Be\u0161a","zip":"076 72"},{"city":"Be\u0161e\u0148ov","zip":"941 41"},{"city":"Be\u0161e\u0148ov\u00e1","zip":"034 83"},{"city":"Betlanovce","zip":"053 15"},{"city":"Betlenovce","zip":"071 01"},{"city":"Betliar","zip":"049 21"},{"city":"Bezdedov - Vieska","zip":"020 01"},{"city":"Be\u017eovce","zip":"072 53"},{"city":"Bidovce","zip":"044 45"},{"city":"Biel","zip":"076 41"},{"city":"Biela","zip":"027 05"},{"city":"Biela Voda","zip":"972 29"},{"city":"Biele Vody","zip":"053 76"},{"city":"Biele Vody","zip":"976 53"},{"city":"Bielovce","zip":"935 74"},{"city":"Biely Kostol","zip":"919 34"},{"city":"Bijacovce","zip":"053 06"},{"city":"B\u00edlkove Humence","zip":"908 77"},{"city":"B\u00ed\u0148a","zip":"943 56"},{"city":"Bindt","zip":"053 32"},{"city":"B\u00ed\u0148ovce","zip":"919 07"},{"city":"Biskupice","zip":"957 01"},{"city":"Biskupice","zip":"986 01"},{"city":"Biskupov\u00e1","zip":"956 07"},{"city":"Bitarov\u00e1","zip":"010 04"},{"city":"Blahov\u00e1","zip":"930 52"},{"city":"Blatn\u00e1 na Ostrove","zip":"930 32"},{"city":"Blatn\u00e1 Polianka","zip":"072 44"},{"city":"Blatn\u00e9","zip":"900 82"},{"city":"Blatn\u00e9 Remety","zip":"072 44"},{"city":"Blatn\u00e9 Revi\u0161tia","zip":"072 43"},{"city":"Blatnica","zip":"038 15"},{"city":"Bla\u017eice","zip":"044 16"},{"city":"Bla\u017ekov","zip":"023 02"},{"city":"Bla\u017ekov\u00e1","zip":"023 11"},{"city":"Bla\u017eovce","zip":"038 44"},{"city":"Blesovce","zip":"956 01"},{"city":"Blhovce","zip":"980 32"},{"city":"Bobot","zip":"913 25"},{"city":"Bobotsk\u00e1 Lehota","zip":"913 25"},{"city":"Bobrov","zip":"029 42"},{"city":"Bobrov\u010dek","zip":"032 21"},{"city":"Bobrovec","zip":"032 21"},{"city":"Bobrovn\u00edk","zip":"032 23"},{"city":"Bo\u010diar","zip":"044 57"},{"city":"Bod\u00edky","zip":"930 31"},{"city":"Bodin\u00e1","zip":"018 15"},{"city":"Bodok","zip":"956 08"},{"city":"Bodorov\u00e1","zip":"038 45"},{"city":"Bodov","zip":"903 01"},{"city":"Bodovce","zip":"082 66"},{"city":"Bodovka - Krivos\u00fad","zip":"913 11"},{"city":"Bodru\u017eal","zip":"090 05"},{"city":"Bodza","zip":"946 16"},{"city":"Bodzianske L\u00faky","zip":"946 14"},{"city":"Bogliarka","zip":"086 04"},{"city":"Bohdanovce","zip":"044 16"},{"city":"Bohdanovce n\/Trnavou","zip":"919 09"},{"city":"Bohe\u013eov","zip":"929 01"},{"city":"Bohunice","zip":"919 30"},{"city":"Bohunice","zip":"018 52"},{"city":"Bohunice","zip":"935 05"},{"city":"Boh\u00fa\u0148ovo","zip":"049 12"},{"city":"Bojn\u00e1","zip":"956 01"},{"city":"Bojnice","zip":"972 01"},{"city":"Bojnice - k\u00fapele","zip":"972 01"},{"city":"Bojni\u010dky","zip":"920 55"},{"city":"Bokro\u0161","zip":"946 39"},{"city":"Bok\u0161a","zip":"091 01"},{"city":"Bo\u013e","zip":"076 53"},{"city":"Boldog","zip":"925 26"},{"city":"Boler\u00e1z","zip":"919 08"},{"city":"Bole\u0161ov","zip":"018 53"},{"city":"Boliarov","zip":"044 47"},{"city":"Bo\u013ekovce","zip":"984 01"},{"city":"Borcov\u00e1","zip":"038 44"},{"city":"Bor\u010dany","zip":"956 36"},{"city":"Bor\u010dice","zip":"018 53"},{"city":"Borda","zip":"044 45"},{"city":"Borinka","zip":"900 32"},{"city":"Borov","zip":"068 01"},{"city":"Borov\u00e1","zip":"919 61"},{"city":"Borovce","zip":"922 09"},{"city":"Borsk\u00fd Mikul\u00e1\u0161","zip":"908 77"},{"city":"Borsk\u00fd Peter","zip":"908 77"},{"city":"Borsk\u00fd Sv\u00e4t\u00fd Jur","zip":"908 79"},{"city":"Bor\u0161a","zip":"076 32"},{"city":"Bory","zip":"935 87"},{"city":"Bo\u0161\u00e1ca","zip":"913 07"},{"city":"Bo\u0161any","zip":"956 18"},{"city":"Bo\u0161ianska Neporadza","zip":"913 26"},{"city":"Bo\u0165any","zip":"076 43"},{"city":"Bottovo","zip":"980 41"},{"city":"Bo\u017e\u010dice","zip":"076 62"},{"city":"B\u00f4rka","zip":"049 42"},{"city":"Bracovce","zip":"072 05"},{"city":"Br\u00e1dno","zip":"982 67"},{"city":"Bran\u010d","zip":"951 13"},{"city":"Branovo","zip":"941 31"},{"city":"Bratislava","zip":"841 07"},{"city":"Bratislava","zip":"811 08"},{"city":"Bratislava","zip":"811 07"},{"city":"Bratislava","zip":"811 09"},{"city":"Bratislava","zip":"821 06"},{"city":"Bratislava","zip":"851 04"},{"city":"Bratislava","zip":"841 05"},{"city":"Bratislava","zip":"841 01"},{"city":"Bratislava","zip":"851 10"},{"city":"Bratislava","zip":"831 02"},{"city":"Bratislava","zip":"831 06"},{"city":"Bratislava","zip":"821 03"},{"city":"Bratislava","zip":"821 09"},{"city":"Bratislava","zip":"831 07"},{"city":"Bratislava","zip":"821 07"},{"city":"Bratislava","zip":"851 02"},{"city":"Bratislava","zip":"831 01"},{"city":"Bratislava","zip":"821 04"},{"city":"Bratislava","zip":"811 06"},{"city":"Bratislava","zip":"851 01"},{"city":"Bratislava","zip":"811 05"},{"city":"Bratislava","zip":"851 07"},{"city":"Bratislava","zip":"841 06"},{"city":"Bratislava","zip":"821 02"},{"city":"Bratislava","zip":"821 01"},{"city":"Bratislava","zip":"831 53"},{"city":"Bratislava","zip":"841 10"},{"city":"Bratislava","zip":"821 08"},{"city":"Bratislava","zip":"830 06"},{"city":"Bratislava","zip":"821 05"},{"city":"Bratislava","zip":"831 04"},{"city":"Bratislava","zip":"841 03"},{"city":"Bratislava","zip":"811 04"},{"city":"Bratislava","zip":"841 04"},{"city":"Bratislava","zip":"811 02"},{"city":"Bratislava","zip":"811 03"},{"city":"Bratislava","zip":"811 01"},{"city":"Bratislava","zip":"851 06"},{"city":"Bratislava","zip":"841 02"},{"city":"Bratislava","zip":"841 08"},{"city":"Bratislava","zip":"851 05"},{"city":"Bratislava","zip":"831 03"},{"city":"Bratislava","zip":"831 52"},{"city":"Bratislava","zip":"831 54"},{"city":"Bratislava","zip":"831 51"},{"city":"Bratislava","zip":"851 03"},{"city":"Bratislava","zip":"840 09"},{"city":"Bratislava","zip":"840 02"},{"city":"Bratislava","zip":"830 00"},{"city":"Bratislava","zip":"850 09"},{"city":"Bratislava","zip":"831 55"},{"city":"Bratislava","zip":"830 05"},{"city":"Bratislava","zip":"830 07"},{"city":"Bratislava","zip":"820 01"},{"city":"Bratislava","zip":"850 00"},{"city":"Bratislava","zip":"840 08"},{"city":"\u010cunovo","zip":"851 10"},{"city":"Dev\u00edn","zip":"841 10"},{"city":"Jarovce","zip":"851 10"},{"city":"Lama\u010d","zip":"841 03"},{"city":"Podunajsk\u00e9 Biskupice","zip":"821 06"},{"city":"Rusovce","zip":"851 10"},{"city":"Vajnory","zip":"831 07"},{"city":"Vraku\u0148a","zip":"821 07"},{"city":"Z\u00e1horsk\u00e1 Bystrica","zip":"841 06"},{"city":"Bratkovica","zip":"962 05"},{"city":"Brav\u00e4covo","zip":"976 64"},{"city":"Brd\u00e1rka","zip":"049 34"},{"city":"Brehov","zip":"076 05"},{"city":"Brehy","zip":"968 01"},{"city":"Brekov","zip":"066 01"},{"city":"Brestina","zip":"985 53"},{"city":"Brestov","zip":"066 01"},{"city":"Brestov","zip":"082 05"},{"city":"Brestov nad Laborcom","zip":"067 01"},{"city":"Brestovany","zip":"919 27"},{"city":"Brestov\u00e9","zip":"916 42"},{"city":"Brestovec","zip":"907 01"},{"city":"Brestovec","zip":"946 17"},{"city":"Bretejovce","zip":"082 03"},{"city":"Bretka","zip":"980 46"},{"city":"Breza","zip":"029 53"},{"city":"Brezany","zip":"972 12"},{"city":"Brezany","zip":"010 04"},{"city":"Brezina","zip":"076 12"},{"city":"Breziny","zip":"962 61"},{"city":"Breznica","zip":"091 01"},{"city":"Brezni\u010dka","zip":"985 02"},{"city":"Brezni\u010dka","zip":"091 01"},{"city":"Brezno","zip":"977 03"},{"city":"Brezno","zip":"977 01"},{"city":"Brezno","zip":"976 57"},{"city":"Brezolupy","zip":"957 01"},{"city":"Brezov","zip":"087 01"},{"city":"Brezov\u00e1 pod Bradlom","zip":"906 13"},{"city":"Brezovec","zip":"067 73"},{"city":"Brezovica","zip":"082 74"},{"city":"Brezovica","zip":"028 01"},{"city":"Brezovi\u010dka","zip":"082 74"},{"city":"Brezovka","zip":"086 11"},{"city":"Bre\u017eany","zip":"082 41"},{"city":"Brhlovce","zip":"935 02"},{"city":"Briestenn\u00e9","zip":"018 22"},{"city":"Brie\u0161tie","zip":"038 22"},{"city":"Bri\u0161ovka","zip":"029 57"},{"city":"Brnice","zip":"032 23"},{"city":"Brodsk\u00e9","zip":"908 85"},{"city":"Brodzany","zip":"958 42"},{"city":"Br\u0161lica","zip":"013 54"},{"city":"Brucha\u010dka","zip":"976 51"},{"city":"Brunovce","zip":"916 25"},{"city":"Brusnica","zip":"090 31"},{"city":"Brusn\u00edk","zip":"982 65"},{"city":"Brusn\u00edk","zip":"991 01"},{"city":"Brusno","zip":"972 32"},{"city":"Brusno","zip":"976 62"},{"city":"Brusno - k\u00fapele","zip":"976 62"},{"city":"Brutovce","zip":"053 73"},{"city":"Bruty","zip":"943 55"},{"city":"Brvni\u0161te","zip":"018 12"},{"city":"Brzot\u00edn","zip":"049 51"},{"city":"Buclovany","zip":"086 43"},{"city":"B\u00fa\u010d","zip":"946 35"},{"city":"Bu\u010dany","zip":"919 28"},{"city":"Bu\u010dina","zip":"029 57"},{"city":"Bu\u010dkovec","zip":"916 42"},{"city":"Bu\u010duh\u00e1za","zip":"931 01"},{"city":"Budat\u00ednska Lehota","zip":"023 36"},{"city":"Bud\u010da","zip":"962 33"},{"city":"Budi\u010dka","zip":"962 34"},{"city":"Budikovany","zip":"980 23"},{"city":"Budim\u00edr","zip":"044 43"},{"city":"Budin\u00e1","zip":"985 12"},{"city":"Budince","zip":"076 77"},{"city":"Budi\u0161","zip":"038 23"},{"city":"Budkovce","zip":"072 15"},{"city":"Budmerice","zip":"900 86"},{"city":"Budulov","zip":"045 01"},{"city":"Budz\u00edn","zip":"082 71"},{"city":"Buglovce","zip":"053 04"},{"city":"Bujakovo","zip":"977 01"},{"city":"Bukov\u00e1","zip":"013 61"},{"city":"Bukov\u00e1","zip":"919 10"},{"city":"Bukovce","zip":"090 22"},{"city":"Bukovec","zip":"991 02"},{"city":"Bukovec","zip":"906 14"},{"city":"Bukovec","zip":"044 20"},{"city":"Bukovina","zip":"966 01"},{"city":"Bukovina","zip":"968 01"},{"city":"Bukovina","zip":"032 23"},{"city":"Bukovinka","zip":"985 51"},{"city":"Bukovinka","zip":"053 14"},{"city":"Bulhary","zip":"986 01"},{"city":"Bunde","zip":"082 33"},{"city":"Bunetice","zip":"044 47"},{"city":"Bunkovce","zip":"072 44"},{"city":"Bu\u0161ince","zip":"991 22"},{"city":"Bu\u0161ovce","zip":"059 93"},{"city":"B\u00fa\u0161telek","zip":"930 39"},{"city":"Buzica","zip":"044 73"},{"city":"Buzice","zip":"044 13"},{"city":"Buzitka","zip":"985 41"},{"city":"Byster","zip":"044 41"},{"city":"Bystr\u00e1","zip":"977 01"},{"city":"Bystr\u00e1","zip":"090 23"},{"city":"Bystrany","zip":"053 62"},{"city":"Bystr\u00e9","zip":"094 34"},{"city":"Bystri\u010dany","zip":"972 45"},{"city":"Bystri\u010dka","zip":"946 38"},{"city":"Bystri\u010dka","zip":"985 24"},{"city":"Bystri\u010dka","zip":"038 04"},{"city":"By\u0161ta","zip":"076 13"},{"city":"Byt\u010da","zip":"014 01"},{"city":"Bzenica","zip":"966 01"},{"city":"Bzenov","zip":"082 42"},{"city":"Bzince","zip":"956 05"},{"city":"Bzince pod Javorinou","zip":"916 11"},{"city":"Bziny","zip":"026 01"},{"city":"Bzov\u00edk","zip":"962 41"},{"city":"Bzovsk\u00e1 Leh\u00f4tka","zip":"962 62"},{"city":"B\u017eany","zip":"090 33"},{"city":"Cabaj","zip":"951 17"},{"city":"Cabaj - \u010c\u00e1por","zip":"951 17"},{"city":"Cabov","zip":"094 14"},{"city":"Cakov","zip":"980 42"},{"city":"Cejkov","zip":"076 05"},{"city":"Cemjata","zip":"080 01"},{"city":"Cernina","zip":"090 16"},{"city":"Cerov\u00e1","zip":"972 48"},{"city":"Cerov\u00e1","zip":"906 33"},{"city":"Ceroviny","zip":"951 24"},{"city":"Cerovo","zip":"962 52"},{"city":"Cestice","zip":"044 71"},{"city":"Cetuna","zip":"916 11"},{"city":"C\u00edfer","zip":"919 43"},{"city":"Cige\u013e","zip":"971 01"},{"city":"Cige\u013eka","zip":"086 02"},{"city":"Cigla","zip":"086 37"},{"city":"Cimenn\u00e1","zip":"956 37"},{"city":"Cinoba\u0148a","zip":"985 22"},{"city":"Cun\u00edn","zip":"908 48"},{"city":"\u010cab","zip":"951 24"},{"city":"\u010cabalovce","zip":"067 16"},{"city":"\u010cabiny","zip":"067 02"},{"city":"\u010cabradsk\u00fd Vrbovok","zip":"962 51"},{"city":"\u010ca\u010d\u00edn","zip":"974 01"},{"city":"\u010c\u00e1\u010dov","zip":"905 01"},{"city":"\u010cadca","zip":"022 01"},{"city":"\u010cadca","zip":"022 04"},{"city":"\u010cachtice","zip":"916 21"},{"city":"\u010cajakovo","zip":"935 61"},{"city":"\u010cajkov","zip":"935 24"},{"city":"\u010caka","zip":"935 68"},{"city":"\u010cakajovce","zip":"951 43"},{"city":"\u010cakanovce","zip":"044 45"},{"city":"\u010cakanovce","zip":"985 58"},{"city":"\u010cakany","zip":"930 40"},{"city":"\u010caklov","zip":"094 35"},{"city":"\u010calovec","zip":"946 02"},{"city":"\u010camovce","zip":"986 01"},{"city":"\u010ca\u0148a","zip":"044 14"},{"city":"\u010cankov","zip":"934 01"},{"city":"\u010c\u00e1por","zip":"951 17"},{"city":"\u010caradice","zip":"953 01"},{"city":"\u010c\u00e1ry","zip":"908 43"},{"city":"\u010cast\u00e1","zip":"900 89"},{"city":"\u010c\u00e1sta","zip":"946 03"},{"city":"\u010castkov","zip":"906 04"},{"city":"\u010castkovce","zip":"916 27"},{"city":"\u010cata","zip":"935 63"},{"city":"\u010cataj","zip":"900 83"},{"city":"\u010cavoj","zip":"972 29"},{"city":"\u010cebovce","zip":"991 25"},{"city":"\u010ce\u010dehov","zip":"072 11"},{"city":"\u010ce\u010dejovce","zip":"044 71"},{"city":"\u010ce\u010d\u00ednska Pot\u00f4\u0148","zip":"930 36"},{"city":"\u010cech\u00e1nky","zip":"985 45"},{"city":"\u010cechov\u00e1","zip":"930 34"},{"city":"\u010cechy","zip":"941 32"},{"city":"\u010cechynce","zip":"951 07"},{"city":"\u010cekovce","zip":"962 41"},{"city":"\u010ce\u013eadice","zip":"951 03"},{"city":"\u010ce\u013eadince","zip":"956 16"},{"city":"\u010cel\u00e1re","zip":"991 22"},{"city":"\u010celkova Lehota","zip":"018 16"},{"city":"\u010celovce","zip":"991 41"},{"city":"\u010celovce","zip":"082 14"},{"city":"\u010ce\u013eovce","zip":"076 17"},{"city":"\u010cenkesfa","zip":"929 01"},{"city":"\u010cenkov","zip":"943 52"},{"city":"\u010cenkovce","zip":"930 39"},{"city":"\u010cere\u0148any","zip":"972 46"},{"city":"\u010ceren\u010dany","zip":"979 01"},{"city":"\u010cergov","zip":"945 01"},{"city":"\u010cerh\u00e1t","zip":"945 04"},{"city":"\u010cerhov","zip":"076 81"},{"city":"\u010cer\u00edn","zip":"974 01"},{"city":"\u010cermany","zip":"956 08"},{"city":"\u010cern\u00edk","zip":"941 05"},{"city":"\u010cernina","zip":"067 23"},{"city":"\u010cernochov","zip":"076 32"},{"city":"\u010cernochov Vrch","zip":"916 01"},{"city":"\u010certi\u017en\u00e9","zip":"067 52"},{"city":"\u010cerve\u0148","zip":"985 02"},{"city":"\u010cerven\u00e1 Skala","zip":"976 71"},{"city":"\u010cerven\u00e1 Voda","zip":"083 01"},{"city":"\u010cerve\u0148any","zip":"049 64"},{"city":"\u010cerve\u0148any","zip":"991 01"},{"city":"\u010cervenica","zip":"082 07"},{"city":"\u010cervenica pri Sabin.","zip":"082 56"},{"city":"\u010cerven\u00edk","zip":"920 42"},{"city":"\u010cerven\u00fd Hr\u00e1dok","zip":"951 82"},{"city":"\u010cerven\u00fd Kame\u0148","zip":"900 89"},{"city":"\u010cerven\u00fd Kame\u0148","zip":"018 56"},{"city":"\u010cerven\u00fd Kl\u00e1\u0161tor","zip":"059 06"},{"city":"\u010cerven\u00fd Kl\u00e1\u0161tor-k\u00fap.","zip":"059 06"},{"city":"\u010cesk\u00e9 Brezovo","zip":"985 03"},{"city":"\u010ciakov","zip":"013 54"},{"city":"\u010ci\u010darovce","zip":"076 71"},{"city":"\u010ci\u010dava","zip":"093 01"},{"city":"\u010ci\u010dmany","zip":"013 15"},{"city":"\u010c\u00ed\u010dov","zip":"946 19"},{"city":"\u010cierna","zip":"076 43"},{"city":"\u010cierna Hora","zip":"053 33"},{"city":"\u010cierna Lehota","zip":"956 53"},{"city":"\u010cierna Lehota","zip":"049 36"},{"city":"\u010cierna nad Tisou","zip":"076 43"},{"city":"\u010cierna Voda","zip":"925 06"},{"city":"\u010cierne","zip":"023 13"},{"city":"\u010cierne","zip":"023 56"},{"city":"\u010cierne","zip":"013 55"},{"city":"\u010cierne K\u013ea\u010dany","zip":"953 05"},{"city":"\u010cierne nad Top\u013eou","zip":"094 34"},{"city":"\u010cierne Pole","zip":"079 01"},{"city":"\u010cierny Balog","zip":"976 52"},{"city":"\u010cierny Brod","zip":"925 08"},{"city":"\u010cierny Chrb\u00e1t","zip":"946 03"},{"city":"\u010cierny Potok","zip":"980 31"},{"city":"\u010cierny V\u00e1h","zip":"032 33"},{"city":"\u010cif\u00e1re","zip":"951 61"},{"city":"\u010ciky","zip":"941 11"},{"city":"\u010cilistov","zip":"931 01"},{"city":"\u010cili\u017esk\u00e1 Radva\u0148","zip":"930 08"},{"city":"\u010cimhov\u00e1","zip":"027 12"},{"city":"\u010cir\u010d","zip":"065 42"},{"city":"\u010c\u00ed\u017e","zip":"980 43"},{"city":"\u010c\u00ed\u017e - k\u00fapele","zip":"980 43"},{"city":"\u010ci\u017eatice","zip":"044 47"},{"city":"\u010coltovo","zip":"049 12"},{"city":"\u010cremo\u0161n\u00e9","zip":"039 01"},{"city":"\u010cu\u010dma","zip":"048 01"},{"city":"\u010cukalovce","zip":"067 35"},{"city":"\u010cuk\u00e1rska Paka","zip":"930 51"},{"city":"\u010cuklasovce","zip":"956 54"},{"city":"\u010ea\u010dov","zip":"082 71"},{"city":"Da\u010dov Lom","zip":"991 35"},{"city":"Daletice","zip":"082 63"},{"city":"Dancov Potok","zip":"076 12"},{"city":"Dani\u0161ovce","zip":"053 22"},{"city":"\u010eanov\u00e1","zip":"038 42"},{"city":"\u010eapalovce","zip":"094 05"},{"city":"Dargov","zip":"076 61"},{"city":"Davidov","zip":"093 03"},{"city":"Debra\u010f","zip":"045 01"},{"city":"Deda\u010dov","zip":"067 12"},{"city":"Dedina Ml\u00e1de\u017ee","zip":"946 03"},{"city":"Dedinka","zip":"941 50"},{"city":"Dedinka pri Dunaji","zip":"900 29"},{"city":"Dedinky","zip":"049 73"},{"city":"Dechtice","zip":"919 53"},{"city":"Dek\u00fd\u0161","zip":"969 01"},{"city":"Delava","zip":"053 75"},{"city":"Demandice","zip":"935 85"},{"city":"Dem\u00e4nov\u00e1","zip":"029 57"},{"city":"Dem\u00e4novsk\u00e1 Dolina","zip":"031 01"},{"city":"Demjata","zip":"082 13"},{"city":"Demkovsk\u00e1","zip":"027 05"},{"city":"De\u0161n\u00e1","zip":"020 54"},{"city":"Detr\u00edk","zip":"094 31"},{"city":"Detva","zip":"962 12"},{"city":"Detva - s\u00eddlisko","zip":"962 12"},{"city":"Detvianska Huta","zip":"962 05"},{"city":"Devi\u010dany","zip":"935 04"},{"city":"Devi\u010die","zip":"962 65"},{"city":"De\u017eerice","zip":"957 03"},{"city":"Diakov\u00e1","zip":"038 02"},{"city":"Diakovce","zip":"925 81"},{"city":"Diel","zip":"985 53"},{"city":"Diva","zip":"943 42"},{"city":"Diviacka Nov\u00e1 Ves","zip":"972 24"},{"city":"Diviaky","zip":"039 01"},{"city":"Diviaky nad Nitricou","zip":"972 25"},{"city":"Div\u00edn","zip":"985 52"},{"city":"Divina","zip":"013 31"},{"city":"Divinka","zip":"013 31"},{"city":"Div\u00ednske Lazy","zip":"985 52"},{"city":"Dlh\u00e1","zip":"919 01"},{"city":"Dlh\u00e1 L\u00faka","zip":"085 01"},{"city":"Dlh\u00e1 L\u00faka","zip":"032 23"},{"city":"Dlh\u00e1 nad Kysucou","zip":"023 54"},{"city":"Dlh\u00e1 nad Oravou","zip":"027 55"},{"city":"Dlh\u00e1 nad V\u00e1hom","zip":"927 05"},{"city":"Dlh\u00e1 Ves","zip":"049 55"},{"city":"Dlh\u00e9 Kl\u010dovo","zip":"094 13"},{"city":"Dlh\u00e9 nad Cirochou","zip":"067 82"},{"city":"Dlh\u00e9 Pole","zip":"013 32"},{"city":"Dlh\u00e9 Str\u00e1\u017ee","zip":"054 01"},{"city":"Dlho\u0148a","zip":"090 02"},{"city":"Dl\u017e\u00edn","zip":"972 26"},{"city":"Dobogov","zip":"935 56"},{"city":"Dobogov","zip":"044 71"},{"city":"Dobr\u00e1","zip":"914 01"},{"city":"Dobr\u00e1","zip":"076 41"},{"city":"Dobr\u00e1 Niva","zip":"962 61"},{"city":"Dobr\u00e1 Voda","zip":"919 54"},{"city":"Dobr\u00e1 Vo\u013ea","zip":"053 61"},{"city":"Dobrianky","zip":"094 23"},{"city":"Dobro\u010d","zip":"976 52"},{"city":"Dobro\u010d","zip":"985 53"},{"city":"Dobro\u010dn\u00e1","zip":"972 27"},{"city":"Dobroho\u0161\u0165","zip":"930 31"},{"city":"Dobroslava","zip":"090 01"},{"city":"Dobr\u00fd Potok","zip":"985 26"},{"city":"Dob\u0161in\u00e1","zip":"049 25"},{"city":"Dob\u0161in. \u013dad. Jasky\u0148a","zip":"049 71"},{"city":"Dob\u0161insk\u00e1 Ma\u0161a","zip":"049 73"},{"city":"Doh\u0148any","zip":"020 51"},{"city":"Doj\u010d","zip":"906 02"},{"city":"Do\u013eany","zip":"053 02"},{"city":"Do\u013eany","zip":"900 88"},{"city":"Dolina","zip":"082 38"},{"city":"Dolina","zip":"027 05"},{"city":"Dolinka","zip":"991 28"},{"city":"Dolinky","zip":"020 53"},{"city":"Dolinky","zip":"962 63"},{"city":"Dolinky","zip":"013 62"},{"city":"Doln\u00e1 Breznica","zip":"020 61"},{"city":"Doln\u00e1 Bzov\u00e1","zip":"985 51"},{"city":"Doln\u00e1 Krup\u00e1","zip":"919 65"},{"city":"Doln\u00e1 Lehota","zip":"027 41"},{"city":"Doln\u00e1 Lehota","zip":"976 98"},{"city":"Doln\u00e1 Marikov\u00e1","zip":"018 02"},{"city":"Doln\u00e1 Mi\u010din\u00e1","zip":"974 01"},{"city":"Doln\u00e1 M\u00f4l\u010da","zip":"974 01"},{"city":"Doln\u00e1 Poruba","zip":"914 43"},{"city":"Doln\u00e1 Pot\u00f4\u0148","zip":"930 02"},{"city":"Doln\u00e1 Se\u010d","zip":"935 31"},{"city":"Doln\u00e1 Streda","zip":"925 63"},{"city":"Doln\u00e1 Strehov\u00e1","zip":"991 02"},{"city":"Doln\u00e1 S\u00fa\u010da","zip":"913 32"},{"city":"Doln\u00e1 \u0160tub\u0148a","zip":"039 01"},{"city":"Doln\u00e1 Ti\u017eina","zip":"013 04"},{"city":"Doln\u00e1 Trn\u00e1vka","zip":"966 21"},{"city":"Doln\u00e1 Ves","zip":"967 01"},{"city":"Doln\u00e1 Z\u00e1vrsk\u00e1","zip":"913 33"},{"city":"Doln\u00e1 \u017dda\u0148a","zip":"966 01"},{"city":"Doln\u00e9 Breziny","zip":"962 61"},{"city":"Doln\u00e9 Dr\u017ekovce","zip":"956 54"},{"city":"Doln\u00e9 Dubov\u00e9","zip":"919 52"},{"city":"Doln\u00e9 H\u00e1mre","zip":"966 61"},{"city":"Doln\u00e9 Chlebany","zip":"956 31"},{"city":"Doln\u00e9 Jan\u00edky","zip":"930 39"},{"city":"Doln\u00e9 Jaseno","zip":"038 02"},{"city":"Doln\u00e9 Ko\u010dkovce","zip":"020 01"},{"city":"Doln\u00e9 Ko\u0161arisk\u00e1","zip":"906 15"},{"city":"Doln\u00e9 Lefantovce","zip":"951 45"},{"city":"Doln\u00e9 Lelovce","zip":"972 43"},{"city":"Doln\u00e9 Lov\u010dice","zip":"919 27"},{"city":"Doln\u00e9 Mladonice","zip":"962 41"},{"city":"Doln\u00e9 Mote\u0161ice","zip":"913 26"},{"city":"Doln\u00e9 Na\u0161tice","zip":"957 01"},{"city":"Doln\u00e9 Obdokovce","zip":"951 02"},{"city":"Doln\u00e9 Ore\u0161any","zip":"919 02"},{"city":"Doln\u00e9 Otrokovce","zip":"920 61"},{"city":"Doln\u00e9 Plachtince","zip":"991 24"},{"city":"Doln\u00e9 Pr\u00edbelce","zip":"991 25"},{"city":"Doln\u00e9 Rykyn\u010dice","zip":"962 55"},{"city":"Doln\u00e9 Saliby","zip":"925 02"},{"city":"Doln\u00e9 Semerovce","zip":"935 85"},{"city":"Doln\u00e9 S\u013ea\u017eany","zip":"951 71"},{"city":"Doln\u00e9 Srnie","zip":"916 41"},{"city":"Doln\u00e9 Strh\u00e1re","zip":"991 03"},{"city":"Doln\u00e9 Trhovi\u0161te","zip":"920 61"},{"city":"Doln\u00e9 Turovce","zip":"935 81"},{"city":"Doln\u00e9 Vestenice","zip":"972 23"},{"city":"Doln\u00e9 Zahorany","zip":"985 42"},{"city":"Doln\u00e9 Zelenice","zip":"920 52"},{"city":"Doln\u00fd Bad\u00edn","zip":"962 51"},{"city":"Doln\u00fd Bar","zip":"930 14"},{"city":"Doln\u00fd \u010eur","zip":"935 34"},{"city":"Doln\u00fd Harmanec","zip":"976 03"},{"city":"Doln\u00fd Hri\u010dov","zip":"013 41"},{"city":"Doln\u00fd Chot\u00e1r","zip":"925 41"},{"city":"Doln\u00fd Jal\u0161ov\u00edk","zip":"962 41"},{"city":"Doln\u00fd Jatov","zip":"941 10"},{"city":"Doln\u00fd Jelenec","zip":"976 02"},{"city":"Doln\u00fd Kaln\u00edk","zip":"038 02"},{"city":"Doln\u00fd Kub\u00edn","zip":"026 01"},{"city":"Doln\u00fd Les","zip":"072 13"},{"city":"Doln\u00fd Lieskov","zip":"018 21"},{"city":"Doln\u00fd Lopa\u0161ov","zip":"922 04"},{"city":"Doln\u00fd Ohaj","zip":"941 43"},{"city":"Doln\u00fd Pial","zip":"935 37"},{"city":"Doln\u00fd \u0160t\u00e1l","zip":"930 10"},{"city":"Doln\u00fd \u0160tefanov","zip":"027 44"},{"city":"Doln\u00fd Tisovn\u00edk","zip":"962 75"},{"city":"Doln\u00fd Tur\u010dek","zip":"038 48"},{"city":"Doln\u00fd Vadi\u010dov","zip":"023 45"},{"city":"Doln\u00fd Vinodol","zip":"951 06"},{"city":"Doma","zip":"900 44"},{"city":"Domadice","zip":"935 87"},{"city":"Doman\u00edky","zip":"962 65"},{"city":"Domani\u017ea","zip":"018 16"},{"city":"Doma\u0148ovce","zip":"053 02"},{"city":"Doma\u0161a","zip":"935 61"},{"city":"Donovaly","zip":"976 39"},{"city":"Dora","zip":"985 41"},{"city":"Dovalovo","zip":"033 01"},{"city":"Dr\u00e1bsko","zip":"976 53"},{"city":"Drah\u0148ov","zip":"076 74"},{"city":"Drahovce","zip":"922 41"},{"city":"Dravce","zip":"053 14"},{"city":"Dra\u017eice","zip":"980 23"},{"city":"Dra\u017ekovce","zip":"038 02"},{"city":"Dr\u00e1\u017eovce","zip":"962 68"},{"city":"Drie\u010dna","zip":"090 23"},{"city":"Drien\u010dany","zip":"980 23"},{"city":"Drienica","zip":"083 01"},{"city":"Drienov","zip":"082 04"},{"city":"Drienovec","zip":"044 01"},{"city":"Drienovo","zip":"962 51"},{"city":"Drienovsk\u00e1 Nov\u00e1 Ves","zip":"082 01"},{"city":"Drietoma","zip":"913 03"},{"city":"Dr\u0148a","zip":"980 03"},{"city":"Drnava","zip":"991 02"},{"city":"Drnava","zip":"049 42"},{"city":"Dru\u017estevn\u00e1 pri Horn.","zip":"044 31"},{"city":"Dr\u017eenice","zip":"935 03"},{"city":"Dr\u017ekovce","zip":"982 62"},{"city":"\u010eub\u00e1kovo","zip":"985 07"},{"city":"Dubie","zip":"086 45"},{"city":"Dubinn\u00e9","zip":"086 12"},{"city":"Dubkov\u00e1","zip":"020 55"},{"city":"Dubnica","zip":"972 01"},{"city":"Dubnica nad V\u00e1hom","zip":"018 41"},{"city":"Dubni\u010dka","zip":"957 03"},{"city":"Dubn\u00edk","zip":"082 07"},{"city":"Dubn\u00edk","zip":"941 35"},{"city":"Dubno","zip":"980 35"},{"city":"Dubodiel","zip":"913 23"},{"city":"Dubov\u00e1","zip":"976 97"},{"city":"Dubov\u00e1","zip":"900 90"},{"city":"Dubov\u00e1","zip":"090 11"},{"city":"Dubovany","zip":"922 08"},{"city":"Dubovce","zip":"908 62"},{"city":"Dubov\u00e9","zip":"962 61"},{"city":"Dubov\u00e9","zip":"038 23"},{"city":"Dubovec","zip":"980 41"},{"city":"Dubovica","zip":"082 71"},{"city":"D\u00fabrava","zip":"991 02"},{"city":"D\u00fabrava","zip":"913 33"},{"city":"D\u00fabrava","zip":"082 06"},{"city":"D\u00fabrava","zip":"053 05"},{"city":"D\u00fabrava","zip":"032 12"},{"city":"D\u00fabrava","zip":"067 73"},{"city":"D\u00fabravica","zip":"976 33"},{"city":"D\u00fabravka","zip":"072 15"},{"city":"D\u00fabravy","zip":"962 12"},{"city":"Ducov\u00e9","zip":"922 21"},{"city":"Dudince","zip":"962 71"},{"city":"Duchenec","zip":"962 52"},{"city":"Dukovce","zip":"086 44"},{"city":"Dulice","zip":"038 11"},{"city":"Dulov","zip":"018 52"},{"city":"Du\u013eov","zip":"029 63"},{"city":"Dulova Ves","zip":"082 52"},{"city":"Dulovce","zip":"946 56"},{"city":"Dulovo","zip":"980 21"},{"city":"Dunajov","zip":"023 02"},{"city":"Dunajsk\u00e1 Lu\u017en\u00e1","zip":"900 42"},{"city":"Dunajsk\u00e1 Streda","zip":"929 01"},{"city":"Dunajsk\u00fd Kl\u00e1tov","zip":"930 21"},{"city":"Dupl\u00edn","zip":"091 01"},{"city":"\u010eur\u010din\u00e1","zip":"015 01"},{"city":"\u010eur\u010fo\u0161","zip":"094 31"},{"city":"\u010eur\u010fo\u0161\u00edk","zip":"044 45"},{"city":"\u010eur\u010fov\u00e9","zip":"018 22"},{"city":"\u010eurkov","zip":"044 19"},{"city":"\u010eurkov\u00e1","zip":"065 41"},{"city":"\u010eurkovce","zip":"991 27"},{"city":"D\u00fa\u017eava","zip":"979 01"},{"city":"Dvor Mikul\u00e1\u0161","zip":"941 35"},{"city":"Dvorany nad Nitrou","zip":"956 11"},{"city":"Dvorec","zip":"038 45"},{"city":"Dvorec","zip":"956 55"},{"city":"Dvorianky","zip":"076 62"},{"city":"Dvorn\u00edky","zip":"962 68"},{"city":"Dvorn\u00edky","zip":"920 56"},{"city":"Dvorn\u00edky","zip":"044 02"},{"city":"Dvorn\u00edky - V\u010del\u00e1re","zip":"044 02"},{"city":"Dvorn\u00edky n\/ Nitricou","zip":"972 22"},{"city":"Dvory nad \u017ditavou","zip":"941 31"},{"city":"Dy\u010dka","zip":"952 01"},{"city":"Egre\u0161","zip":"075 01"},{"city":"Eli\u00e1\u0161ovce","zip":"930 38"},{"city":"Etreho Kra\u010dany","zip":"930 03"},{"city":"Fa\u010dkov","zip":"013 15"},{"city":"Fajtov","zip":"976 52"},{"city":"Falku\u0161ovce","zip":"072 05"},{"city":"Fan\u010dov\u00e1","zip":"972 46"},{"city":"Farn\u00e1","zip":"935 66"},{"city":"Fejs\u00e9\u0161","zip":"077 01"},{"city":"Feki\u0161ovce","zip":"072 33"},{"city":"Fia\u010dice","zip":"032 14"},{"city":"Figa","zip":"982 51"},{"city":"Fija\u0161","zip":"087 01"},{"city":"Fi\u013eakovo","zip":"986 01"},{"city":"Fi\u013eakovsk\u00e9 K\u013ea\u010dany","zip":"986 01"},{"city":"Fi\u013eakovsk\u00e9 Kov\u00e1\u010de","zip":"986 01"},{"city":"Filice","zip":"058 01"},{"city":"Filier","zip":"982 66"},{"city":"Filipovo","zip":"976 64"},{"city":"Fintice","zip":"082 16"},{"city":"Flaj\u0161ov\u00e1","zip":"029 57"},{"city":"Folku\u0161ov\u00e1","zip":"038 42"},{"city":"Forbaky - Klukany","zip":"013 32"},{"city":"Forbasy","zip":"065 01"},{"city":"Francovce","zip":"087 01"},{"city":"Fri\u010dka","zip":"086 02"},{"city":"Fri\u010dkovce","zip":"086 42"},{"city":"Fri\u010dovce","zip":"082 37"},{"city":"Fulianka","zip":"082 12"},{"city":"Furmanec","zip":"082 67"},{"city":"Gab\u010d\u00edkovo","zip":"930 05"},{"city":"Gaboltov","zip":"086 02"},{"city":"Gajary","zip":"900 61"},{"city":"Gajdo\u0161","zip":"072 43"},{"city":"Galanta","zip":"924 01"},{"city":"Galovany","zip":"032 11"},{"city":"G\u00e1\u0148","zip":"924 01"},{"city":"G\u00e1novce","zip":"058 01"},{"city":"G\u00e1pel","zip":"972 28"},{"city":"Ga\u0161kovce","zip":"020 53"},{"city":"Ga\u0161parovo","zip":"976 64"},{"city":"Gbe\u013eany","zip":"013 02"},{"city":"Gbelce","zip":"943 42"},{"city":"Gbely","zip":"908 45"},{"city":"Ge\u010da","zip":"044 10"},{"city":"Ge\u010da \u010d. 107-110","zip":"044 14"},{"city":"Gelnica","zip":"056 01"},{"city":"Gemer","zip":"982 01"},{"city":"Gemer\u010dek","zip":"980 31"},{"city":"Gemersk\u00e1 H\u00f4rka","zip":"049 12"},{"city":"Gemersk\u00e1 Panica","zip":"980 46"},{"city":"Gemersk\u00e1 Poloma","zip":"049 22"},{"city":"Gemersk\u00e1 Ves","zip":"982 62"},{"city":"Gemersk\u00e9 Decht\u00e1re","zip":"980 04"},{"city":"Gemersk\u00e9 Michalovce","zip":"982 52"},{"city":"Gemersk\u00e9 Teplice","zip":"049 16"},{"city":"Gemersk\u00fd Jablonec","zip":"980 35"},{"city":"Gemersk\u00fd Milhos\u0165","zip":"049 16"},{"city":"Gemersk\u00fd Sad","zip":"049 13"},{"city":"G\u00e9\u0148a","zip":"934 01"},{"city":"Geraltov","zip":"082 67"},{"city":"Gerlachov","zip":"059 42"},{"city":"Gerlachov","zip":"086 04"},{"city":"Giglovce","zip":"094 05"},{"city":"Giraltovce","zip":"087 01"},{"city":"Girovce","zip":"094 06"},{"city":"Glabu\u0161ovce","zip":"991 22"},{"city":"Go\u010daltovo","zip":"049 32"},{"city":"Go\u010dovo","zip":"049 24"},{"city":"Golianovo","zip":"951 08"},{"city":"Gombo\u0161","zip":"044 55"},{"city":"Gondovo","zip":"935 25"},{"city":"Gorazdov","zip":"951 31"},{"city":"Gortva","zip":"980 02"},{"city":"G\u00f4tovany","zip":"032 14"},{"city":"Grajciar","zip":"044 57"},{"city":"Gran\u010d - Petrovce","zip":"053 05"},{"city":"Gregorova Vieska","zip":"985 56"},{"city":"Gregorovce","zip":"982 52"},{"city":"Gregorovce","zip":"082 66"},{"city":"Gribov","zip":"090 22"},{"city":"Grodzin","zip":"094 31"},{"city":"Gr\u00fane","zip":"027 05"},{"city":"Gruzovce","zip":"067 22"},{"city":"G\u00fag","zip":"941 23"},{"city":"Gy\u0148ov","zip":"044 14"},{"city":"Habovka","zip":"027 32"},{"city":"Habura","zip":"067 52"},{"city":"Ha\u010dava","zip":"981 01"},{"city":"Ha\u010dava","zip":"044 02"},{"city":"Hado\u0161e","zip":"018 02"},{"city":"Hadu\u0161ovce","zip":"053 13"},{"city":"Hadviga","zip":"038 22"},{"city":"H\u00e1gy","zip":"059 04"},{"city":"H\u00e1j","zip":"039 01"},{"city":"H\u00e1j","zip":"044 02"},{"city":"H\u00e1jiky - Maky","zip":"987 01"},{"city":"Hajn\u00e1 Nov\u00e1 Ves","zip":"956 03"},{"city":"Hajn\u00e1\u010dka","zip":"980 33"},{"city":"H\u00e1jniky","zip":"962 31"},{"city":"H\u00e1jske","zip":"951 33"},{"city":"Hajtovka","zip":"065 45"},{"city":"Hal\u00e1\u010dovce","zip":"956 55"},{"city":"Hali\u010d","zip":"985 11"},{"city":"Hali\u010d","zip":"984 01"},{"city":"Haligovce","zip":"065 34"},{"city":"Haluzice","zip":"913 07"},{"city":"H\u00e1mor","zip":"976 66"},{"city":"H\u00e1mre","zip":"053 33"},{"city":"H\u00e1mre","zip":"913 21"},{"city":"H\u00e1mre - Doln\u00e9 H\u00e1mre","zip":"966 61"},{"city":"H\u00e1mre - Horn\u00e9 H\u00e1mre","zip":"966 71"},{"city":"Hamuliakovo","zip":"900 43"},{"city":"Handlov\u00e1","zip":"972 51"},{"city":"Hanigovce","zip":"082 56"},{"city":"Haniska","zip":"044 57"},{"city":"Haniska","zip":"080 01"},{"city":"Hankov\u00e1","zip":"049 34"},{"city":"Hankovce","zip":"086 46"},{"city":"Hankovce","zip":"067 12"},{"city":"Hanu\u0161ovce nad Top\u013eou","zip":"094 31"},{"city":"Harakovce","zip":"053 05"},{"city":"Harhaj","zip":"086 45"},{"city":"Harichovce","zip":"053 01"},{"city":"Harmanec","zip":"976 03"},{"city":"Harm\u00f3nia","zip":"900 01"},{"city":"Harvelka","zip":"023 05"},{"city":"Hatalov","zip":"072 16"},{"city":"Hatn\u00e9","zip":"018 02"},{"city":"Havaj","zip":"090 23"},{"city":"Havka","zip":"061 01"},{"city":"Havran","zip":"906 04"},{"city":"Havranec","zip":"090 02"},{"city":"Havrania","zip":"027 05"},{"city":"Havrania Dolina","zip":"053 76"},{"city":"Ha\u017e\u00edn","zip":"072 34"},{"city":"Ha\u017e\u00edn nad Cirochou","zip":"067 83"},{"city":"Ha\u017el\u00edn","zip":"086 14"},{"city":"He\u010fbene\u00e9te","zip":"929 01"},{"city":"Helcmanovce","zip":"055 63"},{"city":"He\u013epa","zip":"976 68"},{"city":"Henckovce","zip":"049 23"},{"city":"Henclov\u00e1","zip":"053 33"},{"city":"Hencovce","zip":"093 02"},{"city":"Hendrichovce","zip":"082 35"},{"city":"Her\u013eany","zip":"044 45"},{"city":"Herman","zip":"985 53"},{"city":"Hermanovce","zip":"082 35"},{"city":"Hermanovce n\/ Top\u013eou","zip":"094 34"},{"city":"Hertn\u00edk","zip":"086 42"},{"city":"Hervartov","zip":"086 22"},{"city":"Hetm\u00e9\u0148","zip":"927 01"},{"city":"Hiade\u013e","zip":"976 61"},{"city":"Hincovce","zip":"053 63"},{"city":"Hladovka","zip":"027 13"},{"city":"Hlavice","zip":"023 22"},{"city":"Hlbok\u00e9","zip":"018 03"},{"city":"Hlbok\u00e9","zip":"906 31"},{"city":"Hlbok\u00e9 nad V\u00e1hom","zip":"014 01"},{"city":"Hlinen\u00e9","zip":"023 54"},{"city":"Hlin\u00edk","zip":"945 01"},{"city":"Hlin\u00edk","zip":"032 23"},{"city":"Hlin\u00edk nad Hronom","zip":"966 01"},{"city":"Hlin\u00edk nad V\u00e1hom","zip":"014 01"},{"city":"Hlinn\u00e9","zip":"094 35"},{"city":"Hlivi\u0161tia","zip":"073 01"},{"city":"Hlohovec","zip":"920 01"},{"city":"Hlohovec","zip":"920 03"},{"city":"Hlo\u017ea","zip":"018 61"},{"city":"Hniezdne","zip":"065 01"},{"city":"Hnil\u010d\u00edk","zip":"053 32"},{"city":"Hnilec","zip":"053 75"},{"city":"Hnojn\u00e9","zip":"072 33"},{"city":"Hn\u00fa\u0161\u0165a","zip":"981 01"},{"city":"Hodejov","zip":"980 31"},{"city":"Hodejovec","zip":"980 02"},{"city":"Hodkovce","zip":"053 61"},{"city":"Hodkovce","zip":"044 21"},{"city":"Hodru\u0161a - H\u00e1mre","zip":"966 61"},{"city":"Hodulov Vrch","zip":"916 14"},{"city":"Hokovce","zip":"935 84"},{"city":"Holanovo","zip":"947 01"},{"city":"Hol\u010d\u00edkovce","zip":"094 05"},{"city":"Holiare","zip":"946 16"},{"city":"Holice","zip":"930 34"},{"city":"Hol\u00ed\u010d","zip":"908 51"},{"city":"Holi\u0161a","zip":"985 57"},{"city":"Holotka","zip":"951 42"},{"city":"Holumnica","zip":"059 94"},{"city":"Honce","zip":"049 32"},{"city":"Hontianska Vrbica","zip":"935 55"},{"city":"Hontianske Moravce","zip":"962 71"},{"city":"Hontianske Nemce","zip":"962 65"},{"city":"Hontianske Tes\u00e1re","zip":"962 68"},{"city":"Hontianske Trs\u0165any","zip":"935 86"},{"city":"Horenick\u00e1 H\u00f4rka","zip":"020 61"},{"city":"Hor\u0148a","zip":"073 01"},{"city":"Horn\u00e1 Breznica","zip":"020 61"},{"city":"Horn\u00e1 Dolina","zip":"906 05"},{"city":"Horn\u00e1 Hri\u0148ov\u00e1","zip":"962 05"},{"city":"Horn\u00e1 Kr\u00e1\u013eov\u00e1","zip":"951 32"},{"city":"Horn\u00e1 Krup\u00e1","zip":"919 65"},{"city":"Horn\u00e1 Lehota","zip":"976 81"},{"city":"Horn\u00e1 Lehota","zip":"027 41"},{"city":"Horn\u00e1 Marikov\u00e1","zip":"018 03"},{"city":"Horn\u00e1 Mi\u010din\u00e1","zip":"974 01"},{"city":"Horn\u00e1 M\u00f4l\u010da","zip":"974 01"},{"city":"Horn\u00e1 Poruba","zip":"018 35"},{"city":"Horn\u00e1 Pot\u00f4\u0148","zip":"930 36"},{"city":"Horn\u00e1 Pot\u00f4\u0148 - L\u00faky","zip":"930 52"},{"city":"Horn\u00e1 Se\u010d","zip":"935 31"},{"city":"Horn\u00e1 Streda","zip":"916 24"},{"city":"Horn\u00e1 Strehov\u00e1","zip":"991 02"},{"city":"Horn\u00e1 S\u00fa\u010da","zip":"913 33"},{"city":"Horn\u00e1 \u0160tub\u0148a","zip":"038 46"},{"city":"Horn\u00e1 Ti\u017eina","zip":"013 06"},{"city":"Horn\u00e1 Trn\u00e1vka","zip":"966 01"},{"city":"Horn\u00e1 Ves","zip":"972 48"},{"city":"Horn\u00e1 Ves","zip":"967 01"},{"city":"Horn\u00e1 Z\u00e1vrsk\u00e1","zip":"913 33"},{"city":"Horn\u00e1 Zlatn\u00e1","zip":"946 12"},{"city":"Horn\u00e1 \u017dda\u0148a","zip":"966 04"},{"city":"Hor\u0148any","zip":"913 24"},{"city":"Horn\u00e9 Breziny","zip":"962 61"},{"city":"Horn\u00e9 Dr\u017ekovce","zip":"956 54"},{"city":"Horn\u00e9 Dubov\u00e9","zip":"919 65"},{"city":"Horn\u00e9 H\u00e1mre","zip":"966 71"},{"city":"Horn\u00e9 Chlebany","zip":"956 31"},{"city":"Horn\u00e9 Jan\u00edky","zip":"930 39"},{"city":"Horn\u00e9 Jaseno","zip":"038 02"},{"city":"Horn\u00e9 Ko\u010dkovce","zip":"020 01"},{"city":"Horn\u00e9 Ko\u0161arisk\u00e1","zip":"906 15"},{"city":"Horn\u00e9 Lefantovce","zip":"951 45"},{"city":"Horn\u00e9 Lelovce","zip":"972 71"},{"city":"Horn\u00e9 Lov\u010dice","zip":"919 27"},{"city":"Horn\u00e9 Mladonice","zip":"962 43"},{"city":"Horn\u00e9 Mote\u0161ice","zip":"913 26"},{"city":"Horn\u00e9 M\u00fdto","zip":"930 13"},{"city":"Horn\u00e9 Na\u0161tice","zip":"956 41"},{"city":"Horn\u00e9 Obdokovce","zip":"956 08"},{"city":"Horn\u00e9 Ore\u0161any","zip":"919 03"},{"city":"Horn\u00e9 Otrokovce","zip":"920 62"},{"city":"Horn\u00e9 Ozorovce","zip":"957 03"},{"city":"Horn\u00e9 Plachtince","zip":"991 24"},{"city":"Horn\u00e9 Pr\u00edbelce","zip":"991 25"},{"city":"Horn\u00e9 Pr\u0161any","zip":"974 05"},{"city":"Horn\u00e9 Rykyn\u010dice","zip":"962 55"},{"city":"Horn\u00e9 Saliby","zip":"925 03"},{"city":"Horn\u00e9 Saliby-Hru\u0161ov","zip":"925 02"},{"city":"Horn\u00e9 Semerovce","zip":"935 84"},{"city":"Horn\u00e9 S\u013ea\u017eany","zip":"951 71"},{"city":"Horn\u00e9 Srnie","zip":"914 42"},{"city":"Horn\u00e9 Strh\u00e1re","zip":"991 03"},{"city":"Horn\u00e9 \u0160tit\u00e1re","zip":"956 03"},{"city":"Horn\u00e9 Trhovi\u0161te","zip":"920 66"},{"city":"Horn\u00e9 Turovce","zip":"935 81"},{"city":"Horn\u00e9 Vestenice","zip":"972 22"},{"city":"Horn\u00e9 Zahorany","zip":"980 26"},{"city":"Horn\u00e9 Zelenice","zip":"920 52"},{"city":"Horn\u00fd Bad\u00edn","zip":"962 51"},{"city":"Horn\u00fd Bar","zip":"930 33"},{"city":"Horn\u00fd \u010cepe\u0148","zip":"926 01"},{"city":"Horn\u00fd \u010eur","zip":"935 34"},{"city":"Horn\u00fd Hri\u010dov","zip":"013 42"},{"city":"Horn\u00fd Jal\u0161ov\u00edk","zip":"962 41"},{"city":"Horn\u00fd Jatov","zip":"925 71"},{"city":"Horn\u00fd Jelenec","zip":"976 02"},{"city":"Horn\u00fd Kaln\u00edk","zip":"038 02"},{"city":"Horn\u00fd Lieskov","zip":"018 21"},{"city":"Horn\u00fd Ohaj","zip":"952 01"},{"city":"Horn\u00fd Pial","zip":"935 37"},{"city":"Horn\u00fd \u0160tefanov","zip":"027 44"},{"city":"Horn\u00fd Tisovn\u00edk","zip":"962 75"},{"city":"Horn\u00fd Tur\u010dek","zip":"038 48"},{"city":"Horn\u00fd Vadi\u010dov","zip":"023 45"},{"city":"Horn\u00fd Vinodol","zip":"951 06"},{"city":"Horovce","zip":"020 62"},{"city":"Horovce","zip":"072 02"},{"city":"Hor\u0161a","zip":"934 01"},{"city":"Hoste","zip":"925 45"},{"city":"Hostice","zip":"980 04"},{"city":"Hostie","zip":"951 94"},{"city":"Hosti\u0161ovce","zip":"980 23"},{"city":"Hos\u0165ov\u00e1","zip":"951 02"},{"city":"Hos\u0165ovce","zip":"951 91"},{"city":"Hos\u0165ovce","zip":"044 02"},{"city":"Hostovice","zip":"067 35"},{"city":"Ho\u0161tin\u00e1","zip":"020 01"},{"city":"Hozelec","zip":"059 11"},{"city":"H\u00f4rka","zip":"059 12"},{"city":"H\u00f4rka nad V\u00e1hom","zip":"916 32"},{"city":"H\u00f4rky","zip":"010 04"},{"city":"Hrabi\u010dov","zip":"966 78"},{"city":"Hrabkov","zip":"082 33"},{"city":"Hrabov\u00e1 Roztoka","zip":"067 73"},{"city":"Hrabov\u010d\u00edk","zip":"089 01"},{"city":"Hrabov\u00e9","zip":"014 01"},{"city":"Hrabovec","zip":"086 11"},{"city":"Hrabovec n\/ Laborcom","zip":"067 01"},{"city":"Hrabovka","zip":"020 01"},{"city":"Hrabovka","zip":"913 32"},{"city":"Hrabovo","zip":"985 01"},{"city":"Hrabsk\u00e9","zip":"086 06"},{"city":"Hrabu\u0161ice","zip":"053 15"},{"city":"Hradisko","zip":"090 42"},{"city":"Hradisko","zip":"082 67"},{"city":"Hradisko","zip":"059 71"},{"city":"Hradi\u0161te","zip":"958 54"},{"city":"Hradi\u0161te","zip":"985 25"},{"city":"Hradi\u0161te pod Vr\u00e1tnom","zip":"906 12"},{"city":"Hradi\u0161tsk\u00e1 Mo\u013eva","zip":"072 06"},{"city":"Hradn\u00e1","zip":"013 52"},{"city":"Hr\u00e1dok","zip":"916 33"},{"city":"Hrachovi\u0161te","zip":"916 16"},{"city":"Hrachovo","zip":"980 52"},{"city":"Hra\u0148","zip":"076 03"},{"city":"Hrani\u010dn\u00e9","zip":"065 22"},{"city":"Hranovnica","zip":"059 16"},{"city":"Hra\u0161n\u00e9","zip":"916 14"},{"city":"Hra\u0161ov\u00edk","zip":"044 42"},{"city":"Hr\u010de\u013e","zip":"076 15"},{"city":"Hrhov","zip":"049 44"},{"city":"Hriadky","zip":"076 22"},{"city":"Hri\u010dovsk\u00e9 Podhradie","zip":"013 41"},{"city":"Hri\u0148ov\u00e1","zip":"962 05"},{"city":"Hri\u0161ovce","zip":"053 51"},{"city":"Hrk\u00e1\u010d","zip":"982 62"},{"city":"Hrkovce","zip":"936 01"},{"city":"Hrlica","zip":"982 66"},{"city":"Hrn\u010diarky","zip":"985 22"},{"city":"Hrn\u010diarovce n\/Parnou","zip":"919 35"},{"city":"Hrn\u010diarov\u00e9","zip":"916 12"},{"city":"Hrn\u010diarska Ves","zip":"980 13"},{"city":"Hrn\u010diarske Zalu\u017eany","zip":"980 12"},{"city":"Hrocho\u0165","zip":"976 37"},{"city":"Hromo\u0161","zip":"065 45"},{"city":"Hronec","zip":"976 45"},{"city":"Hronovce","zip":"935 61"},{"city":"Hronsek","zip":"976 31"},{"city":"Hronsk\u00e1 Breznica","zip":"966 11"},{"city":"Hronsk\u00e1 D\u00fabrava","zip":"966 11"},{"city":"Hronsk\u00e9 K\u013ea\u010dany","zip":"935 29"},{"city":"Hronsk\u00e9 K\u013ea\u010dany","zip":"934 01"},{"city":"Hronsk\u00e9 Kosihy","zip":"935 27"},{"city":"Hronsk\u00fd Be\u0148adik","zip":"966 53"},{"city":"Hrub\u00e1 Bor\u0161a","zip":"925 23"},{"city":"Hrub\u00e1 Strana","zip":"916 11"},{"city":"Hrubo\u0148ovo","zip":"951 25"},{"city":"Hrubov","zip":"067 23"},{"city":"Hrub\u00fd Buk","zip":"023 52"},{"city":"Hrub\u00fd \u0160\u00far","zip":"903 01"},{"city":"Hru\u0161ov","zip":"076 37"},{"city":"Hru\u0161ov","zip":"991 42"},{"city":"Hru\u0161ov","zip":"049 43"},{"city":"Hru\u0161ovany","zip":"956 13"},{"city":"Hru\u0161ov\u00e9","zip":"916 11"},{"city":"Hru\u0161ovo","zip":"980 25"},{"city":"Hru\u0161t\u00edn","zip":"029 52"},{"city":"Hubice","zip":"930 39"},{"city":"Hubina","zip":"922 21"},{"city":"Hubo\u0161ovce","zip":"082 66"},{"city":"Hubov\u00e1","zip":"034 91"},{"city":"Hubovo","zip":"980 50"},{"city":"Huc\u00edn","zip":"049 13"},{"city":"Hudcovce","zip":"067 45"},{"city":"Hul","zip":"941 44"},{"city":"Humenn\u00e9","zip":"066 01"},{"city":"Huncovce","zip":"059 92"},{"city":"Hunkovce","zip":"076 62"},{"city":"Hunkovce","zip":"090 03"},{"city":"Hurbanova Dolina","zip":"906 13"},{"city":"Hurbanova Ves","zip":"903 01"},{"city":"Hurbanovce","zip":"941 50"},{"city":"Hurbanovo","zip":"947 01"},{"city":"Hurbanovo","zip":"947 03"},{"city":"Hurbanovo","zip":"946 54"},{"city":"Hus\u00e1k","zip":"072 51"},{"city":"Husin\u00e1","zip":"985 42"},{"city":"Hutka","zip":"086 36"},{"city":"Huty","zip":"027 32"},{"city":"Hviezdoslavov","zip":"930 41"},{"city":"Hvozdnica","zip":"013 56"},{"city":"Hybe","zip":"032 31"},{"city":"H\u00fd\u013eov","zip":"044 12"},{"city":"Chalmov\u00e1","zip":"972 45"},{"city":"Chanava","zip":"980 44"},{"city":"Ch\u013eaba","zip":"943 65"},{"city":"Chladn\u00e1 Stud\u0148a","zip":"985 26"},{"city":"Chlebnice","zip":"027 55"},{"city":"Chlmec","zip":"067 41"},{"city":"Chme\u013enica","zip":"064 01"},{"city":"Chme\u013eov","zip":"082 15"},{"city":"Chme\u013eov\u00e1","zip":"086 33"},{"city":"Chme\u013eovec","zip":"082 12"},{"city":"Chmi\u0148any","zip":"082 33"},{"city":"Chminianska Nov\u00e1 Ves","zip":"082 33"},{"city":"Chminian. Jakubovany","zip":"082 33"},{"city":"Cho\u010da","zip":"951 76"},{"city":"Chocholn\u00e1","zip":"913 04"},{"city":"Cho\u0148kovce","zip":"072 63"},{"city":"Chorvatice","zip":"935 84"},{"city":"Chorv\u00e1tsky Grob","zip":"900 25"},{"city":"Chorv\u00e1ty","zip":"044 02"},{"city":"Chot\u00e1r","zip":"968 01"},{"city":"Chot\u010da","zip":"090 21"},{"city":"Chot\u00edn","zip":"946 31"},{"city":"Chrabrany","zip":"955 01"},{"city":"Chr\u00e1mec","zip":"980 42"},{"city":"Chras\u0165","zip":"946 54"},{"city":"Chras\u0165 nad Horn\u00e1dom","zip":"053 63"},{"city":"Chrastince","zip":"991 08"},{"city":"Chrastn\u00e9","zip":"044 44"},{"city":"Chra\u0161\u0165any","zip":"951 75"},{"city":"Chrenovec - Brusno","zip":"972 32"},{"city":"Chropov","zip":"908 64"},{"city":"Chr\u0165any","zip":"991 21"},{"city":"Chtelnica","zip":"922 05"},{"city":"Chud\u00e1 Lehota","zip":"956 38"},{"city":"Chvalov\u00e1","zip":"982 62"},{"city":"Chvatimech","zip":"976 81"},{"city":"Chvojnica","zip":"972 13"},{"city":"Chvojnica","zip":"906 06"},{"city":"Chym","zip":"044 74"},{"city":"Chynorany","zip":"956 33"},{"city":"Chy\u017en\u00e9","zip":"049 18"},{"city":"Igram","zip":"900 84"},{"city":"Ih\u013eany","zip":"059 94"},{"city":"Ihr\u00e1\u010d","zip":"967 01"},{"city":"Ihri\u0161te","zip":"020 01"},{"city":"Ilava","zip":"019 01"},{"city":"Ilia\u0161ov","zip":"991 07"},{"city":"Ilia\u0161ovce","zip":"053 11"},{"city":"Iliavka","zip":"019 01"},{"city":"Ilija","zip":"969 01"},{"city":"Ime\u013e","zip":"946 52"},{"city":"Imrov Kopec","zip":"991 21"},{"city":"I\u0148a","zip":"935 35"},{"city":"I\u0148a\u010dovce","zip":"072 11"},{"city":"Inovce","zip":"072 64"},{"city":"Ipe\u013e","zip":"985 26"},{"city":"Ipe\u013eka","zip":"985 41"},{"city":"Ipe\u013esk\u00e9 Predmostie","zip":"991 10"},{"city":"Ipe\u013esk\u00e9 \u00da\u013eany","zip":"935 82"},{"city":"Ipe\u013esk\u00fd Sokolec","zip":"935 75"},{"city":"Istebn\u00e9","zip":"027 53"},{"city":"Ivachnov\u00e1","zip":"034 83"},{"city":"Ivan\u010din\u00e1","zip":"038 45"},{"city":"Ivanice","zip":"980 42"},{"city":"Ivani\u0161ovo","zip":"985 51"},{"city":"Ivanka pri Dunaji","zip":"900 28"},{"city":"Ivanka pri Nitre","zip":"951 12"},{"city":"Ivanovce","zip":"913 05"},{"city":"Iviny","zip":"962 12"},{"city":"I\u017ea","zip":"946 39"},{"city":"I\u017eipovce","zip":"032 23"},{"city":"I\u017ekovce","zip":"076 72"},{"city":"I\u017eop","zip":"932 01"},{"city":"Jablo\u0148","zip":"067 13"},{"city":"Jablonec","zip":"900 86"},{"city":"Jablonica","zip":"906 32"},{"city":"Jablonka","zip":"906 21"},{"city":"Jablonov","zip":"053 03"},{"city":"Jablonov nad Tur\u0148ou","zip":"049 43"},{"city":"Jablo\u0148ovce","zip":"935 06"},{"city":"Jablonov\u00e9","zip":"900 54"},{"city":"Jablonov\u00e9","zip":"013 52"},{"city":"Jabrikov\u00e1","zip":"976 34"},{"city":"Jacovce","zip":"956 21"},{"city":"Jahodn\u00e1","zip":"930 21"},{"city":"Jaklovce","zip":"055 61"},{"city":"Jakovany","zip":"083 01"},{"city":"Jakubany","zip":"065 12"},{"city":"Jakubov","zip":"900 63"},{"city":"Jakubova Vo\u013ea","zip":"082 56"},{"city":"Jakubovany","zip":"032 04"},{"city":"Jakubovany","zip":"083 01"},{"city":"Jaku\u0161ovce","zip":"090 31"},{"city":"Jalak\u0161ov\u00e1","zip":"935 03"},{"city":"Jaln\u00e1","zip":"966 11"},{"city":"Jalov\u00e1","zip":"067 61"},{"city":"Jalovec","zip":"032 21"},{"city":"Jalovec","zip":"972 31"},{"city":"Jal\u0161ov\u00e9","zip":"922 31"},{"city":"Jal\u0161ov\u00edk","zip":"962 41"},{"city":"Jamn\u00edk","zip":"033 01"},{"city":"Jamn\u00edk","zip":"053 22"},{"city":"Janice","zip":"980 42"},{"city":"Jan\u00edk","zip":"044 05"},{"city":"Jan\u00edky","zip":"930 39"},{"city":"Jankovce","zip":"067 24"},{"city":"J\u00e1no\u0161\u00edkov\u00e1","zip":"900 42"},{"city":"J\u00e1no\u0161\u00edkovo na Ostrov","zip":"930 10"},{"city":"J\u00e1no\u0161ovka","zip":"976 52"},{"city":"Janov","zip":"082 42"},{"city":"Janova Lehota","zip":"966 24"},{"city":"Janova Ves","zip":"958 44"},{"city":"Janovce","zip":"086 41"},{"city":"J\u00e1novce","zip":"059 13"},{"city":"J\u00e1novce","zip":"925 22"},{"city":"Janov\u00edk","zip":"082 03"},{"city":"Jarab\u00e1","zip":"977 01"},{"city":"Jarabina","zip":"065 31"},{"city":"Jarn\u00e1","zip":"919 43"},{"city":"Jarok","zip":"937 01"},{"city":"Jarok","zip":"951 48"},{"city":"Jarovnice","zip":"082 63"},{"city":"Jasenica","zip":"018 17"},{"city":"Jasenie","zip":"976 75"},{"city":"Jasenov","zip":"066 01"},{"city":"Jasenov","zip":"072 42"},{"city":"Jasenov\u00e1","zip":"026 01"},{"city":"Jasenovce","zip":"094 05"},{"city":"Jasenov\u00e9","zip":"013 19"},{"city":"Jasenovo","zip":"962 05"},{"city":"Jasenovo","zip":"038 22"},{"city":"Jasenovsk\u00e1","zip":"029 57"},{"city":"Jaslovce","zip":"919 30"},{"city":"Jaslovsk\u00e9 Bohunice","zip":"919 30"},{"city":"Jas.Bohunice-At.el.","zip":"919 31"},{"city":"Jasov","zip":"044 23"},{"city":"Jasov\u00e1","zip":"941 34"},{"city":"Jastrab\u00e1","zip":"967 01"},{"city":"Jastrabie Kra\u010dany","zip":"930 03"},{"city":"Jastrabie nad Top\u013eou","zip":"094 35"},{"city":"Jastrabie pri Michal","zip":"072 11"},{"city":"Ja\u0161ov Vrch","zip":"962 25"},{"city":"Jatov","zip":"941 10"},{"city":"Javorec","zip":"906 05"},{"city":"Javorina","zip":"976 53"},{"city":"Javorina","zip":"059 56"},{"city":"Javorinka","zip":"925 01"},{"city":"Javorov\u00e1","zip":"023 22"},{"city":"Jazernica","zip":"038 44"},{"city":"Jazviny","zip":"916 01"},{"city":"Jedlinka","zip":"086 36"},{"city":"Jed\u013eov\u00e9 Kosto\u013eany","zip":"951 96"},{"city":"Jed\u013eovn\u00edk","zip":"023 55"},{"city":"Jelenec","zip":"951 73"},{"city":"Jelka","zip":"925 23"},{"city":"Jel\u0161ava","zip":"049 16"},{"city":"Jel\u0161avsk\u00e1 Teplica","zip":"049 16"},{"city":"Jel\u0161ovce","zip":"951 43"},{"city":"Jel\u0161ovec","zip":"985 32"},{"city":"Jenkovce","zip":"072 52"},{"city":"Jergaly","zip":"976 02"},{"city":"Jesensk\u00e9","zip":"935 36"},{"city":"Jesensk\u00e9","zip":"980 02"},{"city":"Jestice","zip":"980 04"},{"city":"Je\u0161kova Ves","zip":"958 45"},{"city":"Je\u0161kova Ves n\/N.","zip":"972 25"},{"city":"Jezersko","zip":"059 04"},{"city":"Jovice","zip":"049 45"},{"city":"Jovsa","zip":"072 32"},{"city":"Jur nad Hronom","zip":"935 57"},{"city":"Jurkova Vo\u013ea","zip":"089 01"},{"city":"Jurov\u00e1","zip":"930 04"},{"city":"Jursk\u00e9","zip":"059 94"},{"city":"Jursk\u00fd Chlm","zip":"943 52"},{"city":"Juskova Vo\u013ea","zip":"094 12"},{"city":"Ka\u010danov","zip":"072 05"},{"city":"Ka\u010de","zip":"065 22"},{"city":"Kajal","zip":"925 92"},{"city":"Ka\u013eamenov\u00e1","zip":"038 22"},{"city":"Kalameny","zip":"034 82"},{"city":"Ka\u013eava","zip":"053 42"},{"city":"Kalin\u010diakovo","zip":"934 01"},{"city":"Kalinka","zip":"962 25"},{"city":"Kalinkovo","zip":"900 43"},{"city":"Kalinov","zip":"023 02"},{"city":"Kalinov","zip":"068 01"},{"city":"Kalinovo","zip":"985 01"},{"city":"Kaln\u00e1","zip":"935 32"},{"city":"Kaln\u00e1 nad Hronom","zip":"935 32"},{"city":"Kaln\u00e1 Roztoka","zip":"067 72"},{"city":"Kalnica","zip":"935 32"},{"city":"K\u00e1lnica","zip":"916 37"},{"city":"Kalni\u0161te","zip":"087 01"},{"city":"Kalonda","zip":"985 31"},{"city":"Kalo\u0161a","zip":"982 52"},{"city":"Kal\u0161a","zip":"044 18"},{"city":"Kalu\u017ea","zip":"072 36"},{"city":"Kamanov\u00e1","zip":"956 12"},{"city":"Kame\u0148any","zip":"049 62"},{"city":"Kamenec","zip":"934 01"},{"city":"Kamenec pod Vt\u00e1\u010d.","zip":"972 44"},{"city":"Kamenica","zip":"082 71"},{"city":"Kamenica n\/Cirochou","zip":"067 83"},{"city":"Kamenica nad Hronom","zip":"943 65"},{"city":"Kameni\u010dany","zip":"018 54"},{"city":"Kameni\u010dn\u00e1","zip":"946 01"},{"city":"Kamen\u00edn","zip":"943 57"},{"city":"Kamenn\u00e1 Poruba","zip":"013 14"},{"city":"Kamenn\u00e1 Poruba","zip":"093 03"},{"city":"Kamenn\u00e9 Kosihy","zip":"991 27"},{"city":"Kamenn\u00fd Chot\u00e1r","zip":"935 02"},{"city":"Kamenn\u00fd Most","zip":"943 58"},{"city":"Kamenn\u00fd Vrch","zip":"992 01"},{"city":"Kamienka","zip":"067 83"},{"city":"Kamienka","zip":"065 32"},{"city":"Kana\u0161","zip":"082 21"},{"city":"Kanianka","zip":"972 17"},{"city":"Kapince","zip":"951 24"},{"city":"Kapi\u0161ov\u00e1","zip":"090 01"},{"city":"Kaplna","zip":"900 84"},{"city":"Kapo\u0148a","zip":"076 84"},{"city":"Kapu\u0161any","zip":"082 12"},{"city":"Kapu\u0161ianske K\u013ea\u010dany","zip":"079 01"},{"city":"Kapu\u0161ianske Vojkovce","zip":"079 01"},{"city":"Kardo\u0161ova Vieska","zip":"018 16"},{"city":"Karlov Dvor","zip":"076 33"},{"city":"Karlov\u00e1","zip":"038 15"},{"city":"Karn\u00e1","zip":"067 45"},{"city":"Karol\u00edna","zip":"937 01"},{"city":"Ka\u0161ov","zip":"076 02"},{"city":"Ka\u0161ova Leh\u00f4tka","zip":"962 34"},{"city":"Katar\u00ednska Huta","zip":"985 22"},{"city":"K\u00e1tlina","zip":"018 02"},{"city":"K\u00e1tlovce","zip":"919 55"},{"city":"K\u00e1tov","zip":"908 49"},{"city":"Kat\u00fa\u0148","zip":"053 04"},{"city":"Kazim\u00edr","zip":"076 13"},{"city":"Keblov - Z\u00e1rie\u010d","zip":"013 32"},{"city":"Kecerovce","zip":"044 47"},{"city":"Kecerovsk\u00e9 Kosto\u013eany","zip":"044 47"},{"city":"Kecerovsk\u00e9 Pek\u013eany","zip":"044 47"},{"city":"Kecerovsk\u00fd Lipovec","zip":"044 47"},{"city":"K\u00e9\u010d","zip":"946 19"},{"city":"Ke\u010dkovce","zip":"090 11"},{"city":"Ke\u010dovo","zip":"049 55"},{"city":"Kechnec","zip":"044 58"},{"city":"Kendere\u0161","zip":"941 10"},{"city":"Kendice","zip":"082 01"},{"city":"Kesovce","zip":"980 45"},{"city":"Ke\u0165","zip":"935 64"},{"city":"Kevice","zip":"038 45"},{"city":"Ke\u017emarok","zip":"060 01"},{"city":"Kiarov","zip":"991 06"},{"city":"Kin\u010de\u0161","zip":"076 62"},{"city":"K\u00edr\u0165","zip":"991 22"},{"city":"Ki\u0161ovce","zip":"059 12"},{"city":"K\u013ea\u010dany","zip":"966 11"},{"city":"K\u013ea\u010dany","zip":"956 02"},{"city":"K\u013ea\u010dany","zip":"920 64"},{"city":"K\u013ea\u010de","zip":"013 19"},{"city":"K\u013ea\u010dno","zip":"972 15"},{"city":"K\u013ea\u010dno","zip":"034 01"},{"city":"Kladzany","zip":"094 21"},{"city":"K\u013eak","zip":"966 77"},{"city":"Klasov","zip":"951 53"},{"city":"Klastava","zip":"969 01"},{"city":"Kl\u00e1\u0161tor pod Znievom","zip":"038 43"},{"city":"Kl\u00e1tova Nov\u00e1 Ves","zip":"958 44"},{"city":"Kl\u010dov","zip":"053 02"},{"city":"Kl\u010dovany","zip":"919 08"},{"city":"Kle\u0148any","zip":"991 10"},{"city":"Klenov","zip":"082 44"},{"city":"Klenov\u00e1","zip":"067 72"},{"city":"Klenovec","zip":"980 55"},{"city":"Klie\u0161tina","zip":"018 02"},{"city":"Klin","zip":"023 22"},{"city":"Klin","zip":"029 41"},{"city":"Klin nad Bodrogom","zip":"076 31"},{"city":"Kl\u00ed\u017e","zip":"958 45"},{"city":"Kl\u00ed\u017eska Nem\u00e1","zip":"946 19"},{"city":"Kl\u00ed\u017eske Hradi\u0161te","zip":"958 45"},{"city":"Klobu\u0161ice","zip":"019 01"},{"city":"Kloko\u010d","zip":"962 25"},{"city":"Kloko\u010dov","zip":"023 22"},{"city":"Kloko\u010dov","zip":"072 36"},{"city":"Klubina","zip":"023 04"},{"city":"K\u013eu\u010diare\u0148","zip":"925 71"},{"city":"K\u013e\u00fa\u010diarove Kra\u010dany","zip":"930 03"},{"city":"K\u013e\u00fa\u010dov\u00e9","zip":"914 41"},{"city":"K\u013e\u00fa\u010dovec","zip":"930 07"},{"city":"Kluknava","zip":"053 51"},{"city":"K\u013eu\u0161ov","zip":"086 22"},{"city":"K\u013eu\u0161ovsk\u00e1 Z\u00e1bava","zip":"086 22"},{"city":"Kme\u0165ovce","zip":"935 03"},{"city":"Kme\u0165ovo","zip":"941 62"},{"city":"K\u0148a\u017eia","zip":"026 01"},{"city":"Kobeliarovo","zip":"049 23"},{"city":"Kobylnice","zip":"087 01"},{"city":"Kobyly","zip":"086 22"},{"city":"Koce\u013eovce","zip":"049 35"},{"city":"Kociha","zip":"980 52"},{"city":"Kocurany","zip":"972 02"},{"city":"Kocurice","zip":"921 01"},{"city":"Ko\u010d\u00edn","zip":"922 04"},{"city":"Ko\u010dovce","zip":"916 31"},{"city":"Kochanovce","zip":"913 05"},{"city":"Kochanovce","zip":"086 46"},{"city":"Kochanovce","zip":"066 01"},{"city":"Kochn\u00e1\u010d","zip":"956 54"},{"city":"Kojatice","zip":"082 32"},{"city":"Kojatick\u00e1 Dolina","zip":"082 32"},{"city":"Koj\u0161ov","zip":"055 52"},{"city":"Kokava nad Rimavicou","zip":"985 05"},{"city":"Koko\u0161ovce","zip":"082 52"},{"city":"Kok\u0161ov - Bak\u0161a","zip":"044 13"},{"city":"Kola\u010dkov","zip":"065 11"},{"city":"Kola\u010dno","zip":"958 41"},{"city":"Kol\u00e1re","zip":"991 09"},{"city":"Kol\u00e1rovice","zip":"013 54"},{"city":"Kol\u00e1rovo","zip":"946 03"},{"city":"Kolbasov","zip":"067 66"},{"city":"Kolbovce","zip":"090 31"},{"city":"Kolibabovce","zip":"072 61"},{"city":"Kol\u00ed\u0148any","zip":"951 78"},{"city":"Kolinovce","zip":"053 42"},{"city":"Kol\u00f3nia","zip":"943 56"},{"city":"Kol\u00f3nia","zip":"929 01"},{"city":"Kol\u00f3nia","zip":"930 35"},{"city":"Kol\u00f3nia","zip":"076 42"},{"city":"Kolonica","zip":"067 61"},{"city":"Kolta","zip":"941 33"},{"city":"Komanica","zip":"072 15"},{"city":"Kom\u00e1rany","zip":"093 01"},{"city":"Kom\u00e1rno","zip":"962 05"},{"city":"Kom\u00e1rno","zip":"945 01"},{"city":"Kom\u00e1rno","zip":"945 04"},{"city":"Kom\u00e1rno","zip":"945 05"},{"city":"Kom\u00e1rov","zip":"086 11"},{"city":"Kom\u00e1rovce","zip":"073 01"},{"city":"Kom\u00e1rovce","zip":"044 55"},{"city":"Komjatice","zip":"941 06"},{"city":"Komjatn\u00e1","zip":"034 96"},{"city":"Komo\u010da","zip":"941 21"},{"city":"Komov","zip":"976 52"},{"city":"Kon\u010dit\u00e1","zip":"027 05"},{"city":"Koniarovce","zip":"956 13"},{"city":"Konko\u013e","zip":"947 01"},{"city":"Konr\u00e1dovce","zip":"980 32"},{"city":"Konsk\u00e1","zip":"032 04"},{"city":"Konsk\u00e1","zip":"013 13"},{"city":"Konsk\u00e9","zip":"038 52"},{"city":"Ko\u0148u\u0161","zip":"072 63"},{"city":"Kopanice","zip":"966 61"},{"city":"Kopanice","zip":"023 56"},{"city":"Kop\u010dany","zip":"908 48"},{"city":"Kopec","zip":"018 31"},{"city":"Kopernica","zip":"967 01"},{"city":"Koplotovce","zip":"920 01"},{"city":"Kopr\u00e1\u0161","zip":"049 16"},{"city":"Koprivnica","zip":"086 43"},{"city":"Kord\u00edky","zip":"976 34"},{"city":"Korejovce","zip":"090 05"},{"city":"Kor\u0148a","zip":"023 21"},{"city":"Kornica","zip":"023 22"},{"city":"Korom\u013ea","zip":"072 62"},{"city":"Korunkov\u00e1","zip":"090 31"},{"city":"Koryt\u00e1rky","zip":"962 04"},{"city":"Korytn\u00e9","zip":"013 54"},{"city":"Korytn\u00e9","zip":"053 05"},{"city":"Korytnica - k\u00fapele","zip":"034 73"},{"city":"Kosihovce","zip":"991 25"},{"city":"Kosihy nad Ip\u013eom","zip":"991 11"},{"city":"Kosor\u00edn","zip":"966 24"},{"city":"Kostivrch","zip":"968 01"},{"city":"Kosto\u013eany n\/Horn\u00e1dom","zip":"044 31"},{"city":"Kosto\u013eany p\/Tribe\u010dom","zip":"951 77"},{"city":"Kostolec","zip":"017 05"},{"city":"Kostoli\u0161te","zip":"900 62"},{"city":"Kostoln\u00e1","zip":"962 12"},{"city":"Kostoln\u00e1 - Z\u00e1rie\u010die","zip":"913 04"},{"city":"Kostoln\u00e1 Gala","zip":"930 34"},{"city":"Kostoln\u00e1 pri Dunaji","zip":"903 01"},{"city":"Kostoln\u00e1 Ves","zip":"972 26"},{"city":"Kostoln\u00e9","zip":"916 13"},{"city":"Kostoln\u00e9 Kra\u010dany","zip":"930 03"},{"city":"Kostoln\u00e9 Mitice","zip":"913 22"},{"city":"Kostoln\u00e9 Moravce","zip":"962 71"},{"city":"Kostoln\u00fd Sek","zip":"942 01"},{"city":"Ko\u0161","zip":"972 41"},{"city":"Ko\u0161arisk\u00e1","zip":"906 15"},{"city":"Ko\u0161arovce","zip":"094 06"},{"city":"Ko\u0161eca","zip":"018 64"},{"city":"Ko\u0161eck\u00e9 Podhradie","zip":"018 31"},{"city":"Ko\u0161eck\u00e9 Rovn\u00e9","zip":"018 32"},{"city":"Ko\u0161ice","zip":"040 18"},{"city":"Ko\u0161ice","zip":"040 17"},{"city":"Ko\u0161ice","zip":"040 22"},{"city":"Ko\u0161ice","zip":"040 14"},{"city":"Ko\u0161ice","zip":"040 11"},{"city":"Ko\u0161ice","zip":"040 01"},{"city":"Ko\u0161ice","zip":"040 13"},{"city":"Ko\u0161ice","zip":"040 12"},{"city":"Ko\u0161ice","zip":"040 23"},{"city":"Ko\u0161ice","zip":"040 15"},{"city":"Ko\u0161ice","zip":"040 16"},{"city":"Barca","zip":"040 17"},{"city":"Kave\u010dany","zip":"040 01"},{"city":"Ko\u0161ick\u00e1 Nov\u00e1 Ves","zip":"040 14"},{"city":"Kr\u00e1sna","zip":"040 18"},{"city":"Lorin\u010d\u00edk","zip":"040 11"},{"city":"Myslava","zip":"040 16"},{"city":"Pere\u0161","zip":"040 11"},{"city":"Po\u013eov","zip":"040 15"},{"city":"Star\u00e9 Mesto","zip":"040 01"},{"city":"\u0160aca","zip":"040 15"},{"city":"\u0160ebastovce","zip":"040 17"},{"city":"\u0164ahanovce","zip":"040 13"},{"city":"Vy\u0161n\u00e9 Op\u00e1tske","zip":"040 01"},{"city":"Z\u00e1pad","zip":"040 11"},{"city":"\u017deleziarne","zip":"044 54"},{"city":"Ko\u0161ick\u00e1 Bel\u00e1","zip":"044 65"},{"city":"Ko\u0161ick\u00e1 Polianka","zip":"044 41"},{"city":"Ko\u0161ick\u00e9 O\u013e\u0161any","zip":"044 42"},{"city":"Ko\u0161ick\u00fd Kle\u010denov","zip":"044 45"},{"city":"Ko\u0161kovce","zip":"067 12"},{"city":"Ko\u0161oln\u00e1","zip":"919 01"},{"city":"Ko\u0161\u0165any","zip":"044 13"},{"city":"Ko\u0161\u0165any nad Turcom","zip":"038 41"},{"city":"Ko\u0161\u00faty","zip":"925 09"},{"city":"Kotelnica","zip":"946 54"},{"city":"Kote\u0161ov\u00e1","zip":"013 61"},{"city":"Kotmanov\u00e1","zip":"985 53"},{"city":"Kotr\u010din\u00e1 L\u00fa\u010dka","zip":"013 02"},{"city":"Kov\u00e1\u010dov","zip":"943 65"},{"city":"Kov\u00e1\u010dov\u00e1","zip":"049 42"},{"city":"Kov\u00e1\u010dov\u00e1","zip":"962 37"},{"city":"Kov\u00e1\u010dovce","zip":"991 06"},{"city":"Kov\u00e1lov","zip":"906 03"},{"city":"Kov\u00e1lovec","zip":"908 63"},{"city":"Kovarce","zip":"956 15"},{"city":"Koz\u00e1rovce","zip":"935 22"},{"city":"Kozelec","zip":"065 45"},{"city":"Kozeln\u00edk","zip":"966 15"},{"city":"Koz\u00ed Vrbovok","zip":"962 41"},{"city":"Kozinsk\u00e1","zip":"027 05"},{"city":"Ko\u017eany","zip":"086 12"},{"city":"Ko\u017euchov","zip":"076 01"},{"city":"Ko\u017euchovce","zip":"090 22"},{"city":"Kra\u010d\u00fanovce","zip":"087 01"},{"city":"Krahule","zip":"967 01"},{"city":"Krajn\u00e1 Bystr\u00e1","zip":"090 05"},{"city":"Krajn\u00e1 Po\u013eana","zip":"090 05"},{"city":"Krajn\u00e1 Por\u00fabka","zip":"090 05"},{"city":"Krajn\u00e9","zip":"916 16"},{"city":"Krajn\u00e9 \u010cierno","zip":"090 03"},{"city":"Krakovany","zip":"922 02"},{"city":"Kr\u00e1\u013e","zip":"980 45"},{"city":"Kr\u00e1lik","zip":"982 01"},{"city":"Kr\u00e1liky","zip":"976 34"},{"city":"Kr\u00e1\u013eka","zip":"946 03"},{"city":"Kr\u00e1\u013eov Brod","zip":"925 41"},{"city":"Kr\u00e1\u013eova Lehota","zip":"032 33"},{"city":"Kr\u00e1\u013eov\u00e1 nad V\u00e1hom","zip":"925 91"},{"city":"Kr\u00e1\u013eov\u00e1 pri Senci","zip":"900 50"},{"city":"Kra\u013eovany","zip":"027 51"},{"city":"Kr\u00e1\u013eovce","zip":"962 65"},{"city":"Kr\u00e1\u013eovce","zip":"044 44"},{"city":"Kr\u00e1\u013eovce - Krni\u0161ov","zip":"962 65"},{"city":"Kr\u00e1\u013eovianky","zip":"931 01"},{"city":"Kr\u00e1\u013eovi\u010dov\u00e1","zip":"935 84"},{"city":"Kr\u00e1\u013eovi\u010dove Kra\u010dany","zip":"930 03"},{"city":"Kr\u00e1\u013eovsk\u00fd Chlmec","zip":"077 01"},{"city":"Kr\u00e1m","zip":"976 52"},{"city":"Kraskovo","zip":"980 26"},{"city":"Kr\u00e1sna","zip":"985 41"},{"city":"Kr\u00e1sna","zip":"980 51"},{"city":"Kr\u00e1sna H\u00f4rka","zip":"027 44"},{"city":"Kr\u00e1sna L\u00faka","zip":"082 73"},{"city":"Kr\u00e1sna Ves","zip":"956 53"},{"city":"Kras\u0148any","zip":"013 03"},{"city":"Kr\u00e1sno","zip":"958 43"},{"city":"Kr\u00e1sno nad Kysucou","zip":"023 02"},{"city":"Kr\u00e1snohor. Dlh\u00e1 L\u00faka","zip":"049 45"},{"city":"Kr\u00e1snohor. Podhradie","zip":"049 41"},{"city":"Kr\u00e1snovce","zip":"072 01"},{"city":"Kr\u00e1sny Brod","zip":"068 01"},{"city":"Kr\u00e1sny Dub","zip":"913 33"},{"city":"Kr\u00e1tke Kesy","zip":"946 32"},{"city":"Kravany","zip":"076 61"},{"city":"Kravany","zip":"059 18"},{"city":"Kravany nad Dunajom","zip":"946 36"},{"city":"Krav\u00e1rska","zip":"013 32"},{"city":"Kr\u010dava","zip":"072 51"},{"city":"Kremn\u00e1","zip":"065 22"},{"city":"Kremnica","zip":"967 01"},{"city":"Kremnick\u00e9 Bane","zip":"967 01"},{"city":"Kristy","zip":"072 55"},{"city":"Kri\u0161\u013eovce","zip":"090 31"},{"city":"Kri\u0161ovsk\u00e1 Lieskov\u00e1","zip":"079 01"},{"city":"Kriv\u00e1","zip":"027 55"},{"city":"Kriv\u00e1 O\u013eka","zip":"067 04"},{"city":"Kriv\u00e1\u0148","zip":"962 04"},{"city":"Krivany","zip":"082 71"},{"city":"Kriv\u00e9","zip":"086 04"},{"city":"Krivec I","zip":"962 05"},{"city":"Krivec II","zip":"962 05"},{"city":"Krivokl\u00e1t","zip":"018 52"},{"city":"Krivos\u00fad - Bodovka","zip":"913 11"},{"city":"Krivo\u0161\u0165any","zip":"072 22"},{"city":"Kr\u00ed\u017e nad V\u00e1hom","zip":"916 26"},{"city":"Kr\u00ed\u017eany","zip":"079 01"},{"city":"Kr\u00ed\u017ee","zip":"086 04"},{"city":"Kr\u00ed\u017eny Vrch","zip":"934 01"},{"city":"Kr\u00ed\u017eov\u00e1 Ves","zip":"059 01"},{"city":"Kr\u00ed\u017eovany","zip":"082 33"},{"city":"Kri\u017eovany n\/Dudv\u00e1hom","zip":"919 24"},{"city":"Kr\u00ed\u017eov\u00fd Dvor","zip":"946 19"},{"city":"Krme\u0161","zip":"032 13"},{"city":"Krn\u00e1","zip":"985 25"},{"city":"Krn\u010da","zip":"956 19"},{"city":"Krn\u00e9","zip":"962 12"},{"city":"Krni\u0161ov","zip":"962 65"},{"city":"Krokava","zip":"982 67"},{"city":"Krompachy","zip":"053 42"},{"city":"Krpe\u013eany","zip":"038 54"},{"city":"Kr\u0161kany","zip":"934 01"},{"city":"Krtovce","zip":"956 03"},{"city":"Kru\u010dov","zip":"090 32"},{"city":"Krupina","zip":"963 01"},{"city":"Kru\u0161etnica","zip":"029 54"},{"city":"Kru\u0161inec","zip":"091 01"},{"city":"Kru\u0161ovce","zip":"956 31"},{"city":"Kru\u017elov","zip":"086 04"},{"city":"Kru\u017elov\u00e1","zip":"090 02"},{"city":"Kru\u017elovsk\u00e1 Huta","zip":"086 04"},{"city":"Kru\u017en\u00e1","zip":"049 51"},{"city":"Kru\u017eno","zip":"979 01"},{"city":"K\u0161inn\u00e1","zip":"956 41"},{"city":"Kub\u00e1\u0148ovo","zip":"935 75"},{"city":"Kub\u00edkov\u00e1","zip":"013 05"},{"city":"Kub\u00ednska","zip":"029 57"},{"city":"Kucany","zip":"076 75"},{"city":"Ku\u010d\u00edn","zip":"086 12"},{"city":"Ku\u010d\u00edn","zip":"094 21"},{"city":"Kuchy\u0148a","zip":"900 52"},{"city":"Kuklov","zip":"908 78"},{"city":"Kukov\u00e1","zip":"086 44"},{"city":"Kuku\u010d\u00ednov","zip":"937 01"},{"city":"Kunerad","zip":"013 13"},{"city":"Kune\u0161ov","zip":"967 01"},{"city":"Kunov","zip":"905 01"},{"city":"Kunova Teplica","zip":"049 32"},{"city":"Kura\u013eany","zip":"935 64"},{"city":"Kurima","zip":"086 12"},{"city":"Kurimany","zip":"054 01"},{"city":"Kurimka","zip":"090 16"},{"city":"Kurinec","zip":"979 01"},{"city":"Kurov","zip":"086 04"},{"city":"Kurt\u00e1\u0148","zip":"986 01"},{"city":"Kus\u00edn","zip":"072 32"},{"city":"K\u00fatniky","zip":"929 01"},{"city":"K\u00faty","zip":"971 01"},{"city":"K\u00faty","zip":"908 01"},{"city":"Kuzmice","zip":"076 12"},{"city":"Kuzmice","zip":"956 21"},{"city":"Kva\u010dany","zip":"032 23"},{"city":"Kva\u010dany","zip":"082 41"},{"city":"Kvakovce","zip":"094 02"},{"city":"Kva\u0161ov","zip":"020 62"},{"city":"Kvetnica","zip":"058 01"},{"city":"Kvetoslavov","zip":"930 41"},{"city":"Kyjatice","zip":"980 54"},{"city":"Kyjov","zip":"065 48"},{"city":"Kykula","zip":"913 04"},{"city":"Kynce\u013eov\u00e1","zip":"974 01"},{"city":"Kynce\u013eove Kra\u010dany","zip":"930 03"},{"city":"Kysak","zip":"044 81"},{"city":"Kyselica","zip":"930 30"},{"city":"Kysih\u00fdbel","zip":"969 01"},{"city":"Kysta","zip":"076 02"},{"city":"Kysuca","zip":"976 53"},{"city":"Kysuck\u00e9 Nov\u00e9 Mesto","zip":"024 01"},{"city":"Kysuck\u00e9 Nov\u00e9 Mesto","zip":"024 04"},{"city":"Kysuck\u00fd Lieskovec","zip":"023 34"},{"city":"L\u00e1b","zip":"900 67"},{"city":"Lackov","zip":"962 44"},{"city":"Lackov\u00e1","zip":"065 01"},{"city":"Lackovce","zip":"066 01"},{"city":"Laclav\u00e1","zip":"038 22"},{"city":"La\u010dnov","zip":"082 36"},{"city":"Lada","zip":"082 12"},{"city":"Ladce","zip":"018 63"},{"city":"Ladice","zip":"951 77"},{"city":"Ladislavov Dvor","zip":"934 01"},{"city":"Ladmovce","zip":"076 34"},{"city":"Ladomersk\u00e1 Vieska","zip":"965 01"},{"city":"Ladomirov","zip":"067 71"},{"city":"Ladomirov\u00e1","zip":"090 03"},{"city":"Ladzany","zip":"962 65"},{"city":"Lak\u0161\u00e1rska Nov\u00e1 Ves","zip":"908 76"},{"city":"Lalinok","zip":"013 31"},{"city":"Lan\u010d\u00e1r","zip":"922 04"},{"city":"L\u00e1ndor","zip":"945 01"},{"city":"L\u00e1ny","zip":"023 04"},{"city":"Lascov","zip":"086 45"},{"city":"Lask\u00e1r","zip":"972 71"},{"city":"Lask\u00e1r","zip":"038 43"},{"city":"Lastom\u00edr","zip":"072 37"},{"city":"Lastovce","zip":"076 14"},{"city":"La\u0161kovce","zip":"072 01"},{"city":"L\u00e1tkovce","zip":"957 01"},{"city":"L\u00e1tky","zip":"985 45"},{"city":"Lazany","zip":"038 43"},{"city":"Lazany","zip":"972 11"},{"city":"Lazisko","zip":"032 11"},{"city":"Lazy pod Makytou","zip":"020 55"},{"city":"La\u017eany","zip":"082 32"},{"city":"La\u017eteky","zip":"962 63"},{"city":"Lednica","zip":"020 63"},{"city":"Lednick\u00e9 Rovne","zip":"020 61"},{"city":"Lefantovce","zip":"951 45"},{"city":"Legnava","zip":"065 46"},{"city":"Lehnice","zip":"930 37"},{"city":"Lehota","zip":"951 36"},{"city":"Lehota nad Rimavicou","zip":"980 53"},{"city":"Lehota pod Vt\u00e1\u010dnikom","zip":"972 42"},{"city":"Lehotsk\u00e1","zip":"029 57"},{"city":"Leh\u00f4tka","zip":"985 11"},{"city":"Leh\u00f4tka pod Brehmi","zip":"966 01"},{"city":"Lechnica","zip":"059 06"},{"city":"Lek\u00e1rovce","zip":"072 54"},{"city":"Le\u013ea","zip":"943 65"},{"city":"Leles","zip":"076 84"},{"city":"Leme\u0161any","zip":"082 03"},{"city":"Lenartov","zip":"086 06"},{"city":"Lenartovce","zip":"980 44"},{"city":"Lendak","zip":"059 07"},{"city":"Lenka","zip":"980 50"},{"city":"Lentvora","zip":"985 13"},{"city":"Leopoldov","zip":"920 41"},{"city":"Lesenice","zip":"991 08"},{"city":"Les\u00ed\u010dek","zip":"082 07"},{"city":"Lesn\u00e9","zip":"071 01"},{"city":"Lesn\u00e9 Kra\u010dany","zip":"930 03"},{"city":"Lesnica","zip":"065 33"},{"city":"Le\u0161\u0165","zip":"962 63"},{"city":"Le\u0161tiny","zip":"026 01"},{"city":"Letanovce","zip":"053 13"},{"city":"Letni\u010die","zip":"908 44"},{"city":"Lev\u00e1re","zip":"982 62"},{"city":"Levice","zip":"934 01"},{"city":"Levice","zip":"934 05"},{"city":"Levku\u0161ka","zip":"982 62"},{"city":"Levo\u010da","zip":"054 01"},{"city":"Levo\u010dsk\u00e1 Dolina","zip":"054 01"},{"city":"Levo\u010dsk\u00e9 L\u00faky","zip":"054 01"},{"city":"Le\u017eiachov","zip":"038 42"},{"city":"Libichava","zip":"956 38"},{"city":"Licince","zip":"049 14"},{"city":"Li\u010dartovce","zip":"082 03"},{"city":"Lid\u00e9r Tejed","zip":"929 01"},{"city":"Liesek","zip":"027 12"},{"city":"Lieskov-Dol. Lieskov","zip":"018 21"},{"city":"Lieskov-Hor. Lieskov","zip":"018 21"},{"city":"Lieskov - Podskalie","zip":"018 22"},{"city":"Lieskov - T\u0155stie","zip":"018 22"},{"city":"Lieskov\u00e1","zip":"079 01"},{"city":"Lieskovany","zip":"053 21"},{"city":"Lieskov\u00e9","zip":"906 33"},{"city":"Lieskov\u00e9-Zem.Liesk.","zip":"913 05"},{"city":"Lieskovec","zip":"067 45"},{"city":"Lieskovec","zip":"962 21"},{"city":"Lieskovec","zip":"960 01"},{"city":"Lie\u0161no","zip":"038 22"},{"city":"Lie\u0161\u0165any","zip":"972 27"},{"city":"Lietava","zip":"013 18"},{"city":"Lietavsk\u00e1 L\u00fa\u010dka","zip":"013 11"},{"city":"Lietavsk\u00e1 Svinn\u00e1","zip":"013 11"},{"city":"Lietavsk\u00e1 Z\u00e1vadka","zip":"013 18"},{"city":"Likavka","zip":"034 95"},{"city":"Likier","zip":"981 01"},{"city":"Limbach","zip":"900 91"},{"city":"Lipany","zip":"082 71"},{"city":"Lipn\u00edk","zip":"935 21"},{"city":"Lipn\u00edk","zip":"972 32"},{"city":"Lipn\u00edky","zip":"082 12"},{"city":"Lipn\u00edky - Podhrabina","zip":"082 15"},{"city":"Lipov\u00e1","zip":"086 12"},{"city":"Lipov\u00e1","zip":"941 02"},{"city":"Lipovany","zip":"985 31"},{"city":"Lipovce","zip":"082 36"},{"city":"Lipovce - chaty","zip":"082 36"},{"city":"Lipov\u00e9","zip":"946 14"},{"city":"Lipovec","zip":"980 23"},{"city":"Lipovec","zip":"038 61"},{"city":"Lipovn\u00edk","zip":"956 01"},{"city":"Lipovn\u00edk","zip":"049 42"},{"city":"Liptovsk\u00e1 Anna","zip":"032 23"},{"city":"Liptovsk\u00e1 Kokava","zip":"032 44"},{"city":"Liptovsk\u00e1 L\u00fa\u017ena","zip":"034 72"},{"city":"Liptovsk\u00e1 Osada","zip":"034 73"},{"city":"Liptovsk\u00e1 Por\u00fabka","zip":"033 01"},{"city":"Liptovsk\u00e1 Sielnica","zip":"032 23"},{"city":"Liptovsk\u00e1 \u0160tiavnica","zip":"034 01"},{"city":"Liptovsk\u00e1 Tepl\u00e1","zip":"034 83"},{"city":"Liptovsk\u00e1 Tepli\u010dka","zip":"059 40"},{"city":"Liptovsk\u00e9 Beharovce","zip":"032 21"},{"city":"Liptovsk\u00e9 K\u013ea\u010dany","zip":"032 14"},{"city":"Liptovsk\u00e9 Matia\u0161ovce","zip":"032 23"},{"city":"Liptovsk\u00e9 Rev\u00face","zip":"034 74"},{"city":"Liptovsk\u00e9 Slia\u010de","zip":"034 84"},{"city":"Liptovsk\u00fd Hr\u00e1dok","zip":"033 01"},{"city":"Liptovsk\u00fd J\u00e1n","zip":"032 03"},{"city":"Liptovsk\u00fd Michal","zip":"034 83"},{"city":"Liptovsk\u00fd Mikul\u00e1\u0161","zip":"031 04"},{"city":"Liptovsk\u00fd Mikul\u00e1\u0161","zip":"031 01"},{"city":"Liptovsk\u00fd Mikul\u00e1\u0161","zip":"031 05"},{"city":"Liptovsk\u00fd Ondrej","zip":"032 04"},{"city":"Liptovsk\u00fd Peter","zip":"033 01"},{"city":"Liptovsk\u00fd Trnovec","zip":"031 01"},{"city":"Liptovsk\u00fd Trnovec","zip":"031 01"},{"city":"Liskov\u00e1","zip":"034 81"},{"city":"Li\u0161ov","zip":"962 71"},{"city":"Litava","zip":"962 44"},{"city":"Litmanov\u00e1","zip":"065 31"},{"city":"Livina","zip":"956 32"},{"city":"Livinsk\u00e9 Opatovce","zip":"956 32"},{"city":"Livov","zip":"086 05"},{"city":"Livovsk\u00e1 Huta","zip":"086 05"},{"city":"Lodno","zip":"023 34"},{"city":"Lok","zip":"935 38"},{"city":"Lokca","zip":"029 51"},{"city":"Lom nad Rimavicou","zip":"976 53"},{"city":"Lomn\u00e1","zip":"029 54"},{"city":"Lomn\u00e9","zip":"090 33"},{"city":"Lomnica","zip":"972 27"},{"city":"Lomni\u010dka","zip":"065 03"},{"city":"Lonec","zip":"962 63"},{"city":"Lontov","zip":"935 75"},{"city":"Lopa\u0161ov","zip":"908 63"},{"city":"Lopej","zip":"976 98"},{"city":"Lop\u00fachov","zip":"086 41"},{"city":"Lopu\u0161n\u00e1","zip":"023 36"},{"city":"Lopu\u0161.Pa\u017eite-Lopu\u0161n\u00e1","zip":"023 36"},{"city":"Lopu\u0161.Pa\u017eite-Pa\u017eite","zip":"023 36"},{"city":"Lo\u0161onec","zip":"919 04"},{"city":"Lovce","zip":"951 92"},{"city":"Lov\u010da","zip":"966 21"},{"city":"Lov\u010dica","zip":"966 23"},{"city":"Lov\u010dica - Trub\u00edn","zip":"966 23"},{"city":"Lovinoba\u0148a","zip":"985 54"},{"city":"Lozorno","zip":"900 55"},{"city":"Lo\u017e\u00edn","zip":"072 05"},{"city":"\u013dub\u00e1","zip":"943 53"},{"city":"\u013dube\u013ea","zip":"032 14"},{"city":"Luben\u00edk","zip":"049 18"},{"city":"\u013dubianka","zip":"972 47"},{"city":"\u013dubica","zip":"059 71"},{"city":"\u013dubienka","zip":"985 07"},{"city":"\u013dubietov\u00e1","zip":"976 55"},{"city":"Lubina","zip":"916 12"},{"city":"\u013dubi\u0161a","zip":"067 11"},{"city":"\u013duboch\u0148a","zip":"034 91"},{"city":"\u013dubor\u010da","zip":"914 41"},{"city":"\u013dubore\u010d","zip":"985 11"},{"city":"\u013duborie\u010dka","zip":"991 02"},{"city":"\u013dubotice","zip":"080 06"},{"city":"\u013dubot\u00edn","zip":"065 41"},{"city":"\u013dubovec","zip":"082 42"},{"city":"L\u00fa\u010d na Ostrove","zip":"930 03"},{"city":"Lu\u010dat\u00edn","zip":"976 61"},{"city":"Lu\u010denec","zip":"984 01"},{"city":"Lu\u010denec","zip":"984 03"},{"city":"L\u00fa\u010dina","zip":"082 07"},{"city":"Lu\u010divn\u00e1","zip":"059 31"},{"city":"L\u00fa\u010dka","zip":"082 71"},{"city":"L\u00fa\u010dka","zip":"049 42"},{"city":"L\u00fa\u010dka","zip":"087 01"},{"city":"L\u00fa\u010dka","zip":"053 03"},{"city":"Lu\u010dkovce","zip":"072 03"},{"city":"L\u00fa\u010dky","zip":"034 82"},{"city":"L\u00fa\u010dky","zip":"967 01"},{"city":"L\u00fa\u010dky","zip":"072 34"},{"city":"L\u00fa\u010dky - k\u00fapele","zip":"034 82"},{"city":"L\u00fa\u010dnica nad \u017ditavou","zip":"951 88"},{"city":"Ludanice","zip":"956 11"},{"city":"\u013dudov\u00edtov","zip":"941 11"},{"city":"\u013dudov\u00edtov\u00e1","zip":"951 44"},{"city":"Ludrov\u00e1","zip":"034 71"},{"city":"\u013dudvikov dvor","zip":"040 15"},{"city":"Luhy\u0148a","zip":"076 14"},{"city":"L\u00faka","zip":"916 33"},{"city":"Luka\u010dovce","zip":"067 24"},{"city":"Luk\u00e1\u010dovce","zip":"951 23"},{"city":"Lukavica","zip":"966 81"},{"city":"Lukavica","zip":"086 21"},{"city":"Lukavica","zip":"962 31"},{"city":"Lukov","zip":"086 05"},{"city":"Lukovi\u0161tia","zip":"980 26"},{"city":"L\u00faky","zip":"013 31"},{"city":"L\u00faky","zip":"020 53"},{"city":"L\u00faky","zip":"946 14"},{"city":"Lula","zip":"935 35"},{"city":"Lupo\u010d","zip":"985 11"},{"city":"Luskovica","zip":"916 16"},{"city":"Lutila","zip":"966 22"},{"city":"\u013dutina","zip":"082 57"},{"city":"Luti\u0161e","zip":"013 05"},{"city":"\u013dutov","zip":"957 03"},{"city":"Lu\u017eany","zip":"956 07"},{"city":"Lu\u017eany pri Topli","zip":"087 01"},{"city":"Lu\u017eianky","zip":"951 41"},{"city":"Lys\u00e1 nad Dunajcom","zip":"061 01"},{"city":"Lys\u00e1 pod Makytou","zip":"020 54"},{"city":"Lysica","zip":"013 05"},{"city":"Macov","zip":"930 32"},{"city":"Ma\u010don\u00e1\u0161","zip":"925 41"},{"city":"Ma\u010dov","zip":"972 25"},{"city":"Mad","zip":"930 14"},{"city":"Mada\u010dka","zip":"985 13"},{"city":"Mad\u00e9r\u00e9t","zip":"930 28"},{"city":"Mado\u010dany","zip":"034 83"},{"city":"Madunice","zip":"922 42"},{"city":"Madz\u00edn","zip":"013 62"},{"city":"Magnezitovce","zip":"049 16"},{"city":"Magurka","zip":"032 15"},{"city":"Machalovce","zip":"059 13"},{"city":"Machulince","zip":"951 93"},{"city":"Majcichov","zip":"919 22"},{"city":"Majdan","zip":"082 57"},{"city":"Majer","zip":"094 31"},{"city":"Majere","zip":"935 05"},{"city":"Majere","zip":"061 01"},{"city":"Majer\u00ed\u010dky","zip":"906 05"},{"city":"Majerka","zip":"059 94"},{"city":"Majerovce","zip":"094 09"},{"city":"Makov","zip":"023 56"},{"city":"Makovce","zip":"090 23"},{"city":"Mal\u00e1 Bara","zip":"076 32"},{"city":"Mal\u00e1 Bara\u010dka","zip":"935 36"},{"city":"Mal\u00e1 Budafa","zip":"930 34"},{"city":"Mal\u00e1 Byt\u010da","zip":"014 01"},{"city":"Mal\u00e1 \u010calomija","zip":"991 08"},{"city":"Mal\u00e1 \u010causa","zip":"971 01"},{"city":"Mal\u00e1 \u010cierna","zip":"015 01"},{"city":"Mal\u00e1 Dolina","zip":"985 53"},{"city":"Mal\u00e1 Doma\u0161a","zip":"094 02"},{"city":"Mal\u00e1 Frankov\u00e1","zip":"059 78"},{"city":"Mal\u00e1 Hradn\u00e1","zip":"956 54"},{"city":"Mal\u00e1 Ida","zip":"044 20"},{"city":"Mal\u00e1 I\u017ea","zip":"945 01"},{"city":"Mal\u00e1 Lehota","zip":"972 42"},{"city":"Mal\u00e1 Lehota","zip":"966 42"},{"city":"Mal\u00e1 Lodina","zip":"044 81"},{"city":"Mal\u00e1 L\u00fa\u010d","zip":"930 03"},{"city":"Mal\u00e1 Ma\u010da","zip":"925 21"},{"city":"Mal\u00e1 Ma\u0148a","zip":"941 45"},{"city":"Mal\u00e1 Mu\u017ela","zip":"943 52"},{"city":"Mal\u00e1 nad Hronom","zip":"943 65"},{"city":"Mal\u00e1 Paka","zip":"930 51"},{"city":"Mal\u00e1 Po\u013eana","zip":"090 24"},{"city":"Mal\u00e1 T\u0155\u0148a","zip":"076 82"},{"city":"Mal\u00e1 Ves","zip":"984 01"},{"city":"Mal\u00e1 Vieska","zip":"044 31"},{"city":"Malacky","zip":"901 01"},{"city":"Malachov","zip":"974 05"},{"city":"M\u00e1la\u0161","zip":"935 67"},{"city":"Malatin\u00e1","zip":"026 01"},{"city":"Malat\u00edny","zip":"032 15"},{"city":"Malcov","zip":"086 06"},{"city":"Mal\u010dice","zip":"072 06"},{"city":"Mal\u00e9 Bielice","zip":"958 04"},{"city":"Mal\u00e9 Bierovce","zip":"913 05"},{"city":"Mal\u00e9 Blahovo","zip":"929 01"},{"city":"Mal\u00e9 Borov\u00e9","zip":"027 32"},{"city":"Mal\u00e9 Dvorany","zip":"956 01"},{"city":"Mal\u00e9 Dvorn\u00edky","zip":"929 01"},{"city":"Mal\u00e9 Hoste","zip":"956 37"},{"city":"Mal\u00e9 Chyndice","zip":"951 54"},{"city":"Mal\u00e9 Kosihy","zip":"943 61"},{"city":"Mal\u00e9 Ko\u0161ec.Podhradie","zip":"018 31"},{"city":"Mal\u00e9 Kozm\u00e1lovce","zip":"935 21"},{"city":"Mal\u00e9 Kr\u0161kany","zip":"934 01"},{"city":"Mal\u00e9 Kr\u0161te\u0148any","zip":"958 03"},{"city":"Mal\u00e9 Lednice","zip":"018 16"},{"city":"Mal\u00e9 Lev\u00e1re","zip":"908 74"},{"city":"Mal\u00e9 Ludince","zip":"937 01"},{"city":"Mal\u00e9 Orvi\u0161te","zip":"922 01"},{"city":"Mal\u00e9 Ostratice","zip":"956 34"},{"city":"Mal\u00e9 Ozorovce","zip":"078 01"},{"city":"Mal\u00e9 Ra\u0161kovce","zip":"072 17"},{"city":"Mal\u00e9 Rip\u0148any","zip":"956 07"},{"city":"Mal\u00e9 Stankovce","zip":"913 11"},{"city":"Mal\u00e9 Straciny","zip":"990 01"},{"city":"Mal\u00e9 Teriakovce","zip":"980 51"},{"city":"Mal\u00e9 Trakany","zip":"076 42"},{"city":"Mal\u00e9 Uherce","zip":"958 03"},{"city":"Mal\u00e9 Vozokany","zip":"951 82"},{"city":"Mal\u00e9 Zalu\u017eice","zip":"072 34"},{"city":"Mal\u00e9 Z\u00e1lu\u017eie","zip":"951 24"},{"city":"Mal\u00e9 Zlievce","zip":"991 22"},{"city":"M\u00e1linec","zip":"985 26"},{"city":"Malinov\u00e1","zip":"972 13"},{"city":"Malinovec","zip":"935 87"},{"city":"Malinovo","zip":"900 45"},{"city":"Malu\u017ein\u00e1","zip":"032 34"},{"city":"Mal\u00fd B\u00e1b","zip":"951 34"},{"city":"Mal\u00fd Biel","zip":"900 24"},{"city":"Mal\u00fd Bysterec","zip":"026 01"},{"city":"Mal\u00fd Cet\u00edn","zip":"951 07"},{"city":"Mal\u00fd \u010cep\u010d\u00edn","zip":"038 45"},{"city":"Mal\u00fd Hore\u0161","zip":"076 52"},{"city":"Mal\u00fd Jatov","zip":"941 10"},{"city":"Mal\u00fd Kamenec","zip":"076 36"},{"city":"Mal\u00fd Kiar","zip":"934 01"},{"city":"Mal\u00fd Kola\u010d\u00edn","zip":"018 51"},{"city":"Mal\u00fd Krt\u00ed\u0161","zip":"990 01"},{"city":"Mal\u00fd Lap\u00e1\u0161","zip":"951 04"},{"city":"Mal\u00fd L\u00e9g","zip":"930 37"},{"city":"Mal\u00fd Lipn\u00edk","zip":"065 46"},{"city":"Mal\u00fd Madaras","zip":"900 44"},{"city":"Mal\u00fd Ostrov","zip":"946 03"},{"city":"Mal\u00fd Pesek","zip":"937 01"},{"city":"Mal\u00fd Ruskov","zip":"075 01"},{"city":"Mal\u00fd Slavkov","zip":"060 01"},{"city":"Mal\u00fd Slivn\u00edk","zip":"082 67"},{"city":"Mal\u00fd \u0160ari\u0161","zip":"080 01"},{"city":"Mal\u017eenice","zip":"919 29"},{"city":"Ma\u0148a","zip":"941 45"},{"city":"Mang\u00fatovo","zip":"962 05"},{"city":"Mankovce","zip":"951 91"},{"city":"Marcelov\u00e1","zip":"946 32"},{"city":"Mar\u010dek","zip":"013 32"},{"city":"Margecany","zip":"055 01"},{"city":"Marha\u0148","zip":"086 45"},{"city":"Marianka","zip":"900 33"},{"city":"Markovce","zip":"072 06"},{"city":"Marku\u0161ka","zip":"049 34"},{"city":"Marku\u0161ovce","zip":"053 21"},{"city":"Mar\u0161ov\u00e1","zip":"013 51"},{"city":"Martin","zip":"036 01"},{"city":"Martin","zip":"038 61"},{"city":"Martin nad \u017ditavou","zip":"953 01"},{"city":"Martin\u010dek","zip":"034 95"},{"city":"Martinov\u00e1","zip":"951 88"},{"city":"Martinov\u00e1","zip":"980 41"},{"city":"Martovce","zip":"947 01"},{"city":"Maru\u0161ov\u00e1","zip":"935 33"},{"city":"Maslovce","zip":"930 39"},{"city":"Masn\u00edkovo","zip":"930 36"},{"city":"Ma\u0161a","zip":"985 22"},{"city":"Ma\u0161kov\u00e1","zip":"985 11"},{"city":"Ma\u0161kovce","zip":"067 32"},{"city":"Ma\u0161tinec","zip":"987 01"},{"city":"Matejovce","zip":"059 51"},{"city":"Matejovce n.Horn\u00e1dom","zip":"053 21"},{"city":"Matejovec","zip":"916 16"},{"city":"Matia\u0161ka","zip":"094 31"},{"city":"Matia\u0161ovce","zip":"059 04"},{"city":"Matovce","zip":"090 42"},{"city":"Ma\u0165ovsk\u00e9 Vojkovce","zip":"079 01"},{"city":"Matu\u0161\u00edkov\u00e1","zip":"972 28"},{"city":"Mat\u00fa\u0161kovo","zip":"925 01"},{"city":"Matysov\u00e1","zip":"065 46"},{"city":"Me\u010dedelovce","zip":"053 14"},{"city":"Medn\u00e9","zip":"020 61"},{"city":"Me\u010fov","zip":"071 01"},{"city":"Medovarce","zip":"962 65"},{"city":"Medveck\u00e9","zip":"935 41"},{"city":"Medvedie","zip":"090 05"},{"city":"Medve\u010fov","zip":"930 07"},{"city":"Medve\u010fovo","zip":"976 52"},{"city":"Medvedzie","zip":"027 44"},{"city":"Medzany","zip":"082 21"},{"city":"Medzev","zip":"044 25"},{"city":"Medzianky","zip":"094 31"},{"city":"Medzibrod","zip":"976 96"},{"city":"Medzibrodie","zip":"065 22"},{"city":"Medzibrodie n\/Oravou","zip":"026 01"},{"city":"Medzihradn\u00e9","zip":"026 01"},{"city":"Medzilaborce","zip":"068 01"},{"city":"Mechenice","zip":"951 46"},{"city":"Mel\u010dice","zip":"913 05"},{"city":"Melek","zip":"952 01"},{"city":"Meliata","zip":"049 12"},{"city":"Mengusovce","zip":"059 36"},{"city":"Mera\u0161ice","zip":"920 61"},{"city":"Mern\u00edk","zip":"094 23"},{"city":"Merovce","zip":"962 71"},{"city":"Meste\u010dko","zip":"020 52"},{"city":"Mestisko","zip":"090 41"},{"city":"Mi\u010dakovce","zip":"087 01"},{"city":"Mierovo","zip":"930 41"},{"city":"Miezgovce","zip":"957 01"},{"city":"Mih\u00e1\u013eov","zip":"085 01"},{"city":"Michajlov","zip":"067 73"},{"city":"Michal na Ostrove","zip":"930 35"},{"city":"Michal nad \u017ditavou","zip":"941 62"},{"city":"Micha\u013eany","zip":"076 14"},{"city":"Michalkov\u00e1","zip":"962 61"},{"city":"Michalok","zip":"094 23"},{"city":"Michalov\u00e1","zip":"976 57"},{"city":"Michalovce","zip":"071 01"},{"city":"Miklu\u0161ovce","zip":"082 44"},{"city":"Mikol\u010dany","zip":"049 13"},{"city":"Mikov\u00e1","zip":"090 24"},{"city":"Mik\u0161ov\u00e1","zip":"014 01"},{"city":"Mikula","zip":"937 01"},{"city":"Mikul\u00e1\u0161ov","zip":"908 76"},{"city":"Mikul\u00e1\u0161ov Sad","zip":"946 34"},{"city":"Mikul\u00e1\u0161ov\u00e1","zip":"086 36"},{"city":"Miku\u0161ovce","zip":"984 01"},{"city":"Miku\u0161ovce","zip":"018 57"},{"city":"Milhos\u0165","zip":"044 58"},{"city":"Milhostov","zip":"075 01"},{"city":"Milinovice","zip":"929 01"},{"city":"Miloslavov","zip":"900 42"},{"city":"Milovan\u00e1","zip":"071 01"},{"city":"Milpo\u0161","zip":"082 71"},{"city":"Mi\u0148ovce","zip":"090 32"},{"city":"Mirkovce","zip":"082 06"},{"city":"Miro\u013ea","zip":"090 05"},{"city":"Mi\u0161kech Dedinka","zip":"916 12"},{"city":"Ml\u00e1dzovo","zip":"985 02"},{"city":"Ml\u00e1ky","zip":"985 45"},{"city":"Mlie\u010dany","zip":"929 01"},{"city":"Mlie\u010dno","zip":"931 01"},{"city":"Mly\u0148any","zip":"951 76"},{"city":"Mlyn\u00e1rovce","zip":"090 16"},{"city":"Mlyn\u010deky","zip":"059 76"},{"city":"Mlynica","zip":"059 91"},{"city":"Mlynky","zip":"053 76"},{"city":"Mlynsk\u00fd Sek","zip":"941 02"},{"city":"Mn\u00edchova Lehota","zip":"913 21"},{"city":"Mn\u00ed\u0161any","zip":"049 16"},{"city":"Mn\u00ed\u0161ek nad Hnilcom","zip":"055 64"},{"city":"Mn\u00ed\u0161ek nad Popradom","zip":"065 22"},{"city":"Mo\u010da","zip":"946 37"},{"city":"Mo\u010darany","zip":"071 01"},{"city":"Mo\u010darmany","zip":"082 53"},{"city":"Mo\u010denok","zip":"951 31"},{"city":"Mo\u010diar","zip":"969 82"},{"city":"Mo\u010diare","zip":"020 62"},{"city":"Mo\u010didl\u00e1","zip":"072 51"},{"city":"Mo\u010did\u013eany","zip":"082 63"},{"city":"Modlat\u00edn","zip":"018 03"},{"city":"Modra","zip":"900 01"},{"city":"Modra nad Cirochou","zip":"067 82"},{"city":"Modranka","zip":"917 05"},{"city":"Modrany","zip":"946 33"},{"city":"Modrov\u00e1","zip":"916 35"},{"city":"Modrovka","zip":"916 35"},{"city":"Modr\u00fd Kame\u0148","zip":"992 01"},{"city":"Mochovce","zip":"935 39"},{"city":"Moj\u00edn","zip":"979 01"},{"city":"Mojm\u00edrovce","zip":"951 15"},{"city":"Moj\u0161","zip":"010 01"},{"city":"Mojt\u00edn","zip":"020 72"},{"city":"Mojzesovo","zip":"941 04"},{"city":"Mokr\u00e1 L\u00faka","zip":"050 01"},{"city":"Mokra\u010f","zip":"026 01"},{"city":"Mokrance","zip":"045 01"},{"city":"Mokroluh","zip":"086 01"},{"city":"Mokr\u00fd H\u00e1j","zip":"908 65"},{"city":"Moldava nad Bodvou","zip":"045 01"},{"city":"Moravany","zip":"072 03"},{"city":"Moravany nad V\u00e1hom","zip":"922 21"},{"city":"Moravsk\u00e9 Kra\u010dany","zip":"930 03"},{"city":"Moravsk\u00e9 Lieskov\u00e9","zip":"916 42"},{"city":"Moravsk\u00fd Sv\u00e4t\u00fd J\u00e1n","zip":"908 71"},{"city":"Morovno","zip":"972 31"},{"city":"Most pri Bratislave","zip":"900 46"},{"city":"Mosti\u0161te","zip":"020 51"},{"city":"Mostov\u00e1","zip":"925 07"},{"city":"Mo\u0161kovec","zip":"038 44"},{"city":"Mo\u0161ovce","zip":"038 21"},{"city":"Mo\u0161ovce","zip":"916 26"},{"city":"Mo\u0161tenica","zip":"976 13"},{"city":"Mo\u0161urov","zip":"082 67"},{"city":"Mote\u0161ice","zip":"913 26"},{"city":"Moty\u010dky","zip":"976 02"},{"city":"M\u00f4l\u010da","zip":"974 01"},{"city":"Mr\u00e1zovce","zip":"090 34"},{"city":"Mrz\u00e1\u010dka","zip":"029 57"},{"city":"Mu\u010d\u00edn","zip":"985 31"},{"city":"Mudro\u0148ovo","zip":"946 32"},{"city":"Mudrovce","zip":"044 47"},{"city":"Mu\u013ea","zip":"991 22"},{"city":"Mu\u013eka","zip":"985 31"},{"city":"Mur\u00e1\u0148","zip":"049 01"},{"city":"Mur\u00e1nska Dlh\u00e1 L\u00faka","zip":"050 01"},{"city":"Mur\u00e1nska Huta","zip":"049 01"},{"city":"Mur\u00e1nska Lehota","zip":"049 01"},{"city":"Mur\u00e1nska Zdychava","zip":"050 01"},{"city":"M\u00fat\u0148ansk\u00e1 P\u00edla","zip":"029 63"},{"city":"M\u00fatne","zip":"029 63"},{"city":"Mu\u017ela","zip":"943 52"},{"city":"Myjava","zip":"907 01"},{"city":"Myjava","zip":"907 03"},{"city":"Myslina","zip":"066 01"},{"city":"M\u00fdtna","zip":"985 53"},{"city":"M\u00fdtna Nov\u00e1 Ves","zip":"956 11"},{"city":"M\u00fdtne Ludany","zip":"935 56"},{"city":"M\u00fdto pod \u010eumbierom","zip":"976 44"},{"city":"Nacina Ves","zip":"072 21"},{"city":"Nadabula","zip":"048 01"},{"city":"Nadlice","zip":"956 32"},{"city":"\u0147agov","zip":"068 01"},{"city":"Nah\u00e1\u010d","zip":"919 65"},{"city":"N\u00e1lepkovo","zip":"053 33"},{"city":"N\u00e1mestovo","zip":"029 01"},{"city":"N\u00e1na","zip":"943 60"},{"city":"Nandra\u017e","zip":"049 61"},{"city":"\u0147\u00e1rad","zip":"930 06"},{"city":"N\u00e1vojovce","zip":"958 04"},{"city":"Nebojsa","zip":"924 01"},{"city":"Necpaly","zip":"038 12"},{"city":"Nedanovce","zip":"958 43"},{"city":"Neda\u0161ovce","zip":"956 35"},{"city":"Neded","zip":"925 85"},{"city":"Nededza","zip":"013 02"},{"city":"Nedeli\u0161te","zip":"985 13"},{"city":"Nedo\u017eery","zip":"972 12"},{"city":"Nedo\u017eery - Brezany","zip":"972 12"},{"city":"Nechv\u00e1lova Polianka","zip":"067 33"},{"city":"Nekyje na Ostrove","zip":"930 25"},{"city":"Nemce","zip":"974 01"},{"city":"Nemcovce","zip":"082 12"},{"city":"Nemcovce","zip":"086 12"},{"city":"Nem\u010dice","zip":"955 01"},{"city":"Nem\u010di\u0148any","zip":"951 81"},{"city":"Nemeck\u00e1","zip":"976 97"},{"city":"Neme\u010dky","zip":"956 22"},{"city":"Neme\u0161any","zip":"053 02"},{"city":"Nem\u0161ov\u00e1","zip":"914 41"},{"city":"Nenince","zip":"991 26"},{"city":"Neporadza","zip":"913 26"},{"city":"Neporadza","zip":"980 45"},{"city":"Neslu\u0161a","zip":"023 41"},{"city":"Nesvady","zip":"946 51"},{"city":"Neverice","zip":"951 72"},{"city":"Nevidzany","zip":"972 27"},{"city":"Nevidzany","zip":"951 62"},{"city":"Nevo\u013en\u00e9","zip":"967 01"},{"city":"Nezbudsk\u00e1 L\u00fa\u010dka","zip":"013 24"},{"city":"Niere\u0161e","zip":"082 06"},{"city":"Nimnica","zip":"020 71"},{"city":"Nitra","zip":"949 05"},{"city":"Nitra","zip":"949 01"},{"city":"Nitra","zip":"949 11"},{"city":"Nitra","zip":"949 07"},{"city":"Nitra nad Ip\u013eom","zip":"985 57"},{"city":"Nitrianska Blatnica","zip":"956 05"},{"city":"Nitrianska Streda","zip":"956 16"},{"city":"Nitrian.Hrn\u010diarovce","zip":"951 01"},{"city":"Nitrianske Pravno","zip":"972 13"},{"city":"Nitrianske Rudno","zip":"972 26"},{"city":"Nitrianske Su\u010dany","zip":"972 21"},{"city":"Nitriansky Hr\u00e1dok","zip":"942 01"},{"city":"Nitrica","zip":"972 22"},{"city":"Nixbrod","zip":"934 01"},{"city":"Ni\u017en\u00e1","zip":"027 43"},{"city":"Ni\u017en\u00e1","zip":"922 06"},{"city":"Ni\u017en\u00e1 Boca","zip":"032 34"},{"city":"Ni\u017en\u00e1 Hutka","zip":"040 18"},{"city":"Ni\u017en\u00e1 Jablonka","zip":"067 34"},{"city":"Ni\u017en\u00e1 Jed\u013eov\u00e1","zip":"089 01"},{"city":"Ni\u017en\u00e1 Kalo\u0161a","zip":"982 52"},{"city":"Ni\u017en\u00e1 Kamenica","zip":"044 45"},{"city":"Ni\u017en\u00e1 Kor\u0148a","zip":"023 21"},{"city":"Ni\u017en\u00e1 My\u0161\u013ea","zip":"044 15"},{"city":"Ni\u017en\u00e1 Ol\u0161ava","zip":"090 32"},{"city":"Ni\u017en\u00e1 Pisan\u00e1","zip":"090 01"},{"city":"Ni\u017en\u00e1 Pokoradz","zip":"979 01"},{"city":"Ni\u017en\u00e1 Polianka","zip":"086 36"},{"city":"Ni\u017en\u00e1 Rev\u00faca","zip":"034 74"},{"city":"Ni\u017en\u00e1 Rybnica","zip":"073 01"},{"city":"Ni\u017en\u00e1 Sitnica","zip":"094 07"},{"city":"Ni\u017en\u00e1 Slan\u00e1","zip":"049 23"},{"city":"Ni\u017en\u00e1 \u0160u\u0148ava","zip":"059 39"},{"city":"Ni\u017en\u00e1 Vladi\u010da","zip":"090 23"},{"city":"Ni\u017en\u00e1 Vo\u013ea","zip":"086 21"},{"city":"Ni\u017en\u00e9 Kamence","zip":"013 06"},{"city":"Ni\u017en\u00e9 Ladi\u010dkovce","zip":"067 11"},{"city":"Ni\u017en\u00e9 Matia\u0161ovce","zip":"032 23"},{"city":"Ni\u017en\u00e9 Nemeck\u00e9","zip":"072 52"},{"city":"Ni\u017en\u00e9 Raslavice","zip":"086 41"},{"city":"Ni\u017en\u00e9 Repa\u0161e","zip":"053 71"},{"city":"Ni\u017en\u00e9 Ru\u017ebachy","zip":"065 02"},{"city":"Ni\u017en\u00e9 Valice","zip":"982 52"},{"city":"Ni\u017enoslansk\u00e1 Ba\u0148a","zip":"049 23"},{"city":"Ni\u017en\u00fd \u010caj","zip":"044 16"},{"city":"Ni\u017en\u00fd Hrabovec","zip":"094 21"},{"city":"Ni\u017en\u00fd Hru\u0161ov","zip":"094 22"},{"city":"Ni\u017en\u00fd Kel\u010dov","zip":"023 55"},{"city":"Ni\u017en\u00fd Kl\u00e1tov","zip":"044 12"},{"city":"Ni\u017en\u00fd Kom\u00e1rnik","zip":"090 05"},{"city":"Ni\u017en\u00fd Kru\u010dov","zip":"093 01"},{"city":"Ni\u017en\u00fd L\u00e1nec","zip":"044 73"},{"city":"Ni\u017en\u00fd Medzev","zip":"044 25"},{"city":"Ni\u017en\u00fd Miro\u0161ov","zip":"090 11"},{"city":"Ni\u017en\u00fd Orl\u00edk","zip":"090 11"},{"city":"Ni\u017en\u00fd Sk\u00e1lnik","zip":"980 52"},{"city":"Ni\u017en\u00fd Slavkov","zip":"082 75"},{"city":"Ni\u017en\u00fd Slia\u010d","zip":"034 84"},{"city":"Ni\u017en\u00fd Tvaro\u017eec","zip":"086 02"},{"city":"Ni\u017en\u00fd \u017dipov","zip":"076 17"},{"city":"Nol\u010dovo","zip":"038 54"},{"city":"Norovce","zip":"956 38"},{"city":"Nosice","zip":"020 01"},{"city":"Nov\u00e1 Ba\u0148a","zip":"968 01"},{"city":"Nov\u00e1 Ba\u0161ta","zip":"980 34"},{"city":"Nov\u00e1 Bo\u0161\u00e1ca","zip":"913 08"},{"city":"Nov\u00e1 Bystrica","zip":"023 05"},{"city":"Nov\u00e1 Dedina","zip":"935 25"},{"city":"Nov\u00e1 Dedinka","zip":"900 29"},{"city":"Nov\u00e1 Dubnica","zip":"018 51"},{"city":"Nov\u00e1 Kel\u010da","zip":"094 04"},{"city":"Nov\u00e1 Lehota","zip":"972 51"},{"city":"Nov\u00e1 Lehota","zip":"916 35"},{"city":"Nov\u00e1 Lesn\u00e1","zip":"059 86"},{"city":"Nov\u00e1 Lipnica","zip":"900 42"},{"city":"Nov\u00e1 \u013dubov\u0148a","zip":"065 11"},{"city":"Nov\u00e1 Ma\u0161a","zip":"976 69"},{"city":"Nov\u00e1 Osada","zip":"943 42"},{"city":"Nov\u00e1 Osada","zip":"945 01"},{"city":"Nov\u00e1 Polhora","zip":"044 44"},{"city":"Nov\u00e1 Polianka","zip":"089 01"},{"city":"Nov\u00e1 Sedlica","zip":"067 68"},{"city":"Nov\u00e1 Trsten\u00e1","zip":"947 03"},{"city":"Nov\u00e1 Ves","zip":"991 05"},{"city":"Nov\u00e1 Ves nad V\u00e1hom","zip":"916 31"},{"city":"Nov\u00e1 Ves nad \u017ditavou","zip":"951 51"},{"city":"Nov\u00e1 Ves pri Dunaji","zip":"900 29"},{"city":"Nov\u00e1 Vieska","zip":"943 42"},{"city":"N.Vieska pri Bodrogu","zip":"076 35"},{"city":"Nov\u00e1\u010dany","zip":"049 13"},{"city":"Nov\u00e1\u010dany","zip":"044 21"},{"city":"Nov\u00e1ky","zip":"972 71"},{"city":"Nov\u00e9 Hony","zip":"985 42"},{"city":"Nov\u00e9 Ko\u0161arisk\u00e1","zip":"900 42"},{"city":"Nov\u00e9 Mesto nad V\u00e1hom","zip":"915 01"},{"city":"Nov\u00e9 Osady","zip":"925 22"},{"city":"Nov\u00e9 Sady","zip":"951 24"},{"city":"Nov\u00e9 Z\u00e1mky","zip":"940 02"},{"city":"Novosad","zip":"076 02"},{"city":"Novo\u0165","zip":"029 55"},{"city":"Novotsk\u00fd Du\u013eov","zip":"029 63"},{"city":"Novovesk\u00e1 Huta","zip":"053 31"},{"city":"Nov\u00fd Diel","zip":"946 54"},{"city":"Nov\u00fd Dvor","zip":"935 77"},{"city":"Nov\u00fd G\u00fag","zip":"940 02"},{"city":"Nov\u00fd Majer","zip":"075 01"},{"city":"Nov\u00fd Ruskov","zip":"075 01"},{"city":"Nov\u00fd Sad","zip":"985 41"},{"city":"Nov\u00fd Sala\u0161","zip":"044 17"},{"city":"Nov\u00fd Svet","zip":"985 45"},{"city":"Nov\u00fd Svet","zip":"903 01"},{"city":"Nov\u00fd Tekov","zip":"935 33"},{"city":"Nov\u00fd \u017divot","zip":"930 38"},{"city":"Nozdrovice","zip":"018 64"},{"city":"N\u00fdrovce","zip":"935 67"},{"city":"Obeckov","zip":"991 05"},{"city":"Obid","zip":"943 04"},{"city":"Obi\u0161ovce","zip":"044 81"},{"city":"Oblazov","zip":"013 61"},{"city":"Obor\u00edn","zip":"076 75"},{"city":"Obru\u010dn\u00e1","zip":"985 58"},{"city":"Obru\u010dn\u00e9","zip":"065 42"},{"city":"Obsolovce","zip":"956 08"},{"city":"Obyce","zip":"951 95"},{"city":"O\u010dkov","zip":"916 22"},{"city":"O\u010dov\u00e1","zip":"962 23"},{"city":"O\u010dov\u00e1","zip":"962 12"},{"city":"Odor\u00edn","zip":"053 22"},{"city":"Ohrady","zip":"930 12"},{"city":"Ohradzany","zip":"067 22"},{"city":"Ochodnica","zip":"023 35"},{"city":"Ochtin\u00e1","zip":"049 35"},{"city":"Ok\u00e1nikovo","zip":"946 21"},{"city":"Oko\u010d","zip":"930 28"},{"city":"Okoli\u010dn\u00e1 na Ostrove","zip":"946 13"},{"city":"Okr\u00fahle","zip":"090 42"},{"city":"Okru\u017en\u00e1","zip":"082 12"},{"city":"Olcnava","zip":"053 61"},{"city":"O\u013edza","zip":"930 39"},{"city":"Olejn\u00edkov","zip":"082 57"},{"city":"Ole\u0161n\u00e1","zip":"023 52"},{"city":"Olichov","zip":"951 87"},{"city":"O\u013eka","zip":"067 04"},{"city":"Olov\u00e1ry","zip":"991 22"},{"city":"O\u013e\u0161avce","zip":"086 46"},{"city":"O\u013e\u0161avica","zip":"053 73"},{"city":"O\u013e\u0161avka","zip":"090 22"},{"city":"O\u013e\u0161avka","zip":"053 61"},{"city":"Ol\u0161ina","zip":"075 01"},{"city":"O\u013e\u0161inkov","zip":"067 16"},{"city":"O\u013e\u0161ov","zip":"082 76"},{"city":"Ol\u0161ovany","zip":"044 19"},{"city":"Omastin\u00e1","zip":"956 41"},{"city":"Om\u0161enie","zip":"914 43"},{"city":"On\u010da","zip":"076 52"},{"city":"Ondavka","zip":"086 36"},{"city":"Ondavsk\u00e9 Matia\u0161ovce","zip":"094 01"},{"city":"Ondra\u0161ov\u00e1","zip":"038 22"},{"city":"Ondra\u0161ovce","zip":"082 33"},{"city":"Ondrej","zip":"059 12"},{"city":"Ondrej nad Hronom","zip":"976 62"},{"city":"Ondrejovce","zip":"935 51"},{"city":"Ondrochov","zip":"941 02"},{"city":"Op\u00e1tka","zip":"044 65"},{"city":"Opatov\u00e1","zip":"984 01"},{"city":"Opatov\u00e1","zip":"935 25"},{"city":"Opatovce","zip":"913 11"},{"city":"Opatovce - V\u00fd\u010dapy","zip":"951 44"},{"city":"Opatovce nad Nitrou","zip":"972 02"},{"city":"Opatov\u00e9 Moravce","zip":"962 71"},{"city":"Opatovsk\u00e1 Nov\u00e1 Ves","zip":"991 07"},{"city":"Opatovsk\u00fd Sokolec","zip":"930 28"},{"city":"Opava","zip":"991 25"},{"city":"Opin\u00e1","zip":"044 47"},{"city":"Opoj","zip":"919 32"},{"city":"Oponice","zip":"956 14"},{"city":"Oravce","zip":"976 33"},{"city":"Or\u00e1vka","zip":"980 42"},{"city":"Oravsk\u00e1 Jasenica","zip":"029 64"},{"city":"Oravsk\u00e1 Lesn\u00e1","zip":"029 57"},{"city":"Oravsk\u00e1 Polhora","zip":"029 47"},{"city":"Oravsk\u00e1 Poruba","zip":"027 54"},{"city":"Oravsk\u00e9 Vesel\u00e9","zip":"029 62"},{"city":"Oravsk\u00fd Biely Potok","zip":"027 42"},{"city":"Oravsk\u00fd Podz\u00e1mok","zip":"027 41"},{"city":"Ordzovany","zip":"053 06"},{"city":"Orechov\u00e1","zip":"072 51"},{"city":"Orechov\u00e1 Pot\u00f4\u0148","zip":"930 02"},{"city":"Orechov\u00e1 Pot\u00f4\u0148-L\u00faky","zip":"930 52"},{"city":"Oresk\u00e9","zip":"908 63"},{"city":"Oresk\u00e9","zip":"072 23"},{"city":"Ore\u0161any","zip":"956 06"},{"city":"Orkucany","zip":"083 01"},{"city":"Orlov","zip":"065 43"},{"city":"Orovnica","zip":"966 52"},{"city":"Ort\u00e1\u0161e","zip":"044 44"},{"city":"Ortov","zip":"072 14"},{"city":"Ortu\u0165ov\u00e1","zip":"086 12"},{"city":"Os\u00e1dka","zip":"026 01"},{"city":"Osadn\u00e9","zip":"067 34"},{"city":"Osikov","zip":"086 42"},{"city":"Oslany","zip":"972 47"},{"city":"Osrblie","zip":"976 45"},{"city":"Ostr\u00e1 L\u00faka","zip":"962 61"},{"city":"Ostrany","zip":"980 26"},{"city":"Ostratice","zip":"956 34"},{"city":"Ostrov","zip":"922 01"},{"city":"Ostrov","zip":"072 55"},{"city":"Ostrovany","zip":"082 22"},{"city":"Ostr\u00fd Gr\u00fa\u0148","zip":"966 77"},{"city":"Ostur\u0148a","zip":"059 79"},{"city":"Osusk\u00e9","zip":"906 12"},{"city":"Osu\u0161ie","zip":"991 02"},{"city":"O\u0161\u010dadnica","zip":"023 01"},{"city":"O\u0161kerda","zip":"023 32"},{"city":"Otrh\u00e1nky","zip":"956 55"},{"city":"Otro\u010dok","zip":"982 62"},{"city":"Ov\u010diarsko","zip":"010 04"},{"city":"Ov\u010die","zip":"082 38"},{"city":"Ozd\u00edn","zip":"985 24"},{"city":"O\u017e\u010fany","zip":"980 11"},{"city":"P\u00e1c","zip":"919 43"},{"city":"Pa\u010da","zip":"049 41"},{"city":"Pa\u010d\u00e9rok","zip":"946 03"},{"city":"Pad\u00e1\u0148","zip":"929 01"},{"city":"Padarovce","zip":"980 23"},{"city":"Paderovce","zip":"919 30"},{"city":"Paga\u0148ov","zip":"018 03"},{"city":"Pakostov","zip":"094 07"},{"city":"Pal\u00e1rikovo","zip":"941 11"},{"city":"Palcmansk\u00e1 Ma\u0161a","zip":"053 76"},{"city":"Pal\u00edn","zip":"072 13"},{"city":"Palota","zip":"068 01"},{"city":"Pa\u013eovce","zip":"925 92"},{"city":"Pa\u0148a","zip":"951 05"},{"city":"Panick\u00e9 Dravce","zip":"985 32"},{"city":"Pa\u0148ovce","zip":"044 71"},{"city":"Pap\u010da","zip":"980 23"},{"city":"Pap\u00edn","zip":"067 33"},{"city":"Paprad","zip":"916 01"},{"city":"Papradno","zip":"018 13"},{"city":"Parchovany","zip":"076 62"},{"city":"Parihuzovce","zip":"067 35"},{"city":"P\u00e1rnica","zip":"026 01"},{"city":"Partiz\u00e1nska \u013dup\u010da","zip":"032 15"},{"city":"Partiz\u00e1nske","zip":"958 01"},{"city":"Partiz\u00e1nske","zip":"958 03"},{"city":"Partiz\u00e1nske","zip":"958 04"},{"city":"Partiz\u00e1nske","zip":"958 06"},{"city":"Paseky","zip":"985 45"},{"city":"Pasie\u010dka","zip":"020 53"},{"city":"Pastovce","zip":"935 74"},{"city":"Pastovn\u00edk","zip":"065 44"},{"city":"Pastuchov","zip":"920 63"},{"city":"Pa\u0161kov\u00e1","zip":"049 32"},{"city":"Pa\u0161tina Z\u00e1vada","zip":"013 41"},{"city":"Pata","zip":"925 53"},{"city":"Pata\u0161","zip":"929 01"},{"city":"Patince","zip":"946 39"},{"city":"Pav\u010dina Lehota","zip":"031 01"},{"city":"Pavel","zip":"945 04"},{"city":"Pav\u013eany","zip":"053 71"},{"city":"Pavlice","zip":"919 42"},{"city":"Pavlov\u00e1","zip":"943 59"},{"city":"Pavlova Ves","zip":"032 21"},{"city":"Pavlovce","zip":"094 31"},{"city":"Pavlovce","zip":"980 01"},{"city":"Pavlovce nad Uhom","zip":"072 14"},{"city":"Pavlovo","zip":"076 35"},{"city":"Pa\u017ei\u0165","zip":"958 03"},{"city":"Pa\u017eite","zip":"023 36"},{"city":"P\u010dolin\u00e9","zip":"067 35"},{"city":"Pe\u010de\u0148ady","zip":"922 07"},{"city":"Pe\u010de\u0148any","zip":"956 36"},{"city":"Pe\u010denice","zip":"935 03"},{"city":"Pe\u010dovsk\u00e1 Nov\u00e1 Ves","zip":"082 56"},{"city":"Peder","zip":"044 05"},{"city":"Peklina","zip":"013 41"},{"city":"Per\u00edn","zip":"044 74"},{"city":"Per\u00edn - Chym","zip":"044 74"},{"city":"Perkovce","zip":"951 26"},{"city":"Pernek","zip":"900 53"},{"city":"Petkovce","zip":"094 33"},{"city":"Pe\u0165ov","zip":"991 06"},{"city":"Pe\u0165ovka","zip":"913 26"},{"city":"Petrikovce","zip":"072 06"},{"city":"Petrov\u00e1","zip":"027 05"},{"city":"Petrov\u00e1","zip":"086 02"},{"city":"Petrova Lehota","zip":"913 26"},{"city":"Petrova Ves","zip":"908 44"},{"city":"Petrovany","zip":"082 53"},{"city":"Petrovce","zip":"980 35"},{"city":"Petrovce","zip":"094 31"},{"city":"Petrovce","zip":"072 62"},{"city":"Petrovce n\/Laborcom","zip":"071 01"},{"city":"Petrovec","zip":"985 01"},{"city":"Petrovice","zip":"013 53"},{"city":"Petrovo","zip":"049 35"},{"city":"Pezinok","zip":"902 01"},{"city":"Pezinok","zip":"902 03"},{"city":"Pe\u017eer\u0148a","zip":"935 55"},{"city":"Piesky","zip":"072 04"},{"city":"Piesok","zip":"900 01"},{"city":"Piesok","zip":"976 81"},{"city":"Pie\u0161\u0165 I (\u010das\u0165)","zip":"962 12"},{"city":"Pie\u0161\u0165 II","zip":"962 12"},{"city":"Pie\u0161\u0165any","zip":"921 01"},{"city":"Pichne","zip":"069 01"},{"city":"Pikovce","zip":"059 72"},{"city":"P\u00edla","zip":"900 89"},{"city":"P\u00edla","zip":"985 53"},{"city":"P\u00edla","zip":"966 81"},{"city":"Pilhov","zip":"065 22"},{"city":"Pilhov\u010d\u00edk","zip":"065 22"},{"city":"Pincin\u00e1","zip":"984 01"},{"city":"Pinkovce","zip":"072 54"},{"city":"Pinkove Kra\u010dany","zip":"930 03"},{"city":"Piskorovce","zip":"094 05"},{"city":"Pitelov\u00e1","zip":"966 11"},{"city":"Pl\u00e1ne","zip":"013 53"},{"city":"Pl\u00e1ne","zip":"072 22"},{"city":"Pl\u00e1\u0161\u0165ovce","zip":"935 82"},{"city":"Plav\u00e9 Vozokany","zip":"935 69"},{"city":"Plaveck\u00e9 Podhradie","zip":"906 36"},{"city":"Plaveck\u00fd Mikul\u00e1\u0161","zip":"906 35"},{"city":"Plaveck\u00fd Peter","zip":"906 35"},{"city":"Plaveck\u00fd \u0160tvrtok","zip":"900 68"},{"city":"Plave\u010d","zip":"065 44"},{"city":"Plavnica","zip":"065 45"},{"city":"Plechotice","zip":"075 01"},{"city":"Ple\u0161","zip":"985 31"},{"city":"Ple\u0161iv\u00e1","zip":"027 05"},{"city":"Ple\u0161ivec","zip":"049 11"},{"city":"Plevn\u00edk - Drienov\u00e9","zip":"018 26"},{"city":"Plie\u0161ovce","zip":"962 63"},{"city":"Plosk\u00e9","zip":"044 44"},{"city":"Plosk\u00e9","zip":"982 65"},{"city":"Pobedim","zip":"916 23"},{"city":"Po\u010darov\u00e1","zip":"018 15"},{"city":"Po\u010d\u00favadl.Jazero","zip":"969 01"},{"city":"Po\u010d\u00favadlo","zip":"969 01"},{"city":"Pod Braniskom","zip":"082 37"},{"city":"P\u00f3dafa","zip":"929 01"},{"city":"Podbiel","zip":"027 42"},{"city":"Podbran\u010d","zip":"906 05"},{"city":"Podbrezov\u00e1","zip":"976 81"},{"city":"Pod\u010di\u010dva","zip":"094 09"},{"city":"Podh\u00e1jska","zip":"941 48"},{"city":"Podholie","zip":"976 64"},{"city":"Podhorany","zip":"059 93"},{"city":"Podhorany","zip":"082 12"},{"city":"Podhorany","zip":"951 46"},{"city":"Podhorie","zip":"018 61"},{"city":"Podhorie","zip":"906 11"},{"city":"Podhorie","zip":"018 54"},{"city":"Podhorie","zip":"013 18"},{"city":"Podhorie","zip":"969 82"},{"city":"Podhoro\u010f","zip":"072 64"},{"city":"Podhrabina","zip":"082 15"},{"city":"Podhradie","zip":"038 52"},{"city":"Podhradie","zip":"972 42"},{"city":"Podhradie","zip":"955 01"},{"city":"Podhrad\u00edk","zip":"080 06"},{"city":"Podjavorie","zip":"962 63"},{"city":"Podjavorie","zip":"962 63"},{"city":"Podjavorn\u00edk","zip":"018 13"},{"city":"Podkonice","zip":"976 13"},{"city":"Podkriv\u00e1\u0148","zip":"985 51"},{"city":"Podkylava","zip":"916 16"},{"city":"Podlipn\u00edky","zip":"094 31"},{"city":"Podlu\u017eany","zip":"935 27"},{"city":"Podlu\u017eany","zip":"956 52"},{"city":"Podolie","zip":"916 22"},{"city":"Podol\u00ednec","zip":"065 03"},{"city":"Podp\u00edlie","zip":"065 41"},{"city":"Podpro\u010d","zip":"053 73"},{"city":"Podre\u010dany","zip":"985 54"},{"city":"Podsadek","zip":"064 01"},{"city":"Podskalie","zip":"018 22"},{"city":"Podsp\u00e1dy","zip":"059 56"},{"city":"Podture\u0148","zip":"033 01"},{"city":"Podva\u017eie","zip":"018 52"},{"city":"Podvrch","zip":"916 16"},{"city":"Podvysok\u00e1","zip":"023 57"},{"city":"Podz\u00e1m\u010dok","zip":"962 61"},{"city":"Podz\u00e1mok","zip":"065 44"},{"city":"Podz\u00e1mok","zip":"906 05"},{"city":"Pohorel\u00e1","zip":"976 69"},{"city":"Pohorelsk\u00e1 Ma\u0161a","zip":"976 69"},{"city":"Pohranice","zip":"951 02"},{"city":"Pohronsk\u00e1 Polhora","zip":"976 56"},{"city":"Pohronsk\u00fd Bukovec","zip":"976 62"},{"city":"Pohronsk\u00fd Ruskov","zip":"935 62"},{"city":"Pochabany","zip":"956 38"},{"city":"Pokryv\u00e1\u010d","zip":"026 01"},{"city":"Po\u013eanovce","zip":"053 05"},{"city":"Po\u013eany","zip":"076 84"},{"city":"Polerieka","zip":"038 22"},{"city":"Poliakovce","zip":"086 11"},{"city":"Polianka","zip":"907 01"},{"city":"Polianky","zip":"985 45"},{"city":"Polichno","zip":"985 13"},{"city":"Polina","zip":"982 62"},{"city":"Polkanov\u00e1 (\u010d.d.1,2,3","zip":"974 01"},{"city":"Polkanov\u00e1 (ostat.\u010d.)","zip":"976 02"},{"city":"Poln\u00edky","zip":"913 32"},{"city":"Po\u013en\u00fd Kesov","zip":"951 15"},{"city":"Polom","zip":"981 01"},{"city":"Poloma","zip":"082 73"},{"city":"Polomka","zip":"976 66"},{"city":"Polomy","zip":"962 63"},{"city":"Polt\u00e1r","zip":"987 01"},{"city":"Poluvsie","zip":"013 13"},{"city":"Poluvsie","zip":"972 16"},{"city":"Pondelok","zip":"980 13"},{"city":"Pongr\u00e1covce","zip":"053 05"},{"city":"Ponick\u00e1 Huta","zip":"976 33"},{"city":"Ponick\u00e1 Leh\u00f4tka","zip":"976 33"},{"city":"Poniky","zip":"976 33"},{"city":"Poprad","zip":"058 01"},{"city":"Popro\u010d","zip":"044 24"},{"city":"Popro\u010d","zip":"982 67"},{"city":"Popudinsk\u00e9 Mo\u010did\u013eany","zip":"908 61"},{"city":"Por\u00e1\u010d","zip":"053 23"},{"city":"Poriadie","zip":"906 22"},{"city":"Porostov","zip":"072 55"},{"city":"Poruba","zip":"972 11"},{"city":"Poruba p\/Vihorlatom","zip":"072 32"},{"city":"Por\u00fabka","zip":"067 41"},{"city":"Por\u00fabka","zip":"086 12"},{"city":"Por\u00fabka","zip":"013 11"},{"city":"Por\u00fabka","zip":"072 61"},{"city":"Pos\u00e1dka","zip":"920 56"},{"city":"Po\u0161a","zip":"094 21"},{"city":"P\u00f3\u0161fa","zip":"930 34"},{"city":"Poto\u010dok","zip":"991 22"},{"city":"Potok","zip":"023 56"},{"city":"Potok","zip":"034 83"},{"city":"Potok","zip":"982 67"},{"city":"Potoky","zip":"082 71"},{"city":"Potoky","zip":"013 62"},{"city":"Potoky","zip":"091 01"},{"city":"Pot\u00f4\u010dky","zip":"091 01"},{"city":"Pot\u00f4nsk\u00e9 L\u00faky","zip":"930 52"},{"city":"Potvorice","zip":"916 25"},{"city":"Pova\u017eany","zip":"916 26"},{"city":"Pova\u017esk\u00e1 Bystrica","zip":"017 01"},{"city":"Pova\u017esk\u00e1 Bystrica","zip":"017 07"},{"city":"Pova\u017esk\u00e1 Bystrica","zip":"017 06"},{"city":"Pova\u017esk\u00e1 Bystrica","zip":"017 04"},{"city":"Pova\u017esk\u00e1 Bystrica","zip":"017 05"},{"city":"Povina","zip":"023 33"},{"city":"Povoda","zip":"929 01"},{"city":"Povrazn\u00edk","zip":"976 55"},{"city":"Pozba","zip":"941 51"},{"city":"Pozdi\u0161ovce","zip":"072 01"},{"city":"P\u00f4bi\u0161ovo","zip":"976 64"},{"city":"P\u00f4tor","zip":"991 03"},{"city":"Praha","zip":"985 11"},{"city":"Prakovce","zip":"055 62"},{"city":"Pra\u0161ice","zip":"956 22"},{"city":"Pra\u0161n\u00edk","zip":"922 11"},{"city":"Pravenec","zip":"972 16"},{"city":"Pravica","zip":"991 21"},{"city":"Pravotice","zip":"956 35"},{"city":"Pr\u00e1znovce","zip":"955 01"},{"city":"Pre\u010d\u00edn","zip":"018 15"},{"city":"Predajn\u00e1","zip":"976 63"},{"city":"Predjastrabie","zip":"013 55"},{"city":"Predmier","zip":"023 54"},{"city":"Predmier","zip":"013 51"},{"city":"Predn\u00e1 Hora","zip":"049 01"},{"city":"Prejta","zip":"018 41"},{"city":"Pren\u010dov","zip":"969 73"},{"city":"Prese\u013eany","zip":"956 12"},{"city":"Prese\u013eany nad Ip\u013eom","zip":"936 01"},{"city":"Prestavlky","zip":"966 01"},{"city":"Pre\u0161ov","zip":"080 01"},{"city":"Pre\u0161ov","zip":"080 06"},{"city":"Pre\u0161ov","zip":"080 05"},{"city":"Pr\u00edbelce","zip":"991 25"},{"city":"Priben\u00edk","zip":"076 51"},{"city":"Pribeta","zip":"946 55"},{"city":"Pribi\u0161","zip":"027 41"},{"city":"Pribi\u0161sk\u00e1","zip":"029 57"},{"city":"Pr\u00edboj","zip":"991 01"},{"city":"Pr\u00edbovce","zip":"038 42"},{"city":"Pribylina","zip":"032 42"},{"city":"Priechod","zip":"976 11"},{"city":"Priekopa","zip":"038 61"},{"city":"Priekopa","zip":"072 61"},{"city":"Prieloh","zip":"991 02"},{"city":"Priepasn\u00e9","zip":"906 15"},{"city":"Prietr\u017e","zip":"906 11"},{"city":"Prietr\u017eka","zip":"908 49"},{"city":"Prievaly","zip":"906 34"},{"city":"Prievidza","zip":"971 01"},{"city":"Kopanice-Priev. IV","zip":"971 01"},{"city":"Necpaly-Prievid. III","zip":"971 01"},{"city":"P\u00edly - Prievidza II","zip":"971 01"},{"city":"Star\u00e9 Mesto-Priev.","zip":"971 01"},{"city":"\u0160tvrte - Prievidza V","zip":"971 01"},{"city":"Prievrana","zip":"987 01"},{"city":"Prihradzany","zip":"049 14"},{"city":"Pr\u00edkra","zip":"090 05"},{"city":"Primovce","zip":"059 12"},{"city":"Pr\u00edslop","zip":"067 66"},{"city":"Pritu\u013eany","zip":"094 08"},{"city":"Pro\u010d","zip":"082 14"},{"city":"Prochot","zip":"966 04"},{"city":"Prosa\u010dov","zip":"094 31"},{"city":"Prosiek","zip":"032 23"},{"city":"Prosn\u00e9","zip":"018 01"},{"city":"Prostredn\u00e1 M\u00f4l\u010da","zip":"974 01"},{"city":"Prostredn\u00fd H\u00e1mor","zip":"053 76"},{"city":"Pr\u0161a","zip":"985 41"},{"city":"Prusk\u00e9","zip":"018 52"},{"city":"Prusy","zip":"957 03"},{"city":"Pru\u017eina","zip":"018 22"},{"city":"Psiare","zip":"966 53"},{"city":"Pstrin\u00e1","zip":"090 05"},{"city":"P\u0161urnovice","zip":"014 01"},{"city":"Pti\u010die","zip":"067 41"},{"city":"Ptruk\u0161a","zip":"076 77"},{"city":"Pucov","zip":"026 01"},{"city":"P\u00fachov","zip":"020 01"},{"city":"Pukanec","zip":"935 05"},{"city":"Pust\u00e1 Ves","zip":"922 11"},{"city":"Pust\u00e9","zip":"976 52"},{"city":"Pust\u00e9 \u010cemern\u00e9","zip":"072 22"},{"city":"Pust\u00e9 Pole","zip":"065 41"},{"city":"Pust\u00e9 Sady","zip":"925 54"},{"city":"Pust\u00e9 \u00da\u013eany","zip":"925 28"},{"city":"Pust\u00fd Chot\u00e1r","zip":"951 75"},{"city":"Pu\u0161ovce","zip":"082 14"},{"city":"Rab\u010da","zip":"029 44"},{"city":"Rab\u010dice","zip":"029 45"},{"city":"Ra\u010dice","zip":"972 22"},{"city":"Rad","zip":"076 37"},{"city":"Radatice","zip":"082 42"},{"city":"Radava","zip":"941 47"},{"city":"Radimov","zip":"908 47"},{"city":"Radi\u0161a","zip":"956 41"},{"city":"Radnovce","zip":"980 42"},{"city":"Radobica","zip":"972 48"},{"city":"Rado\u013ea","zip":"023 36"},{"city":"Radoma","zip":"090 42"},{"city":"Rado\u0161ina","zip":"956 05"},{"city":"Rado\u0161ovce","zip":"908 63"},{"city":"Rado\u0161ovce","zip":"919 30"},{"city":"Rad\u00f4stka","zip":"023 04"},{"city":"Radva\u0148 nad Dunajom","zip":"946 38"},{"city":"Radva\u0148 nad Laborcom","zip":"067 01"},{"city":"Radvanovce","zip":"094 31"},{"city":"Radzovce","zip":"985 58"},{"city":"Rafajovce","zip":"094 05"},{"city":"Raj\u010dany","zip":"956 32"},{"city":"Rajec","zip":"015 01"},{"city":"Rajeck\u00e1 Lesn\u00e1","zip":"013 15"},{"city":"Rajeck\u00e9 Teplice","zip":"013 13"},{"city":"Rako\u013euby","zip":"916 31"},{"city":"R\u00e1ko\u0161","zip":"049 61"},{"city":"R\u00e1ko\u0161","zip":"044 16"},{"city":"R\u00e1ko\u0161sk\u00e1 Ba\u0148a","zip":"049 61"},{"city":"Rakov\u00e1","zip":"023 51"},{"city":"Rakov\u010d\u00edk","zip":"089 01"},{"city":"Rakovec","zip":"962 65"},{"city":"Rakovec","zip":"053 76"},{"city":"Rakovec","zip":"956 41"},{"city":"Rakovec nad Ondavou","zip":"072 03"},{"city":"Rakovice","zip":"922 08"},{"city":"Rakovnica","zip":"049 31"},{"city":"Rakovo","zip":"038 42"},{"city":"Rak\u0161a","zip":"039 01"},{"city":"Rak\u00fasy","zip":"059 76"},{"city":"Rakytn\u00edk","zip":"980 21"},{"city":"Rankovce","zip":"044 45"},{"city":"Rapovce","zip":"985 31"},{"city":"Raslavice","zip":"086 41"},{"city":"Rasochov","zip":"919 05"},{"city":"Rastice","zip":"930 39"},{"city":"Rastislavice","zip":"941 10"},{"city":"Ra\u0161ice","zip":"982 62"},{"city":"Ra\u0161ov","zip":"013 51"},{"city":"Ratka","zip":"986 01"},{"city":"Ratkov\u00e1","zip":"982 65"},{"city":"Ratkovce","zip":"920 42"},{"city":"Ratkovo","zip":"038 54"},{"city":"Ratkovsk\u00e1 Lehota","zip":"982 65"},{"city":"Ratkovsk\u00e1 Such\u00e1","zip":"982 67"},{"city":"Ratkovsk\u00e1 Zdychava","zip":"982 67"},{"city":"Ratkovsk\u00e9 Bystr\u00e9","zip":"982 66"},{"city":"Ratnovce","zip":"922 31"},{"city":"Ratvaj","zip":"082 66"},{"city":"R\u00e1zto\u010dno","zip":"972 31"},{"city":"R\u00e1ztoka","zip":"018 03"},{"city":"R\u00e1ztoka","zip":"976 97"},{"city":"R\u00e1ztoky","zip":"053 32"},{"city":"R\u00e1ztoky","zip":"013 62"},{"city":"R\u00e1ztoky","zip":"027 05"},{"city":"Ra\u017e\u0148any","zip":"082 61"},{"city":"Reca (\u010d. 380,381,383","zip":"903 01"},{"city":"Reca (ostatn\u00e9 \u010d\u00edsla)","zip":"925 26"},{"city":"Regetovka","zip":"086 33"},{"city":"Rejdov\u00e1","zip":"049 26"},{"city":"Re\u013eov","zip":"059 04"},{"city":"Remata","zip":"972 51"},{"city":"Remeniny","zip":"094 31"},{"city":"Remetsk\u00e9 H\u00e1mre","zip":"072 41"},{"city":"Ren\u010di\u0161ov","zip":"082 63"},{"city":"Rep\u00e1kovci","zip":"913 33"},{"city":"Repejov","zip":"067 04"},{"city":"Repi\u0161te","zip":"966 03"},{"city":"Repi\u0161tia","zip":"982 65"},{"city":"Re\u0161ica","zip":"044 73"},{"city":"Re\u0161ov","zip":"086 21"},{"city":"Revi\u0161n\u00e9","zip":"027 54"},{"city":"Revi\u0161tsk\u00e9 Podz\u00e1m\u010die","zip":"966 81"},{"city":"Rev\u00faca","zip":"050 01"},{"city":"Rev\u00facka Lehota","zip":"049 18"},{"city":"Rev\u00fa\u010dka","zip":"050 01"},{"city":"Ridzina","zip":"072 16"},{"city":"Rie\u010dka","zip":"980 45"},{"city":"Rie\u010dka","zip":"974 01"},{"city":"Rie\u010dka, ul. Nevo\u013en\u00e9","zip":"976 34"},{"city":"Rie\u010dky","zip":"023 22"},{"city":"Rie\u010dnica","zip":"023 05"},{"city":"Richnava","zip":"053 51"},{"city":"Richvald","zip":"085 01"},{"city":"Rimavsk\u00e1 Ba\u0148a","zip":"980 53"},{"city":"Rimavsk\u00e1 P\u00edla","zip":"980 61"},{"city":"Rimavsk\u00e1 Se\u010d","zip":"980 42"},{"city":"Rimavsk\u00e1 Sobota","zip":"979 01"},{"city":"Rimavsk\u00e9 Brezovo","zip":"980 54"},{"city":"Rimavsk\u00e9 Janovce","zip":"980 01"},{"city":"Rimavsk\u00e9 Zalu\u017eany","zip":"980 53"},{"city":"Ri\u0161\u0148ovce","zip":"951 21"},{"city":"Rohov","zip":"906 04"},{"city":"Rohovce","zip":"930 30"},{"city":"Roho\u017enica","zip":"935 34"},{"city":"Roho\u017en\u00edk","zip":"094 07"},{"city":"Roho\u017en\u00edk","zip":"906 38"},{"city":"Rochovce","zip":"049 36"},{"city":"Rojkov","zip":"034 92"},{"city":"Rokycany","zip":"082 41"},{"city":"Rokytov","zip":"086 01"},{"city":"Rokytov pri Humennom","zip":"067 13"},{"city":"Rokytovce","zip":"068 01"},{"city":"Rosina","zip":"013 22"},{"city":"Ro\u0161kovce","zip":"053 02"},{"city":"Ro\u0161kovce","zip":"067 02"},{"city":"Ro\u0161t\u00e1r","zip":"049 35"},{"city":"Rovensko","zip":"905 01"},{"city":"Rovinka","zip":"900 41"},{"city":"Rov\u0148any","zip":"985 24"},{"city":"Rovn\u00e9","zip":"018 03"},{"city":"Rovn\u00e9","zip":"982 67"},{"city":"Rovn\u00e9","zip":"090 16"},{"city":"Rovn\u00e9","zip":"067 32"},{"city":"Rozbehy","zip":"906 33"},{"city":"Rozhanovce","zip":"044 42"},{"city":"Rozina","zip":"937 01"},{"city":"Rozlo\u017en\u00e1","zip":"049 32"},{"city":"Roztoky","zip":"090 11"},{"city":"Rozvadze","zip":"913 11"},{"city":"Ro\u017ekovany","zip":"082 71"},{"city":"Ro\u017e\u0148ava","zip":"048 01"},{"city":"Ro\u017e\u0148avsk\u00e1 Ba\u0148a","zip":"048 01"},{"city":"Ro\u017e\u0148avsk\u00e9 Bystr\u00e9","zip":"049 31"},{"city":"Ro\u017e\u0148ov\u00e1 Neporadza","zip":"913 26"},{"city":"Ro\u017e\u0148ov\u00e9 Mitice","zip":"913 22"},{"city":"R\u00faba\u0148","zip":"941 36"},{"city":"Rudica","zip":"972 48"},{"city":"Rudina","zip":"023 31"},{"city":"Rudinka","zip":"023 31"},{"city":"Rudinsk\u00e1","zip":"023 31"},{"city":"Rudlov","zip":"094 35"},{"city":"Rudn\u00e1","zip":"048 01"},{"city":"Rud\u0148any","zip":"053 23"},{"city":"Rudnianska Lehota","zip":"972 26"},{"city":"Rudn\u00edk","zip":"044 23"},{"city":"Rudn\u00edk","zip":"906 23"},{"city":"Rudno","zip":"038 22"},{"city":"Rudno nad Hronom","zip":"966 51"},{"city":"Rumanov\u00e1","zip":"951 37"},{"city":"Rumince","zip":"980 50"},{"city":"Runina","zip":"067 65"},{"city":"Rusk\u00e1","zip":"076 77"},{"city":"Rusk\u00e1 Bystr\u00e1","zip":"072 64"},{"city":"Rusk\u00e1 Kaj\u0148a","zip":"094 07"},{"city":"Rusk\u00e1 Nov\u00e1 Ves","zip":"080 05"},{"city":"Rusk\u00e1 Poruba","zip":"094 08"},{"city":"Rusk\u00e1 Vo\u013ea","zip":"094 31"},{"city":"Rusk\u00e1 Vo\u013ea n\/Popr.","zip":"065 42"},{"city":"Rusk\u00e1 Volov\u00e1","zip":"067 72"},{"city":"Rusk\u00e9 Pek\u013eany","zip":"082 42"},{"city":"Ruskov","zip":"044 19"},{"city":"Ruskovce","zip":"072 42"},{"city":"Ruskovce","zip":"956 54"},{"city":"Rusk\u00fd Hrabovec","zip":"072 64"},{"city":"Rusk\u00fd Potok","zip":"067 66"},{"city":"Ru\u017ebachy - k\u00fapele","zip":"065 02"},{"city":"Ru\u017ein\u00e1","zip":"985 52"},{"city":"Ru\u017eindol","zip":"919 61"},{"city":"Ru\u017eomberok","zip":"034 06"},{"city":"Ru\u017eomberok","zip":"034 01"},{"city":"Ru\u017eomberok","zip":"034 03"},{"city":"Ru\u017eov\u00e1 dolina","zip":"919 01"},{"city":"Ru\u017eov\u00e1 Osada","zip":"985 42"},{"city":"Rybany","zip":"956 36"},{"city":"Ryb\u00e1re","zip":"962 31"},{"city":"Ryb\u00e1rie","zip":"023 22"},{"city":"Rybky","zip":"906 04"},{"city":"Rybn\u00edk","zip":"982 65"},{"city":"Rybn\u00edk","zip":"935 23"},{"city":"Rybn\u00edky","zip":"916 11"},{"city":"Rych\u0148ava","zip":"969 01"},{"city":"Rykyn\u010dice","zip":"962 55"},{"city":"Sabinov","zip":"083 01"},{"city":"Sabov\u00e1","zip":"979 01"},{"city":"Sa\u010durov","zip":"094 13"},{"city":"S\u00e1do\u010dn\u00e9","zip":"018 16"},{"city":"S\u00e1dok","zip":"958 44"},{"city":"Sady nad Torysou","zip":"044 41"},{"city":"Salajka","zip":"985 03"},{"city":"Salka","zip":"943 61"},{"city":"Salv\u00e1tor","zip":"082 36"},{"city":"Sampor","zip":"962 31"},{"city":"Santovka","zip":"935 87"},{"city":"Sap","zip":"930 06"},{"city":"S\u00e1sa","zip":"930 37"},{"city":"S\u00e1sa","zip":"982 65"},{"city":"S\u00e1sa","zip":"962 62"},{"city":"Sasinkovo","zip":"920 65"},{"city":"Sav\u010dina","zip":"018 52"},{"city":"Sazdice","zip":"935 85"},{"city":"Sebed\u00edn","zip":"974 01"},{"city":"Sebed\u00edn - Be\u010dov","zip":"974 01"},{"city":"Sebedra\u017eie","zip":"972 05"},{"city":"Sebechleby","zip":"962 66"},{"city":"Se\u010d","zip":"972 26"},{"city":"Se\u010dianky","zip":"991 10"},{"city":"Se\u010dovce","zip":"078 01"},{"city":"Se\u010dovsk\u00e1 Polianka","zip":"094 14"},{"city":"Sedliacka Dubov\u00e1","zip":"027 55"},{"city":"Sedlice","zip":"082 43"},{"city":"Sedli\u010dn\u00e1","zip":"913 11"},{"city":"Sedlisk\u00e1","zip":"094 09"},{"city":"Sedmerovec","zip":"018 54"},{"city":"Sejkov","zip":"072 51"},{"city":"Sekule","zip":"908 80"},{"city":"Se\u013eany","zip":"991 27"},{"city":"Selce","zip":"962 51"},{"city":"Selce","zip":"980 13"},{"city":"Selce","zip":"976 11"},{"city":"Selec","zip":"913 36"},{"city":"Sele\u0161ka","zip":"044 71"},{"city":"Sele\u0161\u0165any","zip":"991 06"},{"city":"Selice","zip":"925 72"},{"city":"Semerovo","zip":"941 32"},{"city":"Semete\u0161","zip":"023 55"},{"city":"Se\u0148a","zip":"044 58"},{"city":"Senec","zip":"903 01"},{"city":"Seniakovce","zip":"082 03"},{"city":"Senica","zip":"905 01"},{"city":"Senn\u00e9","zip":"991 01"},{"city":"Senn\u00e9","zip":"072 13"},{"city":"Senohrad","zip":"962 43"},{"city":"Sere\u010f","zip":"926 01"},{"city":"Setechov","zip":"013 53"},{"city":"Sielnica","zip":"962 31"},{"city":"Sigord","zip":"082 52"},{"city":"Siheln\u00e9","zip":"029 46"},{"city":"Sihla","zip":"976 53"},{"city":"Sikenica","zip":"937 01"},{"city":"Sikeni\u010dka","zip":"943 59"},{"city":"Sila","zip":"951 24"},{"city":"Siladice","zip":"920 52"},{"city":"Silica","zip":"049 52"},{"city":"Silick\u00e1 Brezov\u00e1","zip":"049 11"},{"city":"Silick\u00e1 Jablonica","zip":"049 43"},{"city":"Sirk","zip":"049 64"},{"city":"Sirn\u00edk","zip":"076 03"},{"city":"Sitnianska","zip":"969 01"},{"city":"Sitnianska Leh\u00f4tka","zip":"962 65"},{"city":"Sitn\u00edk","zip":"091 01"},{"city":"Ska\u010dany","zip":"958 53"},{"city":"Skala","zip":"913 31"},{"city":"Skalica","zip":"976 81"},{"city":"Skalica","zip":"909 01"},{"city":"Skalit\u00e9","zip":"023 14"},{"city":"Skalka nad V\u00e1hom","zip":"913 31"},{"city":"Skalsk\u00e1 Nov\u00e1 Ves","zip":"913 31"},{"city":"Sk\u00e1ro\u0161","zip":"044 11"},{"city":"Skere\u0161ovo","zip":"982 62"},{"city":"Sklabin\u00e1","zip":"991 05"},{"city":"Sklabi\u0148a","zip":"038 03"},{"city":"Sklabinsk\u00fd Podz\u00e1mok","zip":"038 03"},{"city":"Sklen\u00e9","zip":"038 47"},{"city":"Sklen\u00e9 Teplice","zip":"966 03"},{"city":"Skliarovo","zip":"962 12"},{"city":"Skrabsk\u00e9","zip":"094 33"},{"city":"Sk\u00fdcov","zip":"951 85"},{"city":"Sl\u00e1dkovi\u010dovo","zip":"925 21"},{"city":"Slan\u00e1 Lehota","zip":"987 01"},{"city":"Slan\u010d\u00edk","zip":"044 17"},{"city":"Slanec","zip":"962 05"},{"city":"Slanec","zip":"044 17"},{"city":"Slanick\u00e1 Osada","zip":"029 01"},{"city":"Slansk\u00e1 Huta","zip":"044 17"},{"city":"Slansk\u00e9 Nov\u00e9 Mesto","zip":"044 18"},{"city":"Slask\u00e1","zip":"966 22"},{"city":"Slatina","zip":"935 84"},{"city":"Slatina nad Bebravou","zip":"956 53"},{"city":"Slatinka","zip":"962 01"},{"city":"Slatinka n\/Bebravou","zip":"956 53"},{"city":"Slatinsk\u00e9 Lazy","zip":"962 25"},{"city":"Slatvina","zip":"053 61"},{"city":"Slavec","zip":"049 11"},{"city":"Slavkovce","zip":"072 17"},{"city":"Slavnica","zip":"018 54"},{"city":"Slavo\u0161ka","zip":"049 34"},{"city":"Slavo\u0161ovce","zip":"049 36"},{"city":"S\u013ea\u017eany","zip":"951 71"},{"city":"Slep\u010dany","zip":"951 52"},{"city":"Slia\u010d","zip":"962 31"},{"city":"Slia\u010d - k\u00fapele","zip":"962 31"},{"city":"Slia\u010dska Podpo\u013eana","zip":"962 25"},{"city":"Sliepkovce","zip":"072 37"},{"city":"Slivn\u00edk","zip":"076 12"},{"city":"Slizk\u00e9","zip":"980 23"},{"city":"Slopkov","zip":"013 54"},{"city":"Slopn\u00e1","zip":"018 21"},{"city":"Slovany","zip":"038 43"},{"city":"Slovensk\u00e1 Kaj\u0148a","zip":"094 02"},{"city":"Slovensk\u00e1 \u013dup\u010da","zip":"976 13"},{"city":"Slovensk\u00e1 Nov\u00e1 Ves","zip":"919 42"},{"city":"Slovensk\u00e1 Ves","zip":"059 02"},{"city":"Slovensk\u00e1 Volov\u00e1","zip":"067 22"},{"city":"Slovensk\u00e9 \u010earmoty","zip":"991 07"},{"city":"Slovensk\u00e9 K\u013ea\u010dany","zip":"991 02"},{"city":"Slovensk\u00e9 Kriv\u00e9","zip":"067 13"},{"city":"Slovensk\u00e9 Nov\u00e9 Mesto","zip":"076 33"},{"city":"Slovensk\u00e9 Pole","zip":"925 41"},{"city":"Slovensk\u00e9 Pravno","zip":"038 22"},{"city":"Slovensk\u00fd Grob","zip":"900 26"},{"city":"Slovinky","zip":"053 40"},{"city":"Smilno","zip":"086 33"},{"city":"Smi\u017eany","zip":"053 11"},{"city":"Smolenice","zip":"919 04"},{"city":"Smolenick\u00e1 Nov\u00e1 Ves","zip":"919 04"},{"city":"Smolinsk\u00e9","zip":"908 42"},{"city":"Smoln\u00edcka Huta","zip":"055 65"},{"city":"Smoln\u00edk","zip":"055 66"},{"city":"Smrd\u00e1ky","zip":"906 03"},{"city":"Smre\u010dany","zip":"032 05"},{"city":"Snakov","zip":"086 06"},{"city":"Sne\u017enica","zip":"023 32"},{"city":"Snina","zip":"069 01"},{"city":"Snohy","zip":"962 05"},{"city":"Soblahov","zip":"913 38"},{"city":"Sobo\u0161","zip":"090 42"},{"city":"Soboti\u0161te","zip":"906 05"},{"city":"Sob\u00f4tka","zip":"979 01"},{"city":"Sobrance","zip":"073 01"},{"city":"Sobraneck\u00e9 K\u00fapele","zip":"073 01"},{"city":"Socovce","zip":"038 43"},{"city":"Soko\u013e","zip":"044 31"},{"city":"Soko\u013eany","zip":"044 57"},{"city":"Sokolce","zip":"946 17"},{"city":"Sokolce - l\u00faky","zip":"946 14"},{"city":"Sokoln\u00edky","zip":"951 46"},{"city":"Sokolovce","zip":"922 31"},{"city":"So\u013e","zip":"094 35"},{"city":"Sol\u010dany","zip":"956 17"},{"city":"Sol\u010dianky","zip":"956 38"},{"city":"Solka","zip":"972 13"},{"city":"So\u013en\u00e9","zip":"013 62"},{"city":"So\u013eni\u010dka","zip":"076 53"},{"city":"So\u013en\u00edk","zip":"090 31"},{"city":"Solo\u0161nica","zip":"906 37"},{"city":"Somorova Ves","zip":"972 25"},{"city":"Somotor","zip":"076 35"},{"city":"Sopkovce","zip":"067 22"},{"city":"Sotina","zip":"905 01"},{"city":"Spi\u0161sk\u00e1 Bel\u00e1","zip":"059 01"},{"city":"Spi\u0161sk\u00e1 Nov\u00e1 Ves","zip":"052 01"},{"city":"Spi\u0161sk\u00e1 Nov\u00e1 Ves","zip":"052 05"},{"city":"Spi\u0161sk\u00e1 Nov\u00e1 Ves","zip":"053 31"},{"city":"Spi\u0161sk\u00e1 Sobota","zip":"058 01"},{"city":"Spi\u0161sk\u00e1 Star\u00e1 Ves","zip":"061 01"},{"city":"Spi\u0161sk\u00e1 Teplica","zip":"059 34"},{"city":"Spi\u0161sk\u00e9 Bystr\u00e9","zip":"059 18"},{"city":"Spi\u0161sk\u00e9 Hanu\u0161ovce","zip":"059 04"},{"city":"Spi\u0161sk\u00e9 Podhradie","zip":"053 04"},{"city":"Spi\u0161sk\u00e9 Tom\u00e1\u0161ovce","zip":"052 01"},{"city":"Spi\u0161sk\u00e9 Vlachy","zip":"053 61"},{"city":"Spi\u0161sk\u00fd Hrhov","zip":"053 02"},{"city":"Spi\u0161sk\u00fd Hru\u0161ov","zip":"053 63"},{"city":"Spi\u0161sk\u00fd \u0160tiavnik","zip":"059 14"},{"city":"Spi\u0161sk\u00fd \u0160tvrtok","zip":"053 14"},{"city":"Sr\u0148acie","zip":"026 01"},{"city":"Stak\u010d\u00edn","zip":"067 61"},{"city":"Stak\u010d\u00ednska Roztoka","zip":"067 61"},{"city":"Stan\u00e1kov\u00e1","zip":"972 28"},{"city":"Stan\u010da","zip":"076 16"},{"city":"Stankovany","zip":"034 92"},{"city":"Stankovce","zip":"072 21"},{"city":"Stankovce","zip":"076 61"},{"city":"Star\u00e1 Ba\u0161ta","zip":"980 34"},{"city":"Star\u00e1 Bystrica","zip":"023 04"},{"city":"Star\u00e1 Gala","zip":"930 34"},{"city":"Star\u00e1 Hali\u010d","zip":"985 11"},{"city":"Star\u00e1 Huta","zip":"968 01"},{"city":"Star\u00e1 Huta","zip":"962 25"},{"city":"Star\u00e1 Kremni\u010dka","zip":"965 01"},{"city":"Star\u00e1 Lehota","zip":"916 35"},{"city":"Star\u00e1 Lesn\u00e1","zip":"059 52"},{"city":"Star\u00e1 \u013dubov\u0148a","zip":"064 01"},{"city":"Star\u00e1 Myjava","zip":"907 01"},{"city":"Star\u00e1 Tur\u00e1","zip":"916 01"},{"city":"Star\u00e1 Voda","zip":"053 34"},{"city":"Star\u00e9","zip":"072 23"},{"city":"Star\u00e9 Hory","zip":"976 02"},{"city":"Starina","zip":"065 46"},{"city":"Star\u0148a","zip":"982 01"},{"city":"Star\u00fd Hr\u00e1dok","zip":"935 56"},{"city":"Star\u00fd Tekov","zip":"935 26"},{"city":"Sta\u0161kov","zip":"023 53"},{"city":"Sta\u0161kovce","zip":"090 23"},{"city":"Stebn\u00edcka Huta","zip":"086 33"},{"city":"Stebn\u00edk","zip":"086 33"},{"city":"Stole\u010dn\u00e9","zip":"013 32"},{"city":"Stole\u010dn\u00e9","zip":"018 03"},{"city":"Stotince","zip":"059 94"},{"city":"Sto\u017eok","zip":"962 12"},{"city":"Str\u00e1\u0148any","zip":"065 33"},{"city":"Str\u00e1\u0148avy","zip":"013 25"},{"city":"Str\u00e1ne pod Tatrami","zip":"059 76"},{"city":"Str\u00e1nska","zip":"982 51"},{"city":"Str\u00e1nske","zip":"013 13"},{"city":"Straten\u00e1","zip":"049 71"},{"city":"Str\u00e1\u017ea","zip":"013 04"},{"city":"Str\u00e1\u017ee nad Myjavou","zip":"908 41"},{"city":"Str\u00e1\u017ee pod Tatrami","zip":"058 01"},{"city":"Str\u00e1\u017eky","zip":"059 01"},{"city":"Str\u00e1\u017ene","zip":"076 52"},{"city":"Str\u00e1\u017eske","zip":"072 22"},{"city":"Stre\u010dno","zip":"013 24"},{"city":"Streda nad Bodrogom","zip":"076 31"},{"city":"Stredn\u00e1 Rev\u00faca","zip":"034 74"},{"city":"Stredn\u00e9 Plachtince","zip":"991 24"},{"city":"Stredn\u00e9 Turovce","zip":"935 81"},{"city":"Stredn\u00fd Slia\u010d","zip":"034 84"},{"city":"Strekov","zip":"941 37"},{"city":"Strelenka","zip":"020 54"},{"city":"Strelnice","zip":"982 62"},{"city":"Streln\u00edky","zip":"976 55"},{"city":"Stretava","zip":"072 13"},{"city":"Stretavka","zip":"072 13"},{"city":"Stre\u017eenice","zip":"020 01"},{"city":"Strie\u017eovce","zip":"980 25"},{"city":"Strihovce","zip":"067 73"},{"city":"Stro\u010d\u00edn","zip":"089 01"},{"city":"Stropkov","zip":"091 01"},{"city":"Studen\u00e1","zip":"980 34"},{"city":"Studen\u00e9","zip":"900 46"},{"city":"Studenec","zip":"972 28"},{"city":"Studenec","zip":"053 04"},{"city":"Studienka","zip":"908 75"},{"city":"Studni\u010dn\u00e1","zip":"034 96"},{"city":"Stu\u013eany","zip":"086 43"},{"city":"Stupava","zip":"900 31"},{"city":"Stupn\u00e9","zip":"018 12"},{"city":"Su\u010dany","zip":"038 52"},{"city":"Sudince","zip":"962 71"},{"city":"S\u00fadovce","zip":"962 71"},{"city":"Such\u00e1","zip":"090 23"},{"city":"Such\u00e1 Dolina","zip":"082 43"},{"city":"Such\u00e1 Hora","zip":"027 13"},{"city":"Such\u00e1 nad Parnou","zip":"919 01"},{"city":"Such\u00e1\u0148","zip":"991 35"},{"city":"Such\u00e9","zip":"071 01"},{"city":"Such\u00e9 Brezovo","zip":"991 03"},{"city":"Suchohrad","zip":"900 64"},{"city":"Sukov","zip":"067 02"},{"city":"Su\u013eany","zip":"951 25"},{"city":"Sul\u00edn","zip":"065 46"},{"city":"S\u00fa\u013eov","zip":"013 52"},{"city":"S\u00falovce","zip":"956 14"},{"city":"S\u00fa\u0161","zip":"916 01"},{"city":"Su\u0161any","zip":"980 12"},{"city":"S\u00fator","zip":"980 01"},{"city":"Svar\u00edn","zip":"032 33"},{"city":"Sv\u00e4t\u00e1 M\u00e1ria","zip":"076 35"},{"city":"Sv\u00e4toplukovo","zip":"951 16"},{"city":"Sv\u00e4tu\u0161","zip":"072 55"},{"city":"Sv\u00e4tu\u0161a","zip":"941 48"},{"city":"Sv\u00e4tu\u0161e","zip":"076 83"},{"city":"Sv\u00e4t\u00fd Anton","zip":"969 72"},{"city":"Sv\u00e4t\u00fd Jur","zip":"900 21"},{"city":"Sv\u00e4t\u00fd Kr\u00ed\u017e","zip":"935 25"},{"city":"Sv\u00e4t\u00fd Kr\u00ed\u017e","zip":"032 11"},{"city":"Sv\u00e4t\u00fd Martin","zip":"903 01"},{"city":"Sv\u00e4t\u00fd Peter","zip":"946 57"},{"city":"Svedern\u00edk","zip":"013 32"},{"city":"Sverepec","zip":"017 01"},{"city":"Sver\u017eov","zip":"086 02"},{"city":"Svetl\u00e1","zip":"980 52"},{"city":"Svetlice","zip":"067 16"},{"city":"Svidni\u010dka","zip":"090 02"},{"city":"Svidn\u00edk","zip":"089 01"},{"city":"Svinia","zip":"082 32"},{"city":"Svinica","zip":"044 45"},{"city":"Svinice","zip":"076 37"},{"city":"Svinn\u00e1","zip":"913 24"},{"city":"Svit","zip":"059 21"},{"city":"Svod\u00edn","zip":"943 54"},{"city":"Svodov","zip":"937 01"},{"city":"Svrbice","zip":"956 06"},{"city":"Svr\u010dinovec","zip":"023 12"},{"city":"Sykavka","zip":"053 76"},{"city":"\u0160ahy","zip":"936 01"},{"city":"\u0160ajby","zip":"972 41"},{"city":"\u0160ajd\u00edkove Humence","zip":"906 07"},{"city":"\u0160a\u013ea","zip":"927 01"},{"city":"\u0160a\u013ea","zip":"927 05"},{"city":"\u0160a\u013ea","zip":"925 83"},{"city":"\u0160algo\u010dka","zip":"925 54"},{"city":"\u0160algovce","zip":"956 06"},{"city":"\u0160alov","zip":"935 71"},{"city":"\u0160ambron","zip":"065 45"},{"city":"\u0160amor\u00edn","zip":"931 01"},{"city":"\u0160amudovce","zip":"072 01"},{"city":"\u0160ance","zip":"916 42"},{"city":"\u0160andal","zip":"091 01"},{"city":"\u0160\u00e1ndorhalma","zip":"935 33"},{"city":"\u0160ankovce","zip":"982 62"},{"city":"\u0160apinec","zip":"090 42"},{"city":"\u0160\u00e1ra","zip":"985 32"},{"city":"\u0160arbov","zip":"090 05"},{"city":"\u0160ari\u0161sk\u00e1 Poruba","zip":"082 12"},{"city":"\u0160ari\u0161sk\u00e1 Trsten\u00e1","zip":"082 14"},{"city":"\u0160ari\u0161sk\u00e9 Bohdanovce","zip":"082 05"},{"city":"\u0160ari\u0161sk\u00e9 \u010cierne","zip":"086 37"},{"city":"\u0160ari\u0161sk\u00e9 Dravce","zip":"082 73"},{"city":"\u0160ari\u0161sk\u00e9 Jastrabie","zip":"065 48"},{"city":"\u0160ari\u0161sk\u00e9 L\u00faky","zip":"080 06"},{"city":"\u0160ari\u0161sk\u00e9 Lu\u017eianky","zip":"082 32"},{"city":"\u0160ari\u0161sk\u00e9 Micha\u013eany","zip":"082 22"},{"city":"\u0160ari\u0161sk\u00e9 Sokolovce","zip":"082 66"},{"city":"\u0160ari\u0161sk\u00fd \u0160tiavnik","zip":"090 42"},{"city":"\u0160arkan","zip":"943 42"},{"city":"\u0160arovce","zip":"935 52"},{"city":"\u0160a\u0161ov\u00e1","zip":"086 12"},{"city":"\u0160\u00e1\u0161ovsk\u00e9 Podhradie","zip":"965 01"},{"city":"\u0160a\u0161t\u00edn","zip":"908 41"},{"city":"\u0160a\u0161t\u00edn - Str\u00e1\u017ee","zip":"908 41"},{"city":"\u0160\u00e1vo\u013e","zip":"985 41"},{"city":"\u0160elpice","zip":"919 09"},{"city":"\u0160emetkovce","zip":"090 03"},{"city":"\u0160em\u0161a","zip":"044 21"},{"city":"\u0160enkvice","zip":"900 81"},{"city":"\u0160iatorsk\u00e1 Bukovinka","zip":"985 58"},{"city":"\u0160iba","zip":"086 22"},{"city":"\u0160\u00edd","zip":"986 01"},{"city":"\u0160imonovce","zip":"980 03"},{"city":"\u0160indliar","zip":"082 36"},{"city":"\u0160intava","zip":"925 51"},{"city":"\u0160ipice","zip":"962 68"},{"city":"\u0160\u00edpkov","zip":"956 53"},{"city":"\u0160\u00edpkov\u00e9","zip":"922 03"},{"city":"\u0160ipo\u0161ovsk\u00e9 Kra\u010dany","zip":"930 03"},{"city":"\u0160ir\u00e1kov","zip":"991 27"},{"city":"\u0160irkovce","zip":"980 02"},{"city":"\u0160irok\u00e1","zip":"027 41"},{"city":"\u0160irok\u00e9","zip":"082 37"},{"city":"\u0160i\u0161ov","zip":"956 38"},{"city":"\u0160ivetice","zip":"049 14"},{"city":"\u0160koruby","zip":"013 54"},{"city":"\u0160kriavnik","zip":"991 25"},{"city":"\u0160kr\u00edpov","zip":"972 28"},{"city":"\u0160migovec","zip":"067 73"},{"city":"\u0160olt\u00fdska","zip":"985 07"},{"city":"\u0160opor\u0148a","zip":"925 52"},{"city":"\u0160pa\u010dince","zip":"919 51"},{"city":"\u0160pania Dolina","zip":"974 01"},{"city":"\u0160panie Pole","zip":"980 23"},{"city":"\u0160rob\u00e1rov\u00e1","zip":"946 32"},{"city":"\u0160t\u00e1le","zip":"968 01"},{"city":"\u0160tefan","zip":"941 37"},{"city":"\u0160tefanov","zip":"906 45"},{"city":"\u0160tefanov nad Oravou","zip":"027 44"},{"city":"\u0160tefanov\u00e1","zip":"900 86"},{"city":"\u0160tefanovce","zip":"082 35"},{"city":"\u0160tefanovce","zip":"094 01"},{"city":"\u0160tefanovi\u010dov\u00e1","zip":"951 15"},{"city":"\u0160tefansk\u00e1 Huta","zip":"053 51"},{"city":"\u0160tefultov","zip":"969 01"},{"city":"\u0160tefurov","zip":"090 42"},{"city":"\u0160terusy","zip":"922 03"},{"city":"\u0160tiavnick\u00e9 Bane","zip":"969 81"},{"city":"\u0160tiavni\u010dka","zip":"976 81"},{"city":"\u0160tiavni\u010dka","zip":"034 01"},{"city":"\u0160tiavnik","zip":"013 55"},{"city":"\u0160tiefleje","zip":"972 48"},{"city":"\u0160tit\u00e1re","zip":"951 01"},{"city":"\u0160t\u00edtnik","zip":"049 32"},{"city":"\u0160toliansko","zip":"962 05"},{"city":"\u0160t\u00f3s","zip":"044 26"},{"city":"\u0160t\u00f3s - k\u00fapele","zip":"044 26"},{"city":"\u0160t\u00f4la","zip":"059 37"},{"city":"\u0160trba","zip":"059 38"},{"city":"\u0160trba","zip":"059 41"},{"city":"Tatransk\u00e1 \u0160trba","zip":"059 41"},{"city":"\u0160trkovec","zip":"925 52"},{"city":"\u0160trkovec","zip":"980 45"},{"city":"\u0160tubne","zip":"976 02"},{"city":"\u0160t\u00farov\u00e1","zip":"946 13"},{"city":"\u0160t\u00farovo","zip":"943 01"},{"city":"\u0160tvrtok","zip":"913 05"},{"city":"\u0160tvrtok na Ostrove","zip":"930 40"},{"city":"\u0160uja","zip":"015 01"},{"city":"\u0160u\u013ea","zip":"991 01"},{"city":"\u0160u\u013eany","zip":"930 33"},{"city":"\u0160umiac","zip":"976 71"},{"city":"\u0160u\u0148ava","zip":"059 39"},{"city":"\u0160urany","zip":"942 01"},{"city":"\u0160urianky","zip":"951 26"},{"city":"\u0160urice","zip":"980 33"},{"city":"\u0160\u00farovce","zip":"919 25"},{"city":"\u0160utovce","zip":"972 01"},{"city":"\u0160\u00fatovo","zip":"038 54"},{"city":"\u0160v\u00e1bolka","zip":"976 69"},{"city":"\u0160v\u00e1bovce","zip":"059 11"},{"city":"\u0160v\u00e1bovce","zip":"059 12"},{"city":"\u0160vedl\u00e1r","zip":"053 34"},{"city":"\u0160vo\u0161ov","zip":"034 91"},{"city":"\u0160vr\u010dkov Jarok","zip":"906 05"},{"city":"\u0164ahy\u0148a","zip":"072 14"},{"city":"Tachty","zip":"980 34"},{"city":"Tajn\u00e1","zip":"952 01"},{"city":"Tajov","zip":"976 34"},{"city":"Ta\u013eka","zip":"082 12"},{"city":"Tane\u010dn\u00edk","zip":"029 57"},{"city":"\u0164ape\u0161ovo","zip":"029 51"},{"city":"\u0164apkov\u00e9","zip":"922 08"},{"city":"Tarnov","zip":"086 01"},{"city":"Ta\u0161u\u013ea","zip":"072 52"},{"city":"Tatransk\u00e1 Javorina","zip":"059 56"},{"city":"Tehla","zip":"935 35"},{"city":"Tekol\u010fany","zip":"920 62"},{"city":"Tekovsk\u00e1 Breznica","zip":"966 52"},{"city":"Tekovsk\u00e1 Nov\u00e1 Ves","zip":"935 25"},{"city":"Tekovsk\u00e9 Lu\u017eany","zip":"935 41"},{"city":"Tekovsk\u00e9 Nemce","zip":"966 54"},{"city":"Tekovsk\u00fd Hr\u00e1dok","zip":"935 51"},{"city":"Telg\u00e1rt","zip":"976 73"},{"city":"Telince","zip":"951 61"},{"city":"Teme\u0161","zip":"972 29"},{"city":"Tepl\u00e1","zip":"969 82"},{"city":"Tepli\u010dany","zip":"044 31"},{"city":"Tepli\u010dka","zip":"052 01"},{"city":"Tepli\u010dka nad V\u00e1hom","zip":"013 01"},{"city":"Tepli\u010dky","zip":"920 66"},{"city":"Tepl\u00fd Vrch","zip":"980 23"},{"city":"Terany","zip":"962 68"},{"city":"Terchov\u00e1","zip":"013 06"},{"city":"Teriakovce","zip":"080 05"},{"city":"Ter\u0148a","zip":"082 67"},{"city":"Tes\u00e1re","zip":"956 21"},{"city":"Tes\u00e1re nad \u017ditavou","zip":"951 76"},{"city":"Tes\u00e1rske Mly\u0148any","zip":"951 76"},{"city":"Te\u0161ed\u00edkovo","zip":"925 82"},{"city":"Te\u0161m\u00e1k","zip":"936 01"},{"city":"Tiba","zip":"049 12"},{"city":"Tibava","zip":"073 01"},{"city":"Tich\u00e1 Voda","zip":"053 33"},{"city":"Tich\u00fd Potok","zip":"082 74"},{"city":"Timoradza","zip":"956 52"},{"city":"Tisinec","zip":"091 01"},{"city":"Tisovec","zip":"980 61"},{"city":"Tlma\u010de","zip":"935 21"},{"city":"Tlst\u00e1 Hora","zip":"018 54"},{"city":"T\u00f6b\u00f6r\u00e9te","zip":"929 01"},{"city":"To\u010dnica","zip":"985 22"},{"city":"Tokaj\u00edk","zip":"090 34"},{"city":"Tom\u00e1\u0161ikovo","zip":"925 04"},{"city":"Tom\u00e1\u0161ov","zip":"900 44"},{"city":"Tom\u00e1\u0161ovce","zip":"980 21"},{"city":"Tom\u00e1\u0161ovce","zip":"985 56"},{"city":"Tonkovce","zip":"930 38"},{"city":"Topo\u013ea","zip":"067 65"},{"city":"Topo\u013eany","zip":"071 01"},{"city":"Topo\u013e\u010dany","zip":"955 01"},{"city":"Topo\u013e\u010dany","zip":"955 03"},{"city":"Topo\u013e\u010dianky","zip":"951 93"},{"city":"Topoleck\u00e1","zip":"916 01"},{"city":"Topo\u013enica","zip":"925 92"},{"city":"Topo\u013en\u00edky","zip":"930 11"},{"city":"Topo\u013eovka","zip":"067 45"},{"city":"Toporec","zip":"059 95"},{"city":"Torna\u013ea","zip":"982 01"},{"city":"Torysa","zip":"082 76"},{"city":"Torysky","zip":"053 71"},{"city":"Tovarn\u00e9","zip":"094 01"},{"city":"Tovarnian.Polianka","zip":"094 01"},{"city":"Tovarn\u00edky","zip":"955 01"},{"city":"T\u00f4\u0148","zip":"946 15"},{"city":"Trakovice","zip":"919 33"},{"city":"Tr\u00e1vnica","zip":"941 46"},{"city":"Tr\u00e1vnik","zip":"946 19"},{"city":"Trebatice","zip":"922 10"},{"city":"Trebejov","zip":"044 81"},{"city":"Trebe\u013eovce","zip":"985 31"},{"city":"Trebichava","zip":"956 53"},{"city":"Trebi\u0161ov","zip":"075 01"},{"city":"Trebostovo","zip":"038 41"},{"city":"Trebu\u0161ovce","zip":"991 27"},{"city":"Tren\u010d","zip":"985 32"},{"city":"Tren\u010dianska Tepl\u00e1","zip":"914 01"},{"city":"Tren\u010dianska Turn\u00e1","zip":"913 21"},{"city":"Tren\u010dianska Z\u00e1vada","zip":"914 41"},{"city":"Tren\u010d.Bohuslavice","zip":"913 07"},{"city":"Tren\u010d.Jastrabie","zip":"913 22"},{"city":"Tren\u010dianske Mitice","zip":"913 22"},{"city":"Tren\u010d.Stankovce","zip":"913 11"},{"city":"Tren\u010dianske Teplice","zip":"914 51"},{"city":"Tren\u010d\u00edn","zip":"911 01"},{"city":"Tren\u010d\u00edn","zip":"911 05"},{"city":"Tren\u010d\u00edn","zip":"911 08"},{"city":"Tren\u010d\u00edn","zip":"911 06"},{"city":"Trhov\u00e1 Hradsk\u00e1","zip":"930 13"},{"city":"Trhovi\u0161te","zip":"072 04"},{"city":"Trhy\u0148a","zip":"937 01"},{"city":"Trnava","zip":"917 01"},{"city":"Trnava","zip":"917 08"},{"city":"Trnava","zip":"917 02"},{"city":"Trnava","zip":"917 05"},{"city":"Trnava","zip":"919 34"},{"city":"Trnava","zip":"919 61"},{"city":"Trnav\u00e1 Hora","zip":"966 11"},{"city":"Trnava pri Laborci","zip":"072 31"},{"city":"Trn\u00e1vka","zip":"913 33"},{"city":"Trn\u00e1vka","zip":"930 32"},{"city":"Trn\u00e1vka","zip":"078 01"},{"city":"T\u0155nie","zip":"962 34"},{"city":"Trnkov","zip":"082 12"},{"city":"Trnovec","zip":"908 51"},{"city":"Trnovec nad V\u00e1hom","zip":"925 71"},{"city":"Trnovo","zip":"038 41"},{"city":"Tro\u010dany","zip":"086 41"},{"city":"Troja\u010dka","zip":"023 56"},{"city":"Trp\u00edn","zip":"962 44"},{"city":"Trs\u0165any","zip":"053 63"},{"city":"Trs\u0165any","zip":"044 45"},{"city":"Trsten\u00e1","zip":"028 01"},{"city":"Trsten\u00e1 na Ostrove","zip":"930 04"},{"city":"Trsten\u00e9","zip":"032 21"},{"city":"Trsten\u00e9 pri Horn\u00e1de","zip":"044 11"},{"city":"Trstice","zip":"925 42"},{"city":"T\u0155stie","zip":"018 22"},{"city":"Trst\u00edn","zip":"919 05"},{"city":"Trub\u00edn","zip":"966 23"},{"city":"Tuh\u00e1r","zip":"985 12"},{"city":"Tuhrina","zip":"082 07"},{"city":"Tuchy\u0148a","zip":"018 55"},{"city":"Tul\u010d\u00edk","zip":"082 13"},{"city":"Tune\u017eice","zip":"018 63"},{"city":"Tup\u00e1","zip":"935 84"},{"city":"Tur\u00e1","zip":"935 51"},{"city":"Tur\u00e1 L\u00faka","zip":"907 03"},{"city":"Turany","zip":"038 53"},{"city":"Turany nad Ondavou","zip":"090 33"},{"city":"Turcovce","zip":"067 23"},{"city":"Tur\u010dek","zip":"038 48"},{"city":"Tur\u010dianky","zip":"958 44"},{"city":"Tur\u010d.\u0160tiavni\u010dka","zip":"038 51"},{"city":"Tur\u010dianske Jaseno","zip":"038 02"},{"city":"Tur\u010dianske K\u013ea\u010dany","zip":"038 61"},{"city":"Tur\u010dianske Teplice","zip":"039 01"},{"city":"Tur\u010diansky \u010eur","zip":"038 43"},{"city":"Tur\u010diansky Michal","zip":"039 01"},{"city":"Tur\u010diansky Peter","zip":"038 41"},{"city":"Tur\u010dok","zip":"049 18"},{"city":"Tureck\u00e1","zip":"976 02"},{"city":"Ture\u0148","zip":"903 01"},{"city":"Tur\u00ed\u010dky","zip":"985 22"},{"city":"Turie","zip":"013 12"},{"city":"Tur\u00edk","zip":"034 83"},{"city":"Turkov","zip":"023 54"},{"city":"Tur\u0148a nad Bodvou","zip":"044 02"},{"city":"Turnianska Nov\u00e1 Ves","zip":"044 02"},{"city":"Turov\u00e1","zip":"962 34"},{"city":"Turzovka","zip":"023 54"},{"city":"Tu\u0161ice","zip":"072 02"},{"city":"Tu\u0161ick\u00e1 Nov\u00e1 Ves","zip":"072 02"},{"city":"Tu\u017eina","zip":"972 14"},{"city":"Tvaro\u017en\u00e1","zip":"032 23"},{"city":"Tvaro\u017en\u00e1","zip":"059 71"},{"city":"Tvrdomestice","zip":"956 22"},{"city":"Tvrdo\u0161\u00edn","zip":"027 44"},{"city":"Tvrdo\u0161ovce","zip":"941 10"},{"city":"U Hol\u00fdch","zip":"023 11"},{"city":"U K\u013eukov","zip":"023 11"},{"city":"U Kordi\u0161ov","zip":"023 11"},{"city":"U Polievkov","zip":"023 11"},{"city":"U Rulcov","zip":"023 11"},{"city":"Ub\u013ea","zip":"067 73"},{"city":"\u00dabre\u017e","zip":"072 42"},{"city":"Udavsk\u00e9","zip":"067 31"},{"city":"Uderin\u00e1","zip":"985 54"},{"city":"Udi\u010da","zip":"018 01"},{"city":"Udi\u010dka","zip":"018 03"},{"city":"\u00dadol","zip":"065 45"},{"city":"Uhlisk\u00e1","zip":"935 05"},{"city":"\u00dahorn\u00e1","zip":"055 66"},{"city":"Uhorsk\u00e1 Ves","zip":"032 03"},{"city":"Uhorsk\u00e9","zip":"985 25"},{"city":"Uhrovec","zip":"956 41"},{"city":"Uhrovsk\u00e9 Podhradie","zip":"956 41"},{"city":"\u00dajazd","zip":"913 31"},{"city":"\u00da\u013eany nad \u017ditavou","zip":"941 03"},{"city":"Uli\u010d","zip":"067 67"},{"city":"Uli\u010dsk\u00e9 Kriv\u00e9","zip":"067 67"},{"city":"Ulo\u017ea","zip":"053 71"},{"city":"U\u0148at\u00edn","zip":"962 41"},{"city":"Un\u00edn","zip":"908 46"},{"city":"Upohlav","zip":"018 01"},{"city":"\u00dapor","zip":"076 16"},{"city":"Urmince","zip":"956 02"},{"city":"\u00dastie nad Priehradou","zip":"028 01"},{"city":"\u00dasvit","zip":"059 11"},{"city":"Utek\u00e1\u010d","zip":"985 06"},{"city":"Uzovce","zip":"082 66"},{"city":"Uzovsk\u00e1 Panica","zip":"980 22"},{"city":"Uzovsk\u00e9 Pek\u013eany","zip":"082 63"},{"city":"Uzovsk\u00fd \u0160algov","zip":"082 61"},{"city":"Va\u010fovce","zip":"916 13"},{"city":"Vagrinec","zip":"090 03"},{"city":"V\u00e1hovce","zip":"925 62"},{"city":"Vajka nad \u017ditavou","zip":"951 88"},{"city":"Vajkovce","zip":"044 43"},{"city":"Vajskov\u00e1","zip":"976 98"},{"city":"Valaliky","zip":"044 13"},{"city":"Valask\u00e1","zip":"976 46"},{"city":"Valask\u00e1","zip":"976 81"},{"city":"Valask\u00e1 Bel\u00e1","zip":"972 28"},{"city":"Valask\u00e1 Dubov\u00e1","zip":"034 96"},{"city":"Vala\u0161kovce","zip":"067 83"},{"city":"Val\u010da","zip":"038 35"},{"city":"Valentov\u00e1","zip":"038 43"},{"city":"Valentov\u00e1","zip":"976 02"},{"city":"Valentovce","zip":"067 01"},{"city":"Valice","zip":"982 52"},{"city":"Valkovce","zip":"090 42"},{"city":"Va\u013ekov\u0148a","zip":"976 69"},{"city":"Va\u013ekovo","zip":"985 03"},{"city":"Vani\u0161kovce","zip":"086 41"},{"city":"Va\u0148ovka","zip":"029 52"},{"city":"V\u00e1pen\u00edk","zip":"090 02"},{"city":"Varadka","zip":"086 36"},{"city":"Varechovce","zip":"090 23"},{"city":"Varha\u0148ovce","zip":"082 05"},{"city":"Var\u00edn","zip":"013 03"},{"city":"Varov \u0160\u00far","zip":"919 25"},{"city":"Vasi\u013eov","zip":"029 51"},{"city":"Vavre\u010dka","zip":"029 01"},{"city":"Vavrinec","zip":"094 31"},{"city":"Vavri\u0161ovo","zip":"032 42"},{"city":"Va\u017eec","zip":"032 61"},{"city":"V\u010del\u00e1re","zip":"044 02"},{"city":"V\u010delince","zip":"980 50"},{"city":"V\u010delinec","zip":"979 01"},{"city":"V\u00e9\u010d","zip":"076 35"},{"city":"Ve\u010delkov","zip":"980 34"},{"city":"Vechec","zip":"094 12"},{"city":"V\u00e9k","zip":"947 01"},{"city":"Ve\u013eaty","zip":"076 15"},{"city":"Vel\u010dice","zip":"913 04"},{"city":"Vel\u010dice","zip":"951 71"},{"city":"Veli\u010dn\u00e1","zip":"027 54"},{"city":"Ve\u013ek\u00e1","zip":"058 01"},{"city":"Ve\u013ek\u00e1 Bara","zip":"076 32"},{"city":"Ve\u013ek\u00e1 Budafa","zip":"930 34"},{"city":"Ve\u013ek\u00e1 Byt\u010da","zip":"014 01"},{"city":"Ve\u013ek\u00e1 \u010calomija","zip":"991 09"},{"city":"Ve\u013ek\u00e1 \u010causa","zip":"971 01"},{"city":"Ve\u013ek\u00e1 \u010cierna","zip":"015 01"},{"city":"Ve\u013ek\u00e1 Dolina","zip":"985 53"},{"city":"Ve\u013ek\u00e1 Dolina","zip":"951 15"},{"city":"Ve\u013ek\u00e1 Frankov\u00e1","zip":"059 78"},{"city":"Ve\u013ek\u00e1 G\u00fata","zip":"946 03"},{"city":"Ve\u013ek\u00e1 Hradn\u00e1","zip":"913 24"},{"city":"Ve\u013ek\u00e1 Ida","zip":"044 55"},{"city":"Ve\u013ek\u00e1 Lehota","zip":"972 42"},{"city":"Ve\u013ek\u00e1 Lehota","zip":"966 41"},{"city":"Ve\u013ek\u00e1 Lesn\u00e1","zip":"065 34"},{"city":"Ve\u013ek\u00e1 Lodina","zip":"044 81"},{"city":"Ve\u013ek\u00e1 Lomnica","zip":"059 52"},{"city":"Ve\u013ek\u00e1 L\u00fa\u010d","zip":"930 03"},{"city":"Ve\u013ek\u00e1 L\u00faka","zip":"962 31"},{"city":"Ve\u013ek\u00e1 Ma\u010da","zip":"925 32"},{"city":"Ve\u013ek\u00e1 Ma\u0148a","zip":"941 45"},{"city":"Ve\u013ek\u00e1 nad Ip\u013eom","zip":"985 32"},{"city":"Ve\u013ek\u00e1 Paka","zip":"930 51"},{"city":"Ve\u013ek\u00e1 Such\u00e1","zip":"980 13"},{"city":"Ve\u013ek\u00e1 T\u0155\u0148a","zip":"076 82"},{"city":"Ve\u013ek\u00e1 Ves","zip":"951 13"},{"city":"Ve\u013ek\u00e1 Ves","zip":"985 01"},{"city":"Ve\u013ek\u00e1 Ves nad Ip\u013eom","zip":"991 10"},{"city":"Ve\u013ek\u00e9 Bielice","zip":"958 04"},{"city":"Ve\u013ek\u00e9 Bierovce","zip":"913 11"},{"city":"Ve\u013ek\u00e9 Blahovo","zip":"930 01"},{"city":"Ve\u013ek\u00e9 Borov\u00e9","zip":"027 32"},{"city":"Ve\u013ek\u00e9 D\u00e1lovce","zip":"985 32"},{"city":"Ve\u013ek\u00e9 Dravce","zip":"985 42"},{"city":"Ve\u013ek\u00e9 Dr\u017ekovce","zip":"956 54"},{"city":"Ve\u013ek\u00e9 Dvorany","zip":"956 01"},{"city":"Ve\u013ek\u00e9 Dvorn\u00edky","zip":"929 01"},{"city":"Ve\u013ek\u00e9 Hoste","zip":"956 38"},{"city":"Ve\u013ek\u00e9 Chlievany","zip":"956 55"},{"city":"Ve\u013ek\u00e9 Chyndice","zip":"951 54"},{"city":"Ve\u013ek\u00e9 Kapu\u0161any","zip":"079 01"},{"city":"Ve\u013ek\u00e9 Kosihy","zip":"946 21"},{"city":"Ve\u013ek\u00e9 Kosto\u013eany","zip":"922 07"},{"city":"Ve\u013ek\u00e9 Ko\u0161eck\u00e9 Podhra","zip":"018 31"},{"city":"Ve\u013ek\u00e9 Kozm\u00e1lovce","zip":"935 21"},{"city":"Ve\u013ek\u00e9 Kr\u0161kany","zip":"934 01"},{"city":"Ve\u013ek\u00e9 Kr\u0161te\u0148any","zip":"958 03"},{"city":"Ve\u013ek\u00e9 Lev\u00e1re","zip":"908 73"},{"city":"Ve\u013ek\u00e9 Lovce","zip":"941 42"},{"city":"Ve\u013ek\u00e9 Ludince","zip":"935 65"},{"city":"Ve\u013ek\u00e9 Orvi\u0161te","zip":"922 01"},{"city":"Ve\u013ek\u00e9 Ostratice","zip":"956 34"},{"city":"Ve\u013ek\u00e9 Ozorovce","zip":"078 01"},{"city":"Ve\u013ek\u00e9 Pole","zip":"966 74"},{"city":"Ve\u013ek\u00e9 Ra\u0161kovce","zip":"076 75"},{"city":"Ve\u013ek\u00e9 Revi\u0161tia","zip":"072 43"},{"city":"Ve\u013ek\u00e9 Rip\u0148any","zip":"956 07"},{"city":"Ve\u013ek\u00e9 Rovn\u00e9","zip":"013 62"},{"city":"Ve\u013ek\u00e9 Slemence","zip":"076 77"},{"city":"Ve\u013ek\u00e9 Stankovce","zip":"913 11"},{"city":"Ve\u013ek\u00e9 Straciny","zip":"990 01"},{"city":"Ve\u013ek\u00e9 Teriakovce","zip":"980 51"},{"city":"Ve\u013ek\u00e9 Trakany","zip":"076 42"},{"city":"Ve\u013ek\u00e9 Turovce","zip":"935 81"},{"city":"Ve\u013ek\u00e9 Uherce","zip":"958 41"},{"city":"Ve\u013ek\u00e9 \u00da\u013eany","zip":"925 22"},{"city":"Ve\u013ek\u00e9 Vozokany","zip":"951 82"},{"city":"Ve\u013ek\u00e9 Zalu\u017eice","zip":"072 34"},{"city":"Ve\u013ek\u00e9 Z\u00e1lu\u017eie","zip":"951 35"},{"city":"Ve\u013ek\u00e9 Zlievce","zip":"991 23"},{"city":"Ve\u013ekrop","zip":"091 01"},{"city":"Ve\u013ek\u00fd B\u00e1b","zip":"951 34"},{"city":"Ve\u013ek\u00fd Biel","zip":"900 24"},{"city":"Ve\u013ek\u00fd Blh","zip":"980 22"},{"city":"Ve\u013ek\u00fd Bysterec","zip":"026 01"},{"city":"Ve\u013ek\u00fd Cet\u00edn","zip":"951 05"},{"city":"Ve\u013ek\u00fd \u010cep\u010d\u00edn","zip":"038 45"},{"city":"Ve\u013ek\u00fd \u010eur","zip":"935 34"},{"city":"Ve\u013ek\u00fd Dvor","zip":"937 01"},{"city":"Ve\u013ek\u00fd Folkmar","zip":"055 51"},{"city":"Ve\u013ek\u00fd Grob","zip":"925 27"},{"city":"Ve\u013ek\u00fd Har\u010d\u00e1\u0161","zip":"945 01"},{"city":"Ve\u013ek\u00fd Hore\u0161","zip":"076 52"},{"city":"Ve\u013ek\u00fd Kamenec","zip":"076 36"},{"city":"Ve\u013ek\u00fd Kl\u00ed\u017e","zip":"958 45"},{"city":"Ve\u013ek\u00fd Kola\u010d\u00edn","zip":"018 51"},{"city":"Ve\u013ek\u00fd Krt\u00ed\u0161","zip":"990 01"},{"city":"Ve\u013ek\u00fd K\u00fdr","zip":"941 07"},{"city":"Ve\u013ek\u00fd Lap\u00e1\u0161","zip":"951 04"},{"city":"Ve\u013ek\u00fd L\u00e9g","zip":"930 37"},{"city":"Ve\u013ek\u00fd L\u00e9l","zip":"946 12"},{"city":"Ve\u013ek\u00fd Lipn\u00edk","zip":"065 33"},{"city":"Ve\u013ek\u00fd Lom","zip":"991 03"},{"city":"Ve\u013ek\u00fd Meder","zip":"932 01"},{"city":"Ve\u013ek\u00fd Ostrov","zip":"946 03"},{"city":"Ve\u013ek\u00fd Pesek","zip":"937 01"},{"city":"Ve\u013ek\u00fd Ruskov","zip":"075 01"},{"city":"Ve\u013ek\u00fd Slavkov","zip":"059 91"},{"city":"Ve\u013ek\u00fd Slivn\u00edk","zip":"082 67"},{"city":"Ve\u013ek\u00fd \u0160ari\u0161","zip":"082 21"},{"city":"Ve\u013eopolie","zip":"067 31"},{"city":"Velu\u0161ovce","zip":"955 01"},{"city":"Vern\u00e1r","zip":"059 17"},{"city":"Vesel\u00e1","zip":"935 52"},{"city":"Vesel\u00e9","zip":"922 08"},{"city":"Vetern\u00e1 Poruba","zip":"031 04"},{"city":"Vidin\u00e1","zip":"985 59"},{"city":"Vidov Vrch","zip":"962 63"},{"city":"Vidov\u00e1","zip":"049 11"},{"city":"Vidovany","zip":"908 62"},{"city":"Vieska","zip":"972 45"},{"city":"Vieska","zip":"908 63"},{"city":"Vieska","zip":"965 01"},{"city":"Vieska","zip":"991 02"},{"city":"Vieska","zip":"930 02"},{"city":"Vieska","zip":"916 26"},{"city":"Vieska - Bezdedov","zip":"020 01"},{"city":"Vieska nad Blhom","zip":"980 21"},{"city":"Vieska nad \u017ditavou","zip":"951 52"},{"city":"V\u00edg\u013ea\u0161","zip":"962 02"},{"city":"V\u00edg\u013ea\u0161","zip":"962 12"},{"city":"V\u00edg\u013ea\u0161sk\u00e1 Huta","zip":"962 25"},{"city":"Vikartovce","zip":"059 19"},{"city":"Vinica","zip":"991 28"},{"city":"Vinice","zip":"979 01"},{"city":"Vini\u010dky","zip":"076 31"},{"city":"Vini\u010dn\u00e9","zip":"900 23"},{"city":"Vinn\u00e9","zip":"072 31"},{"city":"Vinodol","zip":"951 06"},{"city":"Vinohr\u00e1dok","zip":"901 01"},{"city":"Vinohrady nad V\u00e1hom","zip":"925 55"},{"city":"Vinosady","zip":"902 01"},{"city":"Viol\u00edn","zip":"946 02"},{"city":"Virt","zip":"946 38"},{"city":"Vislanka","zip":"065 41"},{"city":"Vislava","zip":"090 21"},{"city":"Visolaje","zip":"018 61"},{"city":"Vi\u0161\u0148ov","zip":"076 61"},{"city":"Vi\u0161\u0148ov\u00e9","zip":"013 55"},{"city":"Vi\u0161\u0148ov\u00e9","zip":"982 62"},{"city":"Vi\u0161\u0148ov\u00e9","zip":"916 16"},{"city":"Vi\u0161\u0148ov\u00e9","zip":"013 23"},{"city":"Vi\u0161tuk","zip":"900 85"},{"city":"Vitanov\u00e1","zip":"027 12"},{"city":"V\u00ed\u0165az","zip":"082 38"},{"city":"V\u00ed\u0165azovce","zip":"067 24"},{"city":"V\u00edtkovce","zip":"053 63"},{"city":"Vla\u010da","zip":"094 31"},{"city":"Vladi\u010da","zip":"090 23"},{"city":"Vlachovo","zip":"049 24"},{"city":"Vlachy","zip":"032 13"},{"city":"Vla\u0161ky","zip":"032 13"},{"city":"Vl\u010dany","zip":"925 84"},{"city":"Vl\u010d\u00ed Vrch","zip":"913 33"},{"city":"Vl\u010dkovany","zip":"908 62"},{"city":"Vl\u010dkovce","zip":"919 23"},{"city":"Vl\u010dkovo","zip":"957 03"},{"city":"Vl\u010dovo","zip":"985 26"},{"city":"Vlkanov\u00e1","zip":"976 31"},{"city":"Vlkanovo","zip":"946 54"},{"city":"Vlkas","zip":"941 44"},{"city":"Vlkov","zip":"018 03"},{"city":"Vlkov\u00e1","zip":"059 72"},{"city":"Vlkovce","zip":"059 71"},{"city":"Vlky","zip":"900 44"},{"city":"Vlky\u0148a","zip":"980 44"},{"city":"Voderady","zip":"919 42"},{"city":"Vojany","zip":"076 72"},{"city":"Voj\u010dice","zip":"076 22"},{"city":"Vojka","zip":"076 83"},{"city":"Vojka nad Dunajom","zip":"930 31"},{"city":"Vojkovce","zip":"053 61"},{"city":"Voj\u0148any","zip":"059 02"},{"city":"Vojnatina","zip":"072 61"},{"city":"Vojtechovce","zip":"930 38"},{"city":"Vojtovce","zip":"091 01"},{"city":"Vo\u013ea","zip":"072 21"},{"city":"Volica","zip":"067 01"},{"city":"Volkovce","zip":"951 87"},{"city":"Voznica","zip":"966 81"},{"city":"Vozokany","zip":"956 05"},{"city":"Vozokany","zip":"925 05"},{"city":"Vozokany nad Hronom","zip":"935 61"},{"city":"Vr\u00e1ble","zip":"952 01"},{"city":"Vr\u00e1di\u0161te","zip":"908 49"},{"city":"Vrak\u00fa\u0148","zip":"930 25"},{"city":"Vranov nad Top\u013eou","zip":"093 01"},{"city":"Vranov nad Top\u013eou","zip":"093 03"},{"city":"Vranov nad Top\u013eou","zip":"093 02"},{"city":"Vrbany","zip":"972 24"},{"city":"Vrbina","zip":"930 08"},{"city":"Vrbnica","zip":"072 16"},{"city":"Vrbov","zip":"059 72"},{"city":"Vrbov\u00e1 nad V\u00e1hom","zip":"945 01"},{"city":"Vrbovce","zip":"906 06"},{"city":"Vrbovce nad Rimavou","zip":"980 52"},{"city":"Vrbov\u00e9","zip":"922 03"},{"city":"V\u0155bovec","zip":"071 01"},{"city":"Vrbovka","zip":"991 06"},{"city":"Vrchdobro\u010d","zip":"962 05"},{"city":"Vrchpredmier","zip":"023 22"},{"city":"Vrchrieka","zip":"023 55"},{"city":"Vrchslatina","zip":"976 53"},{"city":"Vrchtepl\u00e1","zip":"017 05"},{"city":"Vr\u00edcko","zip":"038 31"},{"city":"Vr\u0161atsk\u00e9 Podhradie","zip":"018 52"},{"city":"Vr\u00fatky","zip":"038 61"},{"city":"V\u0161echsv\u00e4t\u00fdch","zip":"044 13"},{"city":"Vt\u00e1\u010dkovce","zip":"044 47"},{"city":"V\u00fdborn\u00e1","zip":"059 02"},{"city":"Vyb\u00fachanec","zip":"071 01"},{"city":"V\u00fd\u010dapky","zip":"951 25"},{"city":"V\u00fd\u010dapy - Opatovce","zip":"951 44"},{"city":"Vydra\u0148","zip":"068 01"},{"city":"Vydrany","zip":"930 16"},{"city":"Vydrn\u00e1","zip":"020 53"},{"city":"Vydrn\u00edk","zip":"059 14"},{"city":"Vydrovo","zip":"976 52"},{"city":"Vyhne","zip":"966 02"},{"city":"V\u00fdchodn\u00e1","zip":"032 32"},{"city":"Vychylovka","zip":"023 05"},{"city":"V\u00fdrava","zip":"067 16"},{"city":"Vysiela\u010d","zip":"080 01"},{"city":"Vysock\u00fd Dvor","zip":"072 14"},{"city":"Vyso\u010dany","zip":"956 35"},{"city":"Vysok\u00e1","zip":"969 01"},{"city":"Vysok\u00e1","zip":"082 74"},{"city":"Vysok\u00e1 nad Kysucou","zip":"023 55"},{"city":"Vysok\u00e1 nad Uhom","zip":"072 14"},{"city":"Vysok\u00e1 pri Morave","zip":"900 66"},{"city":"Vysok\u00e9 Tatry","zip":"062 01"},{"city":"Doln\u00fd Smokovec","zip":"059 81"},{"city":"Horn\u00fd Smokovec","zip":"062 01"},{"city":"Ke\u017emarsk\u00e9 \u017d\u013eaby","zip":"059 60"},{"city":"Nov\u00e1 Polianka","zip":"059 83"},{"city":"Nov\u00fd Smokovec","zip":"062 01"},{"city":"Podbansk\u00e9","zip":"032 42"},{"city":"Star\u00fd Smokovec","zip":"062 01"},{"city":"\u0160trbsk\u00e9 Pleso","zip":"059 85"},{"city":"Tatransk\u00e1 Kotlina","zip":"059 54"},{"city":"Tatransk\u00e1 Lesn\u00e1","zip":"059 60"},{"city":"Tatransk\u00e1 Lomnica","zip":"059 60"},{"city":"Tatransk\u00e1 Polianka","zip":"062 01"},{"city":"Tatransk\u00e9 Matliare","zip":"059 60"},{"city":"Tatransk\u00e9 Zruby","zip":"062 01"},{"city":"Vy\u0161n\u00e9 H\u00e1gy","zip":"059 84"},{"city":"Vy\u0161ehradn\u00e9","zip":"972 13"},{"city":"Vy\u0161kovce","zip":"090 21"},{"city":"Vy\u0161kovce nad Ip\u013eom","zip":"935 77"},{"city":"Vy\u0161n\u00e1 Boca","zip":"032 34"},{"city":"Vy\u0161n\u00e1 Hutka","zip":"040 18"},{"city":"Vy\u0161n\u00e1 Jablonka","zip":"067 34"},{"city":"Vy\u0161n\u00e1 Jed\u013eov\u00e1","zip":"089 01"},{"city":"Vy\u0161n\u00e1 Kalo\u0161a","zip":"982 52"},{"city":"Vy\u0161n\u00e1 Kamenica","zip":"044 45"},{"city":"Vy\u0161n\u00e1 Kor\u0148a","zip":"023 21"},{"city":"Vy\u0161n\u00e1 My\u0161\u013ea","zip":"044 15"},{"city":"Vy\u0161n\u00e1 Ol\u0161ava","zip":"090 32"},{"city":"Vy\u0161n\u00e1 Pisan\u00e1","zip":"090 01"},{"city":"Vy\u0161n\u00e1 Pokoradz","zip":"979 01"},{"city":"Vy\u0161n\u00e1 Polianka","zip":"086 36"},{"city":"Vy\u0161n\u00e1 Rev\u00faca","zip":"034 74"},{"city":"Vy\u0161n\u00e1 Rybnica","zip":"072 41"},{"city":"Vy\u0161n\u00e1 Sitnica","zip":"094 07"},{"city":"Vy\u0161n\u00e1 Slan\u00e1","zip":"049 26"},{"city":"Vy\u0161n\u00e1 \u0160ebastov\u00e1","zip":"080 06"},{"city":"Vy\u0161n\u00e1 Vladi\u010da","zip":"090 23"},{"city":"Vy\u0161n\u00e1 Vo\u013ea","zip":"086 21"},{"city":"Vy\u0161n\u00e9 Ladi\u010dkovce","zip":"067 11"},{"city":"Vy\u0161n\u00e9 Matia\u0161ovce","zip":"032 23"},{"city":"Vy\u0161n\u00e9 nad Hronom","zip":"935 31"},{"city":"Vy\u0161n\u00e9 Nemeck\u00e9","zip":"072 51"},{"city":"Vy\u0161n\u00e9 Raslavice","zip":"086 41"},{"city":"Vy\u0161n\u00e9 Remety","zip":"072 41"},{"city":"Vy\u0161n\u00e9 Repa\u0161e","zip":"053 71"},{"city":"Vy\u0161n\u00e9 Revi\u0161tia","zip":"072 43"},{"city":"Vy\u0161n\u00e9 Ru\u017ebachy","zip":"065 02"},{"city":"Vy\u0161n\u00e9 Valice","zip":"982 52"},{"city":"Vy\u0161n\u00fd \u010caj","zip":"044 16"},{"city":"Vy\u0161n\u00fd Hrabovec","zip":"090 34"},{"city":"Vy\u0161n\u00fd Hru\u0161ov","zip":"067 32"},{"city":"Vy\u0161n\u00fd Kazim\u00edr","zip":"094 09"},{"city":"Vy\u0161n\u00fd Kel\u010dov","zip":"023 55"},{"city":"Vy\u0161n\u00fd Kl\u00e1tov","zip":"044 12"},{"city":"Vy\u0161n\u00fd Kom\u00e1rnik","zip":"090 05"},{"city":"Vy\u0161n\u00fd Koniec","zip":"023 54"},{"city":"Vy\u0161n\u00fd Kru\u010dov","zip":"086 45"},{"city":"Vy\u0161n\u00fd Kub\u00edn","zip":"026 01"},{"city":"Vy\u0161n\u00fd L\u00e1nec","zip":"044 74"},{"city":"Vy\u0161n\u00fd Medzev","zip":"044 25"},{"city":"Vy\u0161n\u00fd Miro\u0161ov","zip":"090 11"},{"city":"Vy\u0161n\u00fd Orl\u00edk","zip":"090 11"},{"city":"Vy\u0161n\u00fd Sk\u00e1lnik","zip":"980 52"},{"city":"Vy\u0161n\u00fd Slavkov","zip":"053 73"},{"city":"Vy\u0161n\u00fd Slia\u010d","zip":"034 84"},{"city":"Vy\u0161n\u00fd Tvaro\u017eec","zip":"086 02"},{"city":"Vy\u0161n\u00fd \u017dipov","zip":"094 33"},{"city":"Z\u00e1biedovo","zip":"028 01"},{"city":"Z\u00e1borie","zip":"038 03"},{"city":"Z\u00e1borsk\u00e9","zip":"082 53"},{"city":"Z\u00e1bre\u017e","zip":"027 54"},{"city":"Zabudi\u0161ov\u00e1","zip":"913 07"},{"city":"Z\u00e1diel","zip":"032 23"},{"city":"Z\u00e1diel","zip":"044 02"},{"city":"Z\u00e1dor","zip":"980 42"},{"city":"Zah\u00e1jnica","zip":"053 33"},{"city":"Z\u00e1hor","zip":"072 53"},{"city":"Z\u00e1horce","zip":"991 06"},{"city":"Z\u00e1hor\u010die","zip":"966 81"},{"city":"Z\u00e1horie","zip":"901 01"},{"city":"Z\u00e1horsk\u00e1 Ves","zip":"900 65"},{"city":"Z\u00e1hrada","zip":"955 01"},{"city":"Z\u00e1hradn\u00e9","zip":"082 16"},{"city":"Z\u00e1hrb","zip":"968 01"},{"city":"Zacharovce","zip":"979 01"},{"city":"Zaje\u017eov\u00e1","zip":"962 63"},{"city":"Z\u00e1kamenn\u00e9","zip":"029 56"},{"city":"Z\u00e1kop\u010die","zip":"023 11"},{"city":"Z\u00e1kysu\u010die","zip":"023 02"},{"city":"Zalaba","zip":"937 01"},{"city":"Z\u00e1lesie","zip":"900 28"},{"city":"Z\u00e1lesie","zip":"059 04"},{"city":"Zalu\u017eice","zip":"072 34"},{"city":"Zamarovce","zip":"911 05"},{"city":"Z\u00e1mostie","zip":"976 97"},{"city":"Z\u00e1mutov","zip":"094 15"},{"city":"Zapriechody","zip":"962 12"},{"city":"Z\u00e1rie\u010d - Keblov","zip":"013 32"},{"city":"Z\u00e1rie\u010die","zip":"020 52"},{"city":"Z\u00e1skalie","zip":"026 01"},{"city":"Z\u00e1skalie","zip":"017 05"},{"city":"Zat\u00edn","zip":"076 53"},{"city":"Z\u00e1toka","zip":"023 55"},{"city":"Z\u00e1vada","zip":"054 01"},{"city":"Z\u00e1vada","zip":"951 87"},{"city":"Z\u00e1vada","zip":"955 01"},{"city":"Z\u00e1vada","zip":"094 08"},{"city":"Z\u00e1vada","zip":"991 21"},{"city":"Z\u00e1vada p\/\u010cier.vrchom","zip":"956 41"},{"city":"Z\u00e1vadka","zip":"082 67"},{"city":"Z\u00e1vadka","zip":"072 33"},{"city":"Z\u00e1vadka","zip":"066 01"},{"city":"Z\u00e1vadka","zip":"053 33"},{"city":"Z\u00e1vadka nad Hronom","zip":"976 67"},{"city":"Zavar","zip":"919 26"},{"city":"Z\u00e1va\u017en\u00e1 Poruba","zip":"032 02"},{"city":"Z\u00e1vod","zip":"908 72"},{"city":"Z\u00e1vodie","zip":"065 46"},{"city":"Z\u00e1vodie","zip":"023 54"},{"city":"Z\u00e1zriv\u00e1","zip":"027 05"},{"city":"Zbeh\u0148ov","zip":"078 01"},{"city":"Zbehy","zip":"916 16"},{"city":"Zbehy","zip":"951 42"},{"city":"Zboj","zip":"067 68"},{"city":"Zbojn\u00e9","zip":"067 13"},{"city":"Zbora","zip":"020 51"},{"city":"Zborov","zip":"086 33"},{"city":"Zborov nad Bystricou","zip":"023 03"},{"city":"Zbrojn\u00edky","zip":"935 55"},{"city":"Zbudsk\u00e1 Bel\u00e1","zip":"067 01"},{"city":"Zbudsk\u00e9 Dlh\u00e9","zip":"067 12"},{"city":"Zbudza","zip":"072 23"},{"city":"Zby\u0148ov","zip":"013 19"},{"city":"Zdoba","zip":"044 41"},{"city":"Zelen\u00e9","zip":"987 01"},{"city":"Zelene\u010d","zip":"919 21"},{"city":"Zelen\u00fd H\u00e1j","zip":"947 01"},{"city":"Zemianska Dedina","zip":"027 43"},{"city":"Zemianska Ol\u010da","zip":"946 14"},{"city":"Zemianska Z\u00e1vada","zip":"018 15"},{"city":"Zemianske Kosto\u013eany","zip":"972 43"},{"city":"Zemianske Lieskov\u00e9","zip":"913 05"},{"city":"Zemianske Mitice","zip":"913 22"},{"city":"Zemianske Podhradie","zip":"913 07"},{"city":"Zemianske Sady","zip":"925 54"},{"city":"Zemiansky Vrbovok","zip":"962 41"},{"city":"Zemn\u00e9","zip":"941 22"},{"city":"Zempl\u00edn","zip":"076 34"},{"city":"Zempl\u00ednska Nov\u00e1 Ves","zip":"076 16"},{"city":"Zempl\u00ednska \u0160\u00edrava","zip":"072 36"},{"city":"Zempl\u00ednska \u0160irok\u00e1","zip":"072 13"},{"city":"Zempl\u00ednska Teplica","zip":"076 64"},{"city":"Zempl\u00ednske H\u00e1mre","zip":"067 77"},{"city":"Zempl\u00ednske Hradi\u0161te","zip":"076 01"},{"city":"Zempl\u00ednske Jastrabie","zip":"076 05"},{"city":"Zempl\u00ednske Kop\u010dany","zip":"072 17"},{"city":"Zempl\u00ednsky Bran\u010d","zip":"076 02"},{"city":"Zempl\u00ednsky Kle\u010denov","zip":"076 16"},{"city":"Zimn\u00e1 Stud\u0148a","zip":"082 12"},{"city":"Zl\u00e1man\u00e1","zip":"023 55"},{"city":"Zlat\u00e1 Ba\u0148a","zip":"082 52"},{"city":"Zlat\u00e1 Idka","zip":"044 61"},{"city":"Zlat\u00e1 Osada","zip":"945 01"},{"city":"Zlat\u00e9","zip":"086 01"},{"city":"Zlat\u00e9 Klasy","zip":"930 39"},{"city":"Zlat\u00e9 Moravce","zip":"953 01"},{"city":"Zlat\u00e9 Moravce","zip":"953 05"},{"city":"Zlatn\u00e1 na Ostrove","zip":"946 12"},{"city":"Zlatn\u00edk","zip":"094 33"},{"city":"Zlatn\u00edky","zip":"956 37"},{"city":"Zlatno","zip":"976 69"},{"city":"Zlatno","zip":"985 03"},{"city":"Zlatno","zip":"951 91"},{"city":"Zliechov","zip":"018 32"},{"city":"Zohor","zip":"900 51"},{"city":"Zombor","zip":"991 22"},{"city":"Zub\u00e1k","zip":"020 64"},{"city":"Zuberec","zip":"027 32"},{"city":"Zubn\u00e9","zip":"067 33"},{"city":"Zubria","zip":"985 51"},{"city":"Zubrohlava","zip":"029 43"},{"city":"Zvolen","zip":"960 01"},{"city":"Zvolen","zip":"962 21"},{"city":"Zvolensk\u00e1 Slatina","zip":"962 01"},{"city":"Zvon\u010d\u00edn","zip":"919 01"},{"city":"\u017dabany","zip":"071 01"},{"city":"\u017dabica","zip":"962 05"},{"city":"\u017dabokreky","zip":"038 40"},{"city":"\u017dabokreky nad Nitrou","zip":"958 52"},{"city":"\u017dadovica","zip":"916 16"},{"city":"\u017dakarovce","zip":"055 71"},{"city":"\u017dakovce","zip":"059 73"},{"city":"\u017dak\u00fdl","zip":"969 82"},{"city":"\u017dalob\u00edn","zip":"094 03"},{"city":"\u017darnov","zip":"013 62"},{"city":"\u017darnov","zip":"044 02"},{"city":"\u017darnovica","zip":"966 81"},{"city":"\u017darnovick\u00e1 Huta","zip":"966 81"},{"city":"\u017da\u0161kov","zip":"027 21"},{"city":"\u017datkovce","zip":"082 67"},{"city":"\u017dbince","zip":"072 16"},{"city":"\u017dda\u0148a","zip":"044 11"},{"city":"\u017ddiar","zip":"059 55"},{"city":"\u017deh\u0148a","zip":"082 06"},{"city":"\u017dehra","zip":"053 61"},{"city":"\u017delezn\u00e1 Breznica","zip":"962 34"},{"city":"\u017delezn\u00edk","zip":"049 64"},{"city":"\u017delezn\u00edk","zip":"087 01"},{"city":"\u017delezn\u00f4","zip":"032 15"},{"city":"\u017deliezovce","zip":"937 01"},{"city":"\u017delmanovce","zip":"086 44"},{"city":"\u017delobudza","zip":"962 12"},{"city":"\u017delovce","zip":"991 06"},{"city":"\u017demberovce","zip":"935 02"},{"city":"\u017demliare","zip":"935 57"},{"city":"\u017diar","zip":"032 05"},{"city":"\u017diar","zip":"982 01"},{"city":"\u017diar nad Hronom","zip":"965 01"},{"city":"\u017dibritov","zip":"963 01"},{"city":"\u017dih\u00e1rec","zip":"925 83"},{"city":"\u017dih\u013eava","zip":"985 45"},{"city":"\u017dih\u013eava","zip":"991 03"},{"city":"\u017dikava","zip":"951 92"},{"city":"\u017dilina","zip":"010 01"},{"city":"\u017dilina","zip":"010 04"},{"city":"\u017dilina","zip":"010 03"},{"city":"\u017dilina","zip":"010 09"},{"city":"\u017dilina","zip":"010 08"},{"city":"\u017dilina","zip":"010 15"},{"city":"\u017dilina","zip":"010 14"},{"city":"\u017dilina","zip":"010 07"},{"city":"\u017d\u00edp","zip":"980 21"},{"city":"\u017dipov","zip":"082 41"},{"city":"\u017dirany","zip":"951 74"},{"city":"\u017d\u00edrovce","zip":"044 45"},{"city":"\u017ditava","zip":"946 38"},{"city":"\u017ditavany","zip":"951 97"},{"city":"\u017ditavce","zip":"952 01"},{"city":"\u017ditn\u00e1","zip":"956 41"},{"city":"\u017ditn\u00e1 - Radi\u0161a","zip":"956 41"},{"city":"\u017dlkovce","zip":"920 42"},{"city":"\u017drnov\u00e9","zip":"018 03"},{"city":"\u017dup\u010dany","zip":"080 01"},{"city":"\u017dupkov","zip":"966 71"}]